{
  "type": "FeatureCollection",
  "name": "Catacaos official documentary context — v0.8 experimental",
  "properties": {
    "production_use": false,
    "warning": "Estos rectángulos representan extensiones de visor/documento, no polígonos de peligro, inundación ni riesgo."
  },
  "features": [
    {
      "type": "Feature",
      "properties": {
        "id": "catacaos_evar_2017_extent",
        "name": "CENEPRED EVAR Catacaos 2017 — ámbito de visor",
        "year": 2017,
        "source": "CENEPRED / SIGRID",
        "source_url": "https://sigrid.cenepred.gob.pe/sigridv3/documento/4104",
        "document_type": "EVAR desborde río Piura e inundación pluvial",
        "context_only": true,
        "is_hazard_polygon": false,
        "production_use": false
      },
      "geometry": {
        "type": "Polygon",
        "coordinates": [[
          [-80.691781833, -5.286748327],
          [-80.639510944, -5.286748327],
          [-80.639510944, -5.21714300000002],
          [-80.691781833, -5.21714300000002],
          [-80.691781833, -5.286748327]
        ]]
      }
    },
    {
      "type": "Feature",
      "properties": {
        "id": "catacaos_hydrologic_map_2011_extent",
        "name": "INDECI Mapa de Peligros Hidrológicos 2011 — ámbito de visor",
        "year": 2011,
        "source": "INDECI / SIGRID",
        "source_url": "https://sigrid.cenepred.gob.pe/sigridv3/documento/3109",
        "document_type": "Mapa de Peligros Hidrológicos",
        "context_only": true,
        "is_hazard_polygon": false,
        "production_use": false
      },
      "geometry": {
        "type": "Polygon",
        "coordinates": [[
          [-80.75252564, -5.31538834999998],
          [-80.60180695, -5.31538834999998],
          [-80.60180695, -5.20222687],
          [-80.75252564, -5.20222687],
          [-80.75252564, -5.31538834999998]
        ]]
      }
    },
    {
      "type": "Feature",
      "properties": {
        "id": "catacaos_pprrd_2026_extent",
        "name": "PPRRD Catacaos 2026-2030 — ámbito distrital de visor",
        "year": 2026,
        "source": "Municipalidad Distrital de Catacaos / SIGRID-CENEPRED",
        "source_url": "https://sigrid.cenepred.gob.pe/sigridv3/documento/22172",
        "document_type": "PPRRD 2026-2030",
        "context_only": true,
        "is_hazard_polygon": false,
        "production_use": false
      },
      "geometry": {
        "type": "Polygon",
        "coordinates": [[
          [-80.805083029, -5.79511493400003],
          [-80.052515184, -5.79511493400003],
          [-80.052515184, -5.15149531999998],
          [-80.805083029, -5.15149531999998],
          [-80.805083029, -5.79511493400003]
        ]]
      }
    }
  ]
}
