{"type":"FeatureCollection","crs":{"type":"name","properties":{"name":"EPSG:4326"}},"features":[{"type":"Feature","id":927,"geometry":{"type":"Polygon","coordinates":[[[-77.654866897400481,-9.4667786248975148],[-77.654810877906186,-9.4667082252461796],[-77.654615609951222,-9.4663654532101091],[-77.65453386341089,-9.4657540538235097],[-77.654530925096779,-9.4653715641733012],[-77.654449767821177,-9.4648366719602084],[-77.65429243868617,-9.4644170985666065],[-77.654057776953351,-9.4639598733048445],[-77.653862509142257,-9.463617091156852],[-77.653782237440439,-9.4631969377180987],[-77.653664310677627,-9.4628918196762051],[-77.653351716867078,-9.4623204251473538],[-77.653041185669167,-9.4620167599349063],[-77.652925029987955,-9.4619411401087898],[-77.652653893908891,-9.4617519397529382],[-77.652536852711251,-9.4615615694292874],[-77.652457759919741,-9.4612944092217948],[-77.652416588310942,-9.4609504665972004],[-77.652451008102645,-9.4604146889110794],[-77.652486891989525,-9.4600701582716553],[-77.652637762828348,-9.459648265380638],[-77.652674522954413,-9.459418471620058],[-77.652671299056067,-9.4589977383318136],[-77.652513980156883,-9.4585781662830399],[-77.652278442250406,-9.4580061912046087],[-77.652083773751826,-9.4577399049889017],[-77.651656791716675,-9.4573223672115461],[-77.651385075002977,-9.4570566606950219],[-77.651190111127889,-9.456752133428683],[-77.651033676569369,-9.4564472986724404],[-77.650876945793925,-9.4561042316797437],[-77.650758154639107,-9.4556843641722903],[-77.650639953573872,-9.4553410023170148],[-77.650407052186679,-9.4551132537064468],[-77.650174159302011,-9.4548855056962484],[-77.64994126490997,-9.4546577583620106],[-77.649707783236323,-9.4543535049305394],[-77.649512533555836,-9.4540107228991968],[-77.649434020948149,-9.4538200586350509],[-77.649277596232778,-9.4535152348645184],[-77.649197618300278,-9.4531333246981664],[-77.649156750323996,-9.4528276260881228],[-77.649270861816447,-9.4526355163803384],[-77.649384373974129,-9.4523668999692791],[-77.649613758258681,-9.4521356616652792],[-77.649958698852004,-9.4519035494282839],[-77.65049479831832,-9.4514787447068311],[-77.650761816577898,-9.4511324719416212],[-77.651067068907651,-9.450747651755071],[-77.65137261635688,-9.4504010951945663],[-77.651563175844046,-9.4501318988162115],[-77.651753441181,-9.4498244486341214],[-77.651981351123624,-9.4494019661009947],[-77.65207648812634,-9.449248250902901],[-77.652266173128424,-9.448864305746369],[-77.652570541423884,-9.4483647474310217],[-77.652798744582057,-9.4479805159044066],[-77.652911668092869,-9.4476354036887376],[-77.652948437241577,-9.4474056209394863],[-77.653022545092512,-9.4470225513422292],[-77.653097244312136,-9.446715978382807],[-77.653209586016402,-9.4462943686541401],[-77.653284295083949,-9.4459877947530018],[-77.653474560187931,-9.4456803554378723],[-77.653700994995489,-9.4450666269872148],[-77.65396771771492,-9.4446821028532302],[-77.654273256058673,-9.4443355450340185],[-77.654502039813963,-9.4440278011282945],[-77.654768467953886,-9.4436050321598088],[-77.654919920261634,-9.4432596354176326],[-77.655186634157559,-9.4428751102201076],[-77.655645666579417,-9.442450876026756],[-77.656066181599897,-9.4420269479453598],[-77.656332896147489,-9.4416424233458418],[-77.656831323280656,-9.4413326429152455],[-77.65740679924032,-9.4410222940169746],[-77.658058723151797,-9.4406348493398653],[-77.658517746160442,-9.4402106248910655],[-77.659015298597694,-9.4397861069218276],[-77.659552246047596,-9.4394760326191101],[-77.659896578221193,-9.4391674240182635],[-77.660202695559391,-9.4388973520041866],[-77.660548207098984,-9.4387417345770679],[-77.660854019957426,-9.438433421431581],[-77.661006050805312,-9.4381645096290487],[-77.661350972997994,-9.4379323973398481],[-77.661773531624149,-9.4377761995821654],[-77.662080809940434,-9.4376591208161447],[-77.662543058273855,-9.4376556202454207],[-77.662773308335275,-9.4375391205690651],[-77.663274074624326,-9.4375353274115774],[-77.663504902886146,-9.4374953334002374],[-77.663889220257715,-9.4373776652390369],[-77.664120049145467,-9.4373376708646273],[-77.664273249745179,-9.4372217522938548],[-77.664348824042492,-9.4370299276895313],[-77.664424397364314,-9.4368381021935459],[-77.664653456598614,-9.4365686115542946],[-77.66472873580274,-9.4363385425919777],[-77.664764021586322,-9.4359175147444265],[-77.664876354574616,-9.4354959067753068],[-77.665066895646547,-9.4352267107190571],[-77.665181284057411,-9.4350728440754423],[-77.665332126288746,-9.4346509407603172],[-77.665405350937135,-9.4341531324284986],[-77.665556783394379,-9.43380772419453],[-77.665534878552634,-9.4334636393123361],[-77.66564808785968,-9.433156779973471],[-77.665722185879034,-9.4327737102861313],[-77.665642210218948,-9.4323918097818513],[-77.665601341218334,-9.4320861106196041],[-77.665560167604738,-9.4317421689597563],[-77.665365518652237,-9.4314758920662651],[-77.665132339637296,-9.4312099022928386],[-77.665013844237535,-9.430828295793777],[-77.664702163074494,-9.430371649813118],[-77.664507503898079,-9.4301053739284129],[-77.664120248388144,-9.4298405432235377],[-77.663923839127975,-9.4293447785525686],[-77.663920015697514,-9.4288475488030237],[-77.664071457177442,-9.428502143092766],[-77.664146146582212,-9.4281955776075304],[-77.664142913239957,-9.4277748448488889],[-77.664216432706169,-9.427315279138119],[-77.664407267955838,-9.4270843261003776],[-77.664636033819164,-9.4267765908743275],[-77.665096798390152,-9.4265818563814605],[-77.665596672160476,-9.4264633121627508],[-77.665943923306159,-9.4265371831152223],[-77.666251201204972,-9.4264201036882316],[-77.666520540371764,-9.4263798162794199],[-77.666866336622206,-9.4262624419466388],[-77.667212714042037,-9.4262215740926791],[-77.667712873394763,-9.4261412833029308],[-77.668021320404009,-9.4261771969700749],[-77.668175986243341,-9.4262525232796239],[-77.668407690650454,-9.4263272683038561],[-77.668639100131273,-9.4263637616531462],[-77.668984296905748,-9.4261698915681595],[-77.66975408982178,-9.4260875574156824],[-77.670217203419242,-9.4261987963427583],[-77.670486247745387,-9.4261202546189988],[-77.670792639840116,-9.4258884273794425],[-77.670982877891234,-9.4255809765717053],[-77.671135479120551,-9.4253885731591023],[-77.671364245297028,-9.4250808381354929],[-77.671555071168754,-9.4248498846742947],[-77.671821462082107,-9.4244271076755304],[-77.672049342211906,-9.424004623771113],[-77.672431879554509,-9.4236574671410942],[-77.672813828192716,-9.4232338138640817],[-77.672889097438954,-9.4230037462260992],[-77.672963776809368,-9.4226971722427155],[-77.673037581111785,-9.4222758576491099],[-77.673189004098518,-9.4219304521583673],[-77.673379241294114,-9.4216230129062399],[-77.673608585966093,-9.4213917650046408],[-77.673876451157966,-9.4211602309470308],[-77.674221049332772,-9.420889866085508],[-77.674526548054885,-9.4205432880512578],[-77.674640926571087,-9.4203894216319366],[-77.674832048022893,-9.4201967117079377],[-77.675023453916666,-9.4200422639698473],[-77.67552271870774,-9.4198472156105115],[-77.675907606129286,-9.4198060432647992],[-77.67636953082345,-9.4197642897877074],[-77.6768699747726,-9.4197222331074659],[-77.677600343943183,-9.4195254342415087],[-77.678157976035976,-9.4194064433180333],[-77.678542862783388,-9.4193652701106387],[-77.678812488437558,-9.4193632164373433],[-77.679158560368606,-9.4192840861000207],[-77.67942729899471,-9.4191672920049658],[-77.679810418234055,-9.4188966222419346],[-77.67996300976337,-9.4187042162165557],[-77.680191756415766,-9.4183964715672364],[-77.68034465443138,-9.4182423102285213],[-77.680574579076719,-9.4180875583500399],[-77.680843318851629,-9.4179707653422486],[-77.68118790715188,-9.4177003887699176],[-77.681477343372165,-9.4173110048023023],[-77.681336078171583,-9.4169342589624812],[-77.681256974777369,-9.4166671071289034],[-77.681062031044789,-9.4163625976319842],[-77.68082974693688,-9.4162113547983655],[-77.680557753863013,-9.4159074246091556],[-77.680400149359357,-9.4154496277029018],[-77.680242535343609,-9.4149918216412054],[-77.679969668207391,-9.4145731433132074],[-77.679424532198524,-9.4138122805514364],[-77.679153139425452,-9.4135848471045307],[-77.678919675294054,-9.4132806128022484],[-77.678724141000643,-9.4128995975711369],[-77.678682082822732,-9.412440916341394],[-77.678679134824051,-9.4120584358029014],[-77.678750865857253,-9.4113693909627134],[-77.678710292641767,-9.4111019448885784],[-77.678473585627842,-9.4103769868799763],[-77.678315980840907,-9.4099191802797773],[-77.678235414436955,-9.4094607938571002],[-77.678228346911766,-9.4085428400275006],[-77.678261559073476,-9.4078540812865121],[-77.678181878359695,-9.4075104339163698],[-77.677986351619793,-9.4071294179273757],[-77.677867857107444,-9.4067478133311901],[-77.677824924376708,-9.4061743910841464],[-77.677705543794602,-9.405678037939742],[-77.677531038404979,-9.4055263682557673],[-77.677375212063069,-9.4052980487755633],[-77.677142052058272,-9.4050320678828054],[-77.676908893250797,-9.4047660758841616],[-77.6764061193511,-9.4045021397010888],[-77.67609680638131,-9.4043514869876876],[-77.675709579049254,-9.4040866758442139],[-77.675360871872996,-9.4038215603136308],[-77.675089497780007,-9.4035941170452499],[-77.674856633673826,-9.4033663779488226],[-77.67470080742298,-9.4031380601387617],[-77.674505577163487,-9.4027952881796022],[-77.674463824210932,-9.4023748493659891],[-77.674500878702787,-9.4021833186431074],[-77.674614363434458,-9.401914703340017],[-77.674727561412539,-9.4016078438543929],[-77.674916912681851,-9.4011856546244967],[-77.675068917310767,-9.4009167537437417],[-77.675182408692564,-9.4006481384221825],[-77.675216810932071,-9.4001123709520016],[-77.675214165552617,-9.3997681431150966],[-77.675326480956556,-9.3993465351162957],[-77.675474954933065,-9.3986186570601991],[-77.675546991122431,-9.3979678564340468],[-77.6755431767468,-9.3974706268263049],[-77.675424690070741,-9.3970890213771554],[-77.675383231638378,-9.3967068349345162],[-77.675417633077956,-9.3961710693536773],[-77.675452917877422,-9.3957500397625413],[-77.675410584986466,-9.3952531163118387],[-77.675253874915256,-9.3949100482320684],[-77.675058949368093,-9.3946055194119307],[-77.675015883902034,-9.3945319812738592],[-77.67513480815164,-9.3944519467596894],[-77.67540293815695,-9.3942586569758273],[-77.67551702160246,-9.3940665457054084],[-77.675591996917319,-9.3937982262206674],[-77.675821617617345,-9.3936052298136037],[-77.676281745334009,-9.3933339988473605],[-77.676472561124072,-9.3931030462484379],[-77.676586339781039,-9.3928726827384921],[-77.676699538777441,-9.3925658228507132],[-77.676813023295111,-9.3922972080335381],[-77.677349294285918,-9.391910647848178],[-77.677617434672584,-9.3917173571397541],[-77.677885859642927,-9.3915623203744065],[-77.67811636680355,-9.3914840742896626],[-77.678500044757996,-9.3912899190706263],[-77.678845204857623,-9.3910960492613214],[-77.679150684612225,-9.3907494824477169],[-77.679648722407606,-9.3904014498804766],[-77.680031812443104,-9.3901307983183777],[-77.680491054300418,-9.3897448094361966],[-77.680720077308408,-9.3894753179611943],[-77.680908240188828,-9.388900136985237],[-77.681289560284796,-9.3883999966404446],[-77.681633255231574,-9.3880148828954564],[-77.682014860431053,-9.3875529862983562],[-77.68224182825152,-9.3870157652801165],[-77.682430867420365,-9.3865553226248561],[-77.682658719090981,-9.3861328496822427],[-77.682963884963073,-9.3857480298007001],[-77.683077075395772,-9.3854411699830464],[-77.68345839381567,-9.3849410209680304],[-77.683802954805572,-9.3846706546806526],[-77.684262473708898,-9.3843229178210059],[-77.684876344976772,-9.3840122546734417],[-77.685258833718109,-9.3836650983095904],[-77.68556370473037,-9.3832420336695019],[-77.685793022822438,-9.3830107957121811],[-77.686098483633387,-9.3826642203699659],[-77.686404240298017,-9.3823558950482049],[-77.686825819244845,-9.3820849492635112],[-77.687131870273589,-9.3818148683101743],[-77.687437920888414,-9.3815447971590054],[-77.687589609830923,-9.3812376429370321],[-77.687741603320944,-9.380968742353387],[-77.68796915192145,-9.3805080059407047],[-77.688236977925257,-9.3802764728482089],[-77.688543314760906,-9.3800446451323314],[-77.688809666946526,-9.3796218668974234],[-77.68903808896097,-9.3792758896857986],[-77.68926711194311,-9.3790063980049521],[-77.689534928593062,-9.3787748563991524],[-77.689802755852867,-9.3785433227356538],[-77.689955044331384,-9.3783126647528992],[-77.69014583174048,-9.3780817122173783],[-77.690529492071661,-9.3778875470381919],[-77.690798497706496,-9.3778090066857995],[-77.691183622980645,-9.3778060765637807],[-77.69164578532191,-9.3778025581465698],[-77.691800717566437,-9.3779161279543235],[-77.692186735194483,-9.3780279384070138],[-77.692572458752039,-9.3781015038328217],[-77.69291907387543,-9.3780988702348278],[-77.693265688820247,-9.3780962263599168],[-77.693767244724512,-9.3782071607501756],[-77.694115049002704,-9.3783575083244397],[-77.694424628054833,-9.3785464041644033],[-77.694734208227615,-9.3787352896918978],[-77.695043786959275,-9.3789241866113322],[-77.69531456229879,-9.3790751239942445],[-77.695661775858014,-9.3791489762414653],[-77.695893442207279,-9.3792237032742438],[-77.696202727078003,-9.3793743463261681],[-77.696435286857451,-9.379563822352063],[-77.69659022921428,-9.3796773911364948],[-77.696822780290489,-9.3798668677613346],[-77.697132074169531,-9.3800175096592824],[-77.697441359173936,-9.3801681530865419],[-77.697789161707334,-9.3803185023935622],[-77.698060231896463,-9.3805076732625619],[-77.698447134873888,-9.3807342220961782],[-77.698717320789967,-9.3808086637780512],[-77.699064534159632,-9.3808825156143527],[-77.699373229272453,-9.3809566529128574],[-77.699546830593334,-9.3809935844302377],[-77.699932850171095,-9.3811053847605361],[-77.700395897267924,-9.381216594682023],[-77.700704896115511,-9.381328984799497],[-77.700859238891624,-9.3813660590273535],[-77.701168237919589,-9.3814784486593403],[-77.701553372083922,-9.381475500634668],[-77.701938200850194,-9.3814343179750104],[-77.702284225708127,-9.3813551686686001],[-77.702553232240177,-9.3812766193423993],[-77.702823113101815,-9.381312807064619],[-77.703093297621891,-9.38138723960075],[-77.703363484022546,-9.3814616718835353],[-77.70355634590598,-9.3814984513053101],[-77.704057018353254,-9.3814946182137628],[-77.704326612732316,-9.3814925631801653],[-77.704596199708377,-9.3814904998660253],[-77.704826981928605,-9.3814504867241073],[-77.705096576948037,-9.3814484229753692],[-77.705406166027558,-9.3816373003645914],[-77.705523187410506,-9.3818276506182272],[-77.705679013855033,-9.3820559602232301],[-77.705873653591723,-9.3823222172832299],[-77.706221467917899,-9.3824725457376843],[-77.70645373339984,-9.3826237698765649],[-77.706610158079073,-9.3829285641980906],[-77.706843318241141,-9.3831945273406117],[-77.707152601873261,-9.3833451612173402],[-77.707382500023456,-9.3831903985935092],[-77.707649718423141,-9.3828823612409646],[-77.707917819974085,-9.3826890622914796],[-77.708147708208543,-9.3825343012587314],[-77.708339684856583,-9.3824563302980977],[-77.708569571868452,-9.3823015790301412],[-77.708798870839715,-9.3820703224433597],[-77.708913219573205,-9.381916454216686],[-77.709141919359539,-9.3816087005471953],[-77.709410030806879,-9.3814154008714681],[-77.709639919248218,-9.3812606401706979],[-77.709908021007919,-9.3810673412401293],[-77.71025225765068,-9.3807587128408425],[-77.710442152383081,-9.3804130108556638],[-77.71049754398571,-9.3801065894203184],[-77.710649802998176,-9.3798759308138653],[-77.710840886755463,-9.3796832217891772],[-77.710994639547124,-9.3796437900167664],[-77.711264226359432,-9.3796417256199263],[-77.711534411232336,-9.3797161479341895],[-77.71176638216302,-9.3798291191030447],[-77.711921617816941,-9.3799809309155808],[-77.712038051211621,-9.3800947858140695],[-77.712232102216248,-9.3802845477960179],[-77.712541090943162,-9.3803969186661202],[-77.712966512806574,-9.3806231536080897],[-77.713314915913188,-9.3808499787383717],[-77.713508672195331,-9.3810014867899554],[-77.713740632557858,-9.3811144581302841],[-77.714048737645101,-9.3811120903259546],[-77.714472076572847,-9.3810705935532948],[-77.714779289355448,-9.3809534864360717],[-77.715279360945132,-9.3808731482790595],[-77.71562627095463,-9.3809087381664167],[-77.715896455982886,-9.3809831602193601],[-77.716244554556908,-9.3811717326862833],[-77.716438015877699,-9.3812849976500807],[-77.716707601797751,-9.3812829251420791],[-77.716977491910839,-9.3813190952236081],[-77.717402019762403,-9.3814305807564136],[-77.717634884999796,-9.3816582910399422],[-77.717790721365645,-9.3818865903457578],[-77.717946566076293,-9.3821148804248491],[-77.718218235279792,-9.3823805378479737],[-77.718488725102659,-9.3824932037976083],[-77.718719801044912,-9.3824914345718149],[-77.719181356235509,-9.3824113812165315],[-77.719718739061747,-9.3821777567316662],[-77.720103274265043,-9.3820983018941977],[-77.7203340458328,-9.3820582808644577],[-77.720757690385128,-9.3820550181934443],[-77.721065489737981,-9.3820143968657135],[-77.721257458556963,-9.3819364270266288],[-77.721564659893559,-9.3818193190211616],[-77.72179424333838,-9.3816263055519471],[-77.722138764993588,-9.3813559110739746],[-77.722329840238572,-9.3811631920008747],[-77.72252120838354,-9.3810087264331106],[-77.722789300927417,-9.3808154170790026],[-77.723249960375526,-9.3806206240954531],[-77.723595377389742,-9.3804649693222775],[-77.723902274786496,-9.3803096082267423],[-77.724093044287969,-9.3800786460517536],[-77.724475485911938,-9.3797314611111915],[-77.724705059788249,-9.3795384466255296],[-77.725280059016143,-9.3791897779248714],[-77.725818033813468,-9.3790326390068675],[-77.726048806284851,-9.3789926167702191],[-77.726396010302977,-9.3790664307253309],[-77.726742624790973,-9.3790637591616175],[-77.727127739958348,-9.3790607913557587],[-77.727627802951005,-9.3789804426903469],[-77.727973210764247,-9.3788247783499781],[-77.728203983375991,-9.3787847566141327],[-77.728377289747755,-9.3787834164189547],[-77.728684787193458,-9.3787045506334454],[-77.728953773675869,-9.3786259717547384],[-77.729338299284862,-9.37854650856403],[-77.729607874790119,-9.3785444350049225],[-77.729915970818809,-9.3785420567649407],[-77.730147342082404,-9.3785785223396001],[-77.730456036583064,-9.3786526320722512],[-77.730725622771018,-9.378650549423325],[-77.731072523130223,-9.37868611893823],[-77.731342110192301,-9.3786840457435101],[-77.731572881630896,-9.3786440138117797],[-77.73187917958326,-9.3784121579231332],[-77.732107554862168,-9.3780661524471736],[-77.73233593071734,-9.3777201550706302],[-77.732756264626488,-9.3772961703982816],[-77.732908818573364,-9.3771037462148765],[-77.733098674591986,-9.3767580444312557],[-77.733210921560868,-9.3763364446996054],[-77.733322256993844,-9.3758000973222746],[-77.73362585360897,-9.3752240229854884],[-77.734122912208747,-9.3747612042521595],[-77.7342381455924,-9.3747220666603788],[-77.734506228853135,-9.3745287479316115],[-77.734964767931899,-9.3740662243920934],[-77.735349283690425,-9.3739867510555523],[-77.735772604371249,-9.3739452373397079],[-77.736349972594809,-9.3739025231723936],[-77.736849416553724,-9.3737456698074109],[-77.737194226127897,-9.3735135091133408],[-77.737501113369873,-9.3733581386760374],[-77.737847110014044,-9.3732789699276857],[-77.738193410919195,-9.3732380448385992],[-77.738578221370048,-9.3731968160674874],[-77.739001541372261,-9.3731552907203408],[-77.739308732629027,-9.3730381638450257],[-77.739615620861798,-9.3728828036797918],[-77.739883695231299,-9.3726894857492571],[-77.740382532293879,-9.3724561269527502],[-77.740766743270257,-9.3723384100869556],[-77.7409972112292,-9.3722601259501133],[-77.741458735613335,-9.3721800641494131],[-77.741765928315104,-9.3720629373923732],[-77.742072511797915,-9.3718693137219748],[-77.742301771145947,-9.3716380571280631],[-77.742646265244986,-9.3713676426111654],[-77.742876428729332,-9.3712511164380317],[-77.743183915833598,-9.37117224171568],[-77.743491098551516,-9.3710551148395638],[-77.743836192036099,-9.3708611980499406],[-77.743915854945513,-9.3707404862823083],[-77.744095334689305,-9.3709000215698506],[-77.744369448280025,-9.3712563656513055],[-77.744588740573249,-9.3716401300918726],[-77.744890264620281,-9.372188357030403],[-77.745109557181692,-9.3726269416317809],[-77.745356259732688,-9.3729832863160674],[-77.745630372966502,-9.3733396312846722],[-77.74606895774501,-9.3738056261987595],[-77.746439008168551,-9.3742030957590021],[-77.746877592731977,-9.3745046195927522],[-77.747261348103351,-9.3747239116608121],[-77.747535460737808,-9.374860964123986],[-77.74791922514305,-9.374970614689671],[-77.748220749223648,-9.3751076668706226],[-77.748330390971987,-9.3752173177942346],[-77.748494862347641,-9.3754366097113699],[-77.748686743678732,-9.3757929552709314],[-77.748906036675223,-9.376231539996704],[-77.749125328891381,-9.3767797666118948],[-77.749344613021336,-9.377684336966766],[-77.749509085388453,-9.3793838468988113],[-77.749646146014896,-9.3803432480638609],[-77.749810608416254,-9.3809188859338661],[-77.750057311198375,-9.3814122910552804],[-77.750358833721108,-9.381686404581405],[-77.750797419917404,-9.3819056971629067],[-77.751400467072202,-9.3822072205620728],[-77.751893872742258,-9.3824539242894591],[-77.752387278244811,-9.3826732159853119],[-77.752771042865945,-9.3829473297408388],[-77.753045156911,-9.3832214428471872],[-77.753237038695488,-9.3836051980541182],[-77.75331926862647,-9.3840437826082894],[-77.7533877964228,-9.3845783038380137],[-77.753497445758413,-9.3852635915580329],[-77.753798969707447,-9.3862504037095587],[-77.75396343309454,-9.3867438098066973],[-77.754264966293192,-9.3874290877840583],[-77.754539078894297,-9.3880595561125944],[-77.754950245420673,-9.3889915372247668],[-77.755416240320926,-9.3901976412583767],[-77.755745173162154,-9.3914311559653676],[-77.755964466804812,-9.3926098400953997],[-77.756128937869406,-9.3934047702623182],[-77.756375640676879,-9.3942271190345998],[-77.756567512895373,-9.3946382842573595],[-77.756759395001225,-9.3948301663132057],[-77.756951276851126,-9.3948849867323059],[-77.75722539115155,-9.3948575770635276],[-77.757663977075737,-9.3946656953481273],[-77.758184792224696,-9.3944189923426276],[-77.758500021208533,-9.3943230562335938],[-77.759048247901291,-9.3942682346097381],[-77.759363477270043,-9.3943367600800158],[-77.759774651009494,-9.3944464023468139],[-77.760158405853034,-9.3947205244304293],[-77.760843693586366,-9.3952413409324826],[-77.761254868895165,-9.3954606238598473],[-77.761775684950848,-9.3954606241670735],[-77.762323912442923,-9.3953235715735968],[-77.762762497060478,-9.395268751295033],[-77.763009191226516,-9.3953235720411161],[-77.763118840834636,-9.3954058033331957],[-77.763228483360606,-9.395542863642012],[-77.76331072272518,-9.395734737841746],[-77.763392955453611,-9.3960910909214164],[-77.763530016357564,-9.3967763791103511],[-77.763721889161417,-9.3973794273301827],[-77.76410565344996,-9.3980921252644674],[-77.764599059342572,-9.3988322238535353],[-77.765037633777609,-9.3993530500681679],[-77.765421399202438,-9.3997642159826214],[-77.765668102331432,-9.4001205691921506],[-77.765777743082808,-9.4003946830467289],[-77.765777743048915,-9.4005317353859734],[-77.765722922876407,-9.4007236170211872],[-77.765435103548867,-9.4011210773997451],[-77.76499651927449,-9.401614481883243],[-77.7643660614428,-9.4023271807714863],[-77.76390006511167,-9.4032043419824074],[-77.763571131250671,-9.404163742882572],[-77.763461480443951,-9.4052053747195608],[-77.763269608424906,-9.4060003041305631],[-77.763050316208478,-9.4066033617562592],[-77.76278990722453,-9.4070008223949095],[-77.762323912223096,-9.4079328123031747],[-77.76202238842771,-9.4087277417122799],[-77.76188532708963,-9.4094678506546074],[-77.761830506429391,-9.4103998315493875],[-77.761775685097959,-9.4111399397678674],[-77.76155639300292,-9.4117429979530556],[-77.761227458104457,-9.4122638139843957],[-77.760624401548057,-9.412894271049927],[-77.760158406174739,-9.4134424977097044],[-77.759774651199137,-9.4139907253390831],[-77.759582769392068,-9.4145389603862935],[-77.759582768549876,-9.4149227163825184],[-77.759665009073828,-9.415196828807284],[-77.759911703238657,-9.4155805927109864],[-77.760295467695997,-9.415991757925644],[-77.760542169545985,-9.416293281860737],[-77.761035575562644,-9.416759277866495],[-77.761357662135694,-9.4170333910696655],[-77.762008683331516,-9.4174788233542923],[-77.762933817385345,-9.4178214724337881],[-77.763653361911807,-9.4179927923355642],[-77.764612764098842,-9.418232638050835],[-77.765332310243494,-9.4185752872216391],[-77.765640690764855,-9.4187808649379754],[-77.766086123738233,-9.419192039095643],[-77.766325969132453,-9.4196374724478122],[-77.766325969360906,-9.4199801195698747],[-77.766188918380877,-9.4207339351840087],[-77.766154649919898,-9.4213849548042035],[-77.766223176405759,-9.4216933258487181],[-77.766325968928584,-9.4218646456862896],[-77.766463031015562,-9.4219331816075425],[-77.766857067134126,-9.4221216301210617],[-77.767302500375607,-9.4222929498400401],[-77.767850735628244,-9.4224300112922581],[-77.768570281840113,-9.4224642793761983],[-77.769255569629578,-9.4223272179875082],[-77.770077909952519,-9.4220873717002913],[-77.770763187876469,-9.4219845777336229],[-77.771482744947733,-9.4220531044137594],[-77.772168023380843,-9.4223272177709809],[-77.772750516743855,-9.4227041252825092],[-77.77331588177897,-9.4232009540648995],[-77.774343808971494,-9.423920500985318],[-77.775131882177305,-9.424297407676427],[-77.776057015155473,-9.4246743138592777],[-77.776673777146129,-9.4247771077780556],[-77.777359056112488,-9.4248799021160909],[-77.778147136814226,-9.4249826951621891],[-77.778422115840101,-9.4250239435732421],[-77.778315575398352,-9.4253222425687824],[-77.778109996810343,-9.4256306252894362],[-77.777733091396527,-9.4262131190149834],[-77.777493236026444,-9.4267270778681098],[-77.777356183578135,-9.4277207372305138],[-77.777356184176838,-9.4285773448610435],[-77.777287648227983,-9.4295710139009117],[-77.776979276956254,-9.4309073126065286],[-77.776705163738256,-9.4324492090383298],[-77.776328255632947,-9.433785507262467],[-77.776105531064516,-9.4345564602217777],[-77.775728633048033,-9.4357214389974899],[-77.775420251663121,-9.4372290673157302],[-77.774974819406083,-9.4387024274102593],[-77.774495118193613,-9.4405869606273711],[-77.774289531003291,-9.4420260641545255],[-77.774221004685018,-9.4432253114187237],[-77.774221005447117,-9.4436707427924667],[-77.774221004891416,-9.4440133828698904],[-77.774323797728997,-9.4443560308166212],[-77.774632170912696,-9.4448014638409052],[-77.774940552003585,-9.4450755781807043],[-77.775420251865697,-9.4454524843531686],[-77.776174065306407,-9.445863659035858],[-77.776859344419734,-9.4462748239886434],[-77.777578900133136,-9.4468230505831414],[-77.778092858638445,-9.4474055463196454],[-77.778709620898937,-9.4481593591642365],[-77.779292105922394,-9.4487418537616765],[-77.77990886828195,-9.4492215548475009],[-77.780302903697702,-9.44958132177306],[-77.780474222779688,-9.4497869103068002],[-77.780611285275256,-9.4500267648868626],[-77.780679811031803,-9.4503694043848139],[-77.780679811076126,-9.4507463112706862],[-77.780439965075331,-9.4518427643927208],[-77.780097315805975,-9.4531448047481774],[-77.779823202597797,-9.4541727320698996],[-77.77961761640212,-9.4552349268113822],[-77.779549089959417,-9.4569138742658936],[-77.779583356853877,-9.4584215023119782],[-77.779823202900914,-9.4602032428751812],[-77.780131584231469,-9.46133395468682],[-77.780491361928611,-9.4621734333009559],[-77.780971053822157,-9.4631670925666107],[-77.781347959961849,-9.4639551739614447],[-77.781622074060465,-9.4648460401123771],[-77.781759135114442,-9.4661823488210342],[-77.781759135234594,-9.4673473372453554],[-77.781622073628199,-9.468683636237671],[-77.781313702084489,-9.4697800980411664],[-77.781073847094447,-9.4708765520811546],[-77.780902527373527,-9.4716988922565513],[-77.780834001056689,-9.4726925505628561],[-77.78093679522469,-9.4735834271869237],[-77.781159511747802,-9.4741145236328954],[-77.781570677433038,-9.4748340708541168],[-77.78201611922114,-9.4754508226732437],[-77.78235875901369,-9.476067585135743],[-77.782564346355883,-9.4769584508072438],[-77.782564345701161,-9.4775752134380742],[-77.782495819595383,-9.4783632853727795],[-77.782427284049618,-9.4795967996214792],[-77.78246155154585,-9.4802478196109075],[-77.782564346071098,-9.4806589946938029],[-77.782735666346042,-9.4809331080241499],[-77.782941252005543,-9.4811729539545873],[-77.783352417725965,-9.4815498602972994],[-77.783763591612313,-9.4819267667372031],[-77.784174767003833,-9.482372199592751],[-77.784791519922891,-9.4830232208884251],[-77.785408273315241,-9.4835714466144179],[-77.785922239974383,-9.4841196740214357],[-77.786333405763159,-9.484633641647056],[-77.786710312641063,-9.4850448156272495],[-77.787155754731586,-9.485524507608158],[-77.787789637440213,-9.4860556060697903],[-77.788303606158777,-9.4864325127406417],[-77.788851832070094,-9.4870150069322978],[-77.789502851876733,-9.4878716142020387],[-77.78967417221439,-9.4882142537668024],[-77.789639913734831,-9.4884541075737339],[-77.789571377996694,-9.4886939537647947],[-77.789331533234446,-9.4891393869458778],[-77.788954625781301,-9.489790407732098],[-77.788372130727723,-9.4905442213845319],[-77.788029492412463,-9.4911952407661548],[-77.787858171723855,-9.4918462622313999],[-77.787892429764113,-9.4923602297733876],[-77.788063750139557,-9.4929084569785829],[-77.788406398852018,-9.4934566836273699],[-77.788680511688554,-9.4938678577455882],[-77.788954626352265,-9.4943818167773379],[-77.789194470917053,-9.4949985693816235],[-77.789263007099564,-9.4956495891034454],[-77.78943432643085,-9.4967117851911453],[-77.789605645743947,-9.4973628045559799],[-77.789896888831152,-9.4982365412627434],[-77.790171001699719,-9.4990931488805952],[-77.790445114256556,-9.4997784366910984],[-77.790753496417707,-9.5004294574409105],[-77.791164670659711,-9.501251796668603],[-77.791438783263644,-9.5020398803423767],[-77.791541578033971,-9.5029992711251747],[-77.791438782649408,-9.5043013112793009],[-77.791267463802853,-9.5053977743724598],[-77.790924815635236,-9.5068711348910142],[-77.790890557875258,-9.5083102268439195],[-77.790993351030096,-9.5092011015745452],[-77.791164670702344,-9.5101262348994648],[-77.791558705820691,-9.5110684977823912],[-77.791832819866826,-9.5116852603695392],[-77.792381046256665,-9.512541868184103],[-77.792929273187553,-9.5133642078792278],[-77.793340448324471,-9.5141522799931959],[-77.793854405550732,-9.5151116822727086],[-77.794197055298653,-9.5158312269467462],[-77.794471169180824,-9.516619308869787],[-77.794539694033986,-9.5176129690472582],[-77.794471168641095,-9.5184695765874086],[-77.794436900635645,-9.5192576578192583],[-77.794505426703111,-9.520148523970267],[-77.794527540085653,-9.5202259042057591],[-77.794017776296855,-9.5203377142437446],[-77.793366755197155,-9.5206118271760349],[-77.792647209441228,-9.5208859414437725],[-77.791961920547209,-9.5212628479605144],[-77.791310901228016,-9.5216397547189615],[-77.790899734916167,-9.5219138681639386],[-77.790522828235339,-9.5222222500399329],[-77.790111654232163,-9.522633423643013],[-77.789666220624824,-9.5231473825967221],[-77.789255045627371,-9.523901196817901],[-77.788912406586149,-9.5247235368938465],[-77.788364180086688,-9.5253402991202414],[-77.788004401710722,-9.5255287471574341],[-77.787319124297937,-9.5257685927971192],[-77.786325454746617,-9.5261454996788064],[-77.785366063211171,-9.5267622615722871],[-77.784646506938969,-9.5274818087035307],[-77.784372393756556,-9.5279272408161457],[-77.784201075294106,-9.5291607556611329],[-77.784166806981048,-9.5299830963867986],[-77.78406401258745,-9.5307369094242578],[-77.783892693838169,-9.5317305777763117],[-77.783687115621774,-9.5327927643885708],[-77.783721374397302,-9.5339920105576965],[-77.783584322316315,-9.5353625864400957],[-77.783481528298751,-9.5363905144355368],[-77.783344466803484,-9.5370072660252223],[-77.783070353966508,-9.5374527004009444],[-77.782453601403333,-9.5380694610165673],[-77.781802579995542,-9.5387204816920832],[-77.781220087101175,-9.5392344401071707],[-77.780706117578504,-9.5399882553442037],[-77.780260684688699,-9.5407077999357721],[-77.779780984393994,-9.5419070567957682],[-77.77939634521708,-9.543312671130801],[-77.77863911712646,-9.5430165502319557],[-77.778022365016994,-9.5424683233334626],[-77.777542664364972,-9.5419886230654747],[-77.777097230333553,-9.5417830450891934],[-77.776549004228755,-9.5416802506823704],[-77.776000777658638,-9.5415089323944766],[-77.775384016153041,-9.5411320244004543],[-77.774767263106085,-9.5406523240413517],[-77.774219036411083,-9.5402411490437622],[-77.773568016436457,-9.5398985092586717],[-77.772711409137642,-9.5396243955685822],[-77.771786275317567,-9.539453076867062],[-77.770826874188728,-9.5394188090835694],[-77.770090188932841,-9.5394016801934391],[-77.768411240668073,-9.5391960931189175],[-77.767143468382756,-9.539230350833213],[-77.766389654701428,-9.5394359393278592],[-77.765635839795252,-9.53981284513487],[-77.764916294660992,-9.5399841652378399],[-77.764093954856719,-9.5400869593251745],[-77.76303175896085,-9.540189751601206],[-77.761524131866821,-9.5402582778221809],[-77.760701791808174,-9.5403610715516454],[-77.760050772062698,-9.5404296079148097],[-77.759296957312912,-9.5406351855883571],[-77.758885782606697,-9.5409778342934359],[-77.758474616901054,-9.5413547409912276],[-77.75802918469499,-9.5415945866436385],[-77.757480948040765,-9.5418344407595654],[-77.756795670395135,-9.5419372262686224],[-77.755767743212616,-9.5419372263657642],[-77.754979660760625,-9.5418344409743163],[-77.75381468193919,-9.5412862059725239],[-77.752512641874674,-9.5401212272798652],[-77.751553240760785,-9.538682124160724],[-77.751005014223551,-9.5372087644408072],[-77.750833694424358,-9.5360780431072065],[-77.750730901044818,-9.5346732093395676],[-77.750593838878899,-9.5333369100456977],[-77.750285457813249,-9.5323775091863574],[-77.749874293277742,-9.5315209006227715],[-77.749257531181499,-9.5308698806472325],[-77.748606511189124,-9.5303216539153777],[-77.748212474221532,-9.529996144596085],[-77.747390134038369,-9.5292765977404432],[-77.746636320606129,-9.5284885171302243],[-77.745779713407629,-9.5274263205844942],[-77.744923105314768,-9.5265011878567343],[-77.743621064586662,-9.5251306223550678],[-77.742867251213724,-9.5243425403082718],[-77.741907858723891,-9.5236229939387869],[-77.741376761807118,-9.5232632160929249],[-77.740897061324745,-9.5227835246215573],[-77.740348833991476,-9.5220982366921429],[-77.7399034015734,-9.5213786910473477],[-77.739697814427302,-9.5208647221819653],[-77.739492227047123,-9.5198025268787934],[-77.739355165297681,-9.5188773939480384],[-77.739149587306855,-9.5176438878272993],[-77.738841206576964,-9.5167530138796526],[-77.738498566955869,-9.5161362598953225],[-77.738258713107768,-9.5153824470052015],[-77.73812166025219,-9.5145258388405747],[-77.738087393143616,-9.5134636436572269],[-77.738190186351275,-9.5125727789029568],[-77.738190185856297,-9.5123671909999263],[-77.738155918090072,-9.5121616027202496],[-77.738087392699725,-9.5120245517033055],[-77.737641960222575,-9.5116476443573656],[-77.737093733386772,-9.5110994190240081],[-77.736374178334216,-9.5102428106153791],[-77.735723156565797,-9.5092834087450377],[-77.735226326691674,-9.5085467243342183],[-77.734849420297834,-9.5081355592694585],[-77.734129874180383,-9.5074845386609415],[-77.733650174031425,-9.5070733642716085],[-77.732622246794278,-9.5064566118497051],[-77.732074019954354,-9.5062167556742541],[-77.73104609185242,-9.5054629524440735],[-77.730429340262987,-9.5049832518688291],[-77.729709784017885,-9.5042294368985925],[-77.729435671192419,-9.5039210573464317],[-77.729093031859463,-9.5036812108299955],[-77.728510536975818,-9.5034413555711197],[-77.7277909905619,-9.5033043044487346],[-77.727139971325357,-9.5033043038759004],[-77.726112044223783,-9.5031329750025915],[-77.72511837499097,-9.5028588623864021],[-77.724415957696039,-9.5027046812422373],[-77.723490824316158,-9.5023962997667635],[-77.722360103104037,-9.5019165988826746],[-77.721743350846111,-9.5016082181451846],[-77.721229392297317,-9.5012998458148594],[-77.720955278382903,-9.5011970530863703],[-77.720681156323209,-9.5011627853273151],[-77.720372783910861,-9.5011970526125378],[-77.72009866954582,-9.5013683725620783],[-77.719858816150563,-9.5017110119767079],[-77.719481908863671,-9.5020536611756601],[-77.718967949730057,-9.5022935061750964],[-77.718145609884004,-9.5024305576445833],[-77.717271864331437,-9.5024134292232638],[-77.715147484328767,-9.5020365206897495],[-77.71312589741251,-9.5012484503274486],[-77.712440608786352,-9.5011456563168171],[-77.711823855898956,-9.5013169762908056],[-77.710898723013827,-9.5017281497734771],[-77.709905054426159,-9.5021735841915387],[-77.709596682209238,-9.502242109410064],[-77.70945962065629,-9.5021735841781574],[-77.709151240128392,-9.5018309353978356],[-77.708842867561984,-9.501111388309246],[-77.708500218654549,-9.5003575736665695],[-77.708191847773236,-9.499706553771933],[-77.707917735387255,-9.4994667093837801],[-77.707575085991436,-9.4992953894270773],[-77.707026859192538,-9.4992268526082846],[-77.706273044812818,-9.4991925947738469],[-77.705793345213905,-9.4989870081206522],[-77.705313653091935,-9.4988156885627877],[-77.704731158985226,-9.4984387807334922],[-77.704148665376124,-9.49795908111793],[-77.703668964060284,-9.4973765859162587],[-77.703240660102892,-9.496879756564228],[-77.702863753562056,-9.4965371168341903],[-77.702349794963141,-9.496228737039651],[-77.701733032351484,-9.4960231490799831],[-77.701253340659818,-9.4960231491109166],[-77.700602311252368,-9.4961944691975333],[-77.699608651743446,-9.4967084369139769],[-77.699094693060218,-9.4970168076651706],[-77.698203817577934,-9.4973251893426447],[-77.697278683563852,-9.4973594567461426],[-77.696216489928247,-9.4972909308516424],[-77.695462685046763,-9.4972909307988083],[-77.694366223221465,-9.4974965086387346],[-77.692995656335412,-9.4977020966306362],[-77.69172788300537,-9.4978734156638218],[-77.690665687748137,-9.4981475286226207],[-77.689911874221266,-9.4984559099992918],[-77.68932937993479,-9.4987300243116035],[-77.688746884881411,-9.4988670850231589],[-77.688181530049349,-9.4988842140285588],[-77.687187869895439,-9.4987814214057291],[-77.686296995033601,-9.4986101010893158],[-77.685200542283368,-9.4982674621387595],[-77.683932759821175,-9.497753492893823],[-77.682870573624811,-9.4973423187187667],[-77.681876904897692,-9.4969654211101791],[-77.680883244765795,-9.4966912978865228],[-77.680300750763251,-9.4966227723456562],[-77.679546936948626,-9.4966570396154193],[-77.678758864720095,-9.4967598341478769],[-77.678039318721019,-9.4969996800861392],[-77.677456824385629,-9.4971024725940065],[-77.676977123217725,-9.4969311529305642],[-77.676497422835951,-9.4965199783621301],[-77.676103386815683,-9.4960916753873441],[-77.675418098842499,-9.4951322830450398],[-77.674801346751906,-9.494035820985264],[-77.67445869754448,-9.493282005796285],[-77.673979006789494,-9.4926309861971525],[-77.673567832295404,-9.4922198212870672],[-77.672985338266514,-9.4917401208996335],[-77.672437110562939,-9.4913974811753619],[-77.671991678307137,-9.4910548329120736],[-77.671546244656312,-9.4906436668581495],[-77.671272132001633,-9.4902324926771868],[-77.671135071370415,-9.4895814725916772],[-77.671066544017492,-9.488656338898716],[-77.671066544324489,-9.4874913498123998],[-77.670963751192957,-9.4865319582387748],[-77.67082668975867,-9.485675351013839],[-77.670621111546851,-9.4844761037344831],[-77.670586843660075,-9.4833796413705436],[-77.670655369984104,-9.4822831879741489],[-77.670655370065177,-9.4817006939915967],[-77.670552575548967,-9.4812552602034614],[-77.670312730799353,-9.4807755600099295],[-77.669935824072027,-9.4804329196947208],[-77.669250535641936,-9.4799532201563412],[-77.668428196078281,-9.4794049942900909],[-77.667640113848819,-9.4787197061618365],[-77.667109026146647,-9.4781543501498184],[-77.666526532032918,-9.4772977427774148],[-77.666081098674198,-9.4764068757822724],[-77.66573844999661,-9.4755502688001254],[-77.665430078852665,-9.4744538157629794],[-77.665224491547093,-9.4738713209953236],[-77.664779058377931,-9.4730832402326648],[-77.663853914815903,-9.4719867863675944],[-77.663305688270214,-9.4712672402150115],[-77.662860256250951,-9.4707532718712546],[-77.662414822722909,-9.4704106330403928],[-77.661969390206124,-9.4701707774138981],[-77.66135262797971,-9.4699309317487259],[-77.660872926775127,-9.4697938710919551],[-77.660187649130322,-9.469485498680287],[-77.659605154239912,-9.4691428507531441],[-77.658919867068477,-9.4686631588185168],[-77.658440166390292,-9.4683890459272355],[-77.658063268588748,-9.4682177168091322],[-77.657652093975443,-9.4681491910685587],[-77.656966804632248,-9.4681834577542716],[-77.656384312376616,-9.4680121387485112],[-77.655904621386867,-9.4677722836238072],[-77.65549344506789,-9.4674639031058465],[-77.655116538394566,-9.4670527380218843],[-77.654892567080637,-9.4668108846297567],[-77.654866897400481,-9.4667786248975148]]]},"properties":{"OBJECTID":927,"CODIGO":"1375969","NIVEL":7,"NIVEL7":"1375969","NOMB_UH_N7":"Alto Casma","Nombre_UH":"Alto Casma","AREA_KM2":177.8031,"AREA_FINAL":176.8595}}]}