{"type":"FeatureCollection","crs":{"type":"name","properties":{"name":"EPSG:4326"}},"features":[{"type":"Feature","id":932,"geometry":{"type":"Polygon","coordinates":[[[-77.804604154016204,-9.2876671711022851],[-77.80471181683788,-9.2875039826235],[-77.804748481302966,-9.2872742092847425],[-77.804938243421219,-9.2869285084351443],[-77.805013112374212,-9.2866601861465945],[-77.805008851751296,-9.2861247710132293],[-77.8049660906171,-9.2855896509969327],[-77.805078548142802,-9.2852063049177467],[-77.805306496434881,-9.2848220464358384],[-77.805648724827336,-9.284283911058143],[-77.805799377642472,-9.2838620170935435],[-77.805873324591062,-9.2834789663859016],[-77.80587028071615,-9.2830965240007828],[-77.80598334683836,-9.2827896638699361],[-77.806057608149899,-9.2824448659676104],[-77.806054868783747,-9.2821006674044746],[-77.80597512994602,-9.281757077139039],[-77.805817782243039,-9.2813375993444591],[-77.805737442643974,-9.2809175131137014],[-77.805771074239701,-9.280305305570117],[-77.80599689104271,-9.2796533447888105],[-77.805994760188881,-9.2793856328402331],[-77.805954433682174,-9.2791564669399236],[-77.805989890250743,-9.278773730378763],[-77.806179642407329,-9.2784280187426642],[-77.806447306809915,-9.2781964384170799],[-77.806713755419992,-9.2778118747649092],[-77.806942920164531,-9.2775805992935325],[-77.807211192975871,-9.2774255044210427],[-77.807363966402804,-9.2772713237109912],[-77.807439140654949,-9.2770412556030788],[-77.807437010219815,-9.2767735430375069],[-77.807396075909594,-9.276467891757278],[-77.807240257933131,-9.2762396402516814],[-77.80700683333616,-9.2759355011116131],[-77.806772797925532,-9.2755548651356019],[-77.806615155631761,-9.2750971441081607],[-77.806534817047037,-9.2746770677405372],[-77.806416890893573,-9.2743720248133314],[-77.806261074685338,-9.2741437633614083],[-77.806067061583917,-9.2739540486012846],[-77.805833636251975,-9.2736499097486202],[-77.805639023809675,-9.2733837096183311],[-77.805521099118465,-9.2730786669222507],[-77.805441663986144,-9.2727733213015942],[-77.80539891262184,-9.2722381997776093],[-77.805549868893038,-9.2718545500210077],[-77.805739620759653,-9.2715088385644648],[-77.805775382330182,-9.2711643440558085],[-77.805964524922459,-9.27074214683614],[-77.806230059914881,-9.2702428544022784],[-77.806380397898835,-9.2697827172507719],[-77.806531041452843,-9.2693608230187952],[-77.806796575134172,-9.2688615397089595],[-77.807024827259653,-9.2685155254166993],[-77.807406147317508,-9.2680535807384015],[-77.807635008431163,-9.2677840611113353],[-77.807938727869853,-9.2672462202218657],[-77.808166970874865,-9.266900214001252],[-77.808242135267975,-9.266670145584694],[-77.808432496447836,-9.2664009216507015],[-77.808621943299713,-9.2660169755474975],[-77.808619507728423,-9.2657110202815982],[-77.808539778695604,-9.2653674299273057],[-77.808422461826268,-9.265138863778585],[-77.808228154026352,-9.2649109169543546],[-77.808032934432887,-9.2645682296474927],[-77.807915313396109,-9.2643014212015622],[-77.807834366321558,-9.2638048580539021],[-77.807829809910785,-9.2632311898232143],[-77.807825862592281,-9.2627340181314537],[-77.807746741777834,-9.2624669137717781],[-77.807628511647522,-9.2621236183096673],[-77.807586065276951,-9.261626750192816],[-77.80746754018358,-9.2612452115919162],[-77.807272623550659,-9.2609407677162121],[-77.807039216682938,-9.2606366289666529],[-77.806999205445123,-9.2604457071922841],[-77.806802462939686,-9.2599117936768831],[-77.806607252386442,-9.2595691078638431],[-77.806411735913187,-9.2591881780273546],[-77.806177112225853,-9.2587310556199292],[-77.806133761642513,-9.2581194486824057],[-77.806129206303638,-9.2575457812726327],[-77.806276814811127,-9.2567414545659439],[-77.806331217077357,-9.2563203120001791],[-77.806366988162253,-9.2559758087116766],[-77.806518837688998,-9.2557068976185786],[-77.806593099758416,-9.2553621000930928],[-77.806744655354592,-9.2550549360946199],[-77.807088997132752,-9.254784513448298],[-77.807318760966353,-9.2546297232309396],[-77.807662484604251,-9.2542828136824049],[-77.808468161559901,-9.2539322801961035],[-77.80888827727189,-9.2535082763095087],[-77.809192899966874,-9.2530851748310941],[-77.809419621423345,-9.2525479519439155],[-77.809532068437846,-9.2521646057251665],[-77.80956782982571,-9.2518201031539764],[-77.809756668355874,-9.2513596713790101],[-77.809870322661567,-9.2511292993011409],[-77.810137065341181,-9.250782987928579],[-77.810328015610935,-9.2505902586769366],[-77.810633857197459,-9.2503201310112644],[-77.811016072135558,-9.249972916735631],[-77.811244608367559,-9.2496651543454078],[-77.811473155142934,-9.2493573909338664],[-77.811663496214834,-9.24908817677413],[-77.812007829276894,-9.2488177530546096],[-77.812313052005223,-9.2484711384377967],[-77.812580697791518,-9.2482395583667856],[-77.812769526852847,-9.2477791257879147],[-77.812843473607899,-9.2473960747050228],[-77.812917421304164,-9.2470130326741984],[-77.813144741340906,-9.2465522982749615],[-77.813219001744343,-9.246207489930427],[-77.813216262728346,-9.2458633009576339],[-77.813213523732458,-9.2455191011366509],[-77.8132492845873,-9.2451746083711743],[-77.813438417882963,-9.2447524088806112],[-77.813667258925463,-9.244482890968424],[-77.813973691201582,-9.2442892590159857],[-77.814549889108434,-9.2441317490846657],[-77.814818134008135,-9.2439766540849675],[-77.814933017127117,-9.243899264285778],[-77.815393124309225,-9.2436661705568817],[-77.815582249076542,-9.2432439826916184],[-77.815618617973158,-9.2429759756876155],[-77.815576770069612,-9.2425555942717743],[-77.815535844584446,-9.2422499434008003],[-77.815686477803311,-9.2418280496405885],[-77.816031714401745,-9.2416723555886833],[-77.816453625706501,-9.2414778108179618],[-77.81691494177781,-9.2413977012609596],[-77.817491140829034,-9.2412401910143718],[-77.817913053103524,-9.241045645795376],[-77.818181601785156,-9.2409287946388918],[-77.818488938199934,-9.240849892654456],[-77.818681409673815,-9.2408483799105987],[-77.818912371937998,-9.2408465637865564],[-77.819373087736125,-9.2406899581993223],[-77.819526755579815,-9.2406505058906294],[-77.819795600302811,-9.2405718990526982],[-77.819949277104698,-9.2405324483272135],[-77.820141434580833,-9.2404926924202648],[-77.82039134261916,-9.240452479820636],[-77.820506520331307,-9.2404133332805891],[-77.820775374452396,-9.2403347257466155],[-77.821043912909289,-9.2402178756579403],[-77.821312150161262,-9.2400627811193328],[-77.821619188770157,-9.239945626221072],[-77.822080505188779,-9.2398655063914585],[-77.822079288282168,-9.2397125330006205],[-77.821961361872553,-9.2394074898486664],[-77.821844055018957,-9.2391789350274642],[-77.821765238922623,-9.2389500829223188],[-77.821647018626635,-9.2386067978662307],[-77.821643973580237,-9.2382243552108427],[-77.821756717331454,-9.2378792634317008],[-77.821870665555977,-9.237687132559472],[-77.821945223217483,-9.2373805777261744],[-77.822097367886002,-9.2371499008363944],[-77.822210101037712,-9.2368047983686647],[-77.822362863740722,-9.2366506171308842],[-77.822514706026652,-9.2363816968722237],[-77.822512261883375,-9.2360757502307997],[-77.822394040922305,-9.2357324653169997],[-77.822354333397527,-9.235579796322515],[-77.822198536404301,-9.2353515438504079],[-77.821966660195429,-9.2352386210439246],[-77.821619608274275,-9.2351648552740873],[-77.82131257789014,-9.2352820098295449],[-77.820967056105985,-9.2353994602869083],[-77.820582121613512,-9.2354024854361398],[-77.820235678144726,-9.23540521415139],[-77.819907572161853,-9.235293052027636],[-77.819483842916938,-9.235258127599872],[-77.819174681648803,-9.2351075709909765],[-77.819057679139462,-9.2349172577305403],[-77.81894006662057,-9.2346504583926112],[-77.818782747649877,-9.2342309899651944],[-77.818470847885706,-9.2337362338979005],[-77.8180828793747,-9.2333568163782083],[-77.817696424327067,-9.2331686148545469],[-77.817386958786599,-9.2329798142323369],[-77.817115992620288,-9.2327907094444122],[-77.816882605975849,-9.2324865700661594],[-77.816687404052345,-9.2321438832259819],[-77.816530693390504,-9.2318008916182439],[-77.816374296078436,-9.2314961541657645],[-77.816218193677116,-9.2312296493470427],[-77.81606270092432,-9.2310396414336306],[-77.815984197071131,-9.2308490226344393],[-77.815865377635774,-9.2304292414154876],[-77.815746863265801,-9.2300477117623849],[-77.815744132940978,-9.229703512341743],[-77.815662890667284,-9.2291687056814542],[-77.815582572354998,-9.2287486196262964],[-77.815463752156262,-9.2283288469346889],[-77.815384640623179,-9.2280617342137656],[-77.815266430009018,-9.2277184475766116],[-77.815302494842214,-9.2274121972326615],[-77.815337951647209,-9.2270294497806802],[-77.815451606988901,-9.2267990871316261],[-77.815603753326542,-9.2265684102693317],[-77.815794397994608,-9.2263374380817833],[-77.815907444895146,-9.2260305891908487],[-77.815944119236661,-9.2258008242992666],[-77.815979271257333,-9.2253798352461533],[-77.81601533581798,-9.2250735841470117],[-77.816165361105391,-9.2245752041259852],[-77.81631781089331,-9.2243827799538369],[-77.816661506262818,-9.2240358698860252],[-77.817123107869421,-9.2239940039723329],[-77.817469236661609,-9.2239530498073083],[-77.817737157850743,-9.2237597121231261],[-77.817928099879467,-9.2235669831809091],[-77.81831150199605,-9.2233727517256359],[-77.818580954662494,-9.2233706409806224],[-77.818735829924563,-9.223484163353147],[-77.818890706171558,-9.2235976838146598],[-77.819315946813475,-9.2238238250230236],[-77.819854834113116,-9.2238196017649354],[-77.82012397282999,-9.2237792473016782],[-77.820469190063307,-9.2236235537756031],[-77.820967151772436,-9.2233136700739493],[-77.82123507271325,-9.2231203431131625],[-77.821771221244873,-9.2227719195627369],[-77.822154927899788,-9.2226159228032074],[-77.822578028907245,-9.2225743509961138],[-77.823077816549642,-9.2224939362381573],[-77.823500015143921,-9.2223376342347834],[-77.823730653758503,-9.2222975753423899],[-77.823997967016737,-9.2220277603250125],[-77.824264976396123,-9.2217196928757499],[-77.824570779101592,-9.2214495654032351],[-77.82516618005107,-9.221291904058317],[-77.825587767760851,-9.2210591146550289],[-77.826087546899799,-9.2209787001939425],[-77.826702188894771,-9.2208208755591805],[-77.826970110316012,-9.2206275475513024],[-77.827314404263362,-9.2203571160014963],[-77.827735061368514,-9.2200095980426298],[-77.828077834426196,-9.2195479492340109],[-77.828382715131653,-9.2191630904019934],[-77.828725172900576,-9.2186631992606252],[-77.829144307555964,-9.2181244630169541],[-77.829525875443849,-9.2177007533583186],[-77.830254760762401,-9.2173890538929761],[-77.830831521276622,-9.2173080198829087],[-77.831870776288625,-9.2172998406879589],[-77.832680303756248,-9.2174464512028784],[-77.833219180585445,-9.2174422098891569],[-77.833719255011616,-9.2174000190053231],[-77.834141736768544,-9.2172819507317296],[-77.83452603481193,-9.217202440054546],[-77.835197483660707,-9.2169294210137949],[-77.835697261935181,-9.2168489963796443],[-77.836159758340884,-9.2169218409619713],[-77.836545891319204,-9.2170717785953986],[-77.83685565017592,-9.2172988041436863],[-77.837204510107128,-9.2176020214306327],[-77.837668841021852,-9.2179043254365816],[-77.83797738406021,-9.2179783862104241],[-77.838516250935655,-9.2179741250450213],[-77.839363881326904,-9.2180515151082609],[-77.839428146280184,-9.2180253890090285],[-77.839448689876448,-9.2180588292943515],[-77.839544882008894,-9.2182121638454468],[-77.839830418862363,-9.2185928838445363],[-77.840377693807767,-9.2193543072913382],[-77.840710823219965,-9.2198064074020607],[-77.840972561700795,-9.2201633220590171],[-77.841139125708139,-9.2205440431458143],[-77.841139125921003,-9.2208771608950482],[-77.841139126002176,-9.2214006407999385],[-77.841115330022518,-9.2220193050597619],[-77.841281894227222,-9.2225665814298701],[-77.841722085585261,-9.2232447256159329],[-77.842221778544186,-9.223649232844787],[-77.843149765742311,-9.2242441022768027],[-77.843863606000042,-9.2247675813143211],[-77.844672619901218,-9.2253386531756796],[-77.845410257292471,-9.2260048995664388],[-77.846433418718448,-9.226718738923827],[-77.847290026321971,-9.22733740292019],[-77.848075255231294,-9.2277657068155978],[-77.848173521295735,-9.2278725138692383],[-77.848253707032626,-9.2278965780463977],[-77.848539244370087,-9.228063132224106],[-77.848896167776303,-9.2282059001147427],[-77.849419647758268,-9.2284200565508812],[-77.849562414665854,-9.2285628252851222],[-77.849610008216985,-9.2287055917259035],[-77.849562414722968,-9.2290387114033479],[-77.849229287369525,-9.229538404362545],[-77.849110315140692,-9.2298239401176385],[-77.849086518708674,-9.2301332708553669],[-77.849083551043918,-9.2301481368441465],[-77.849146009430356,-9.2305020850549475],[-77.849193601575436,-9.2316680147960994],[-77.849205499887489,-9.232893444683409],[-77.849443443656,-9.2335121000472746],[-77.849491026891855,-9.2343211158706424],[-77.849514822719172,-9.235106344269763],[-77.849728979209843,-9.2359629421806826],[-77.849943127274628,-9.2363436629156777],[-77.85032383755177,-9.2372716499970444],[-77.850728353929512,-9.2379378971984831],[-77.851109065604035,-9.2387945042092579],[-77.851608749371479,-9.2400794159549999],[-77.852251210120244,-9.2411977643612726],[-77.852834169758651,-9.2419710842059075],[-77.85380974914861,-9.2429466632997759],[-77.854713948927525,-9.2438270665847888],[-77.855213632268644,-9.244302952823034],[-77.856022647835815,-9.2446598784274183],[-77.856546136418061,-9.2448740257322637],[-77.857331355008739,-9.2453975151562613],[-77.858045195215922,-9.2459685769849784],[-77.858592471401494,-9.2464206774032558],[-77.859020773960694,-9.2470869227691601],[-77.859306309940706,-9.2478721515577096],[-77.859568049823096,-9.2487049639051886],[-77.860067733030007,-9.2494188031245663],[-77.860805368164463,-9.2503467897254055],[-77.861424023564254,-9.2508940655827594],[-77.861804744780699,-9.2511082127579893],[-77.862435296898525,-9.2512628788577338],[-77.863006369046246,-9.2512390822508905],[-77.86350605242707,-9.2512866749502578],[-77.864053336590743,-9.2512152948791666],[-77.864838556170881,-9.2510963139303612],[-77.865552396071223,-9.2510249348420928],[-77.866409003355713,-9.2509297595946709],[-77.867146628968982,-9.2507156030139051],[-77.868122208052426,-9.2505014556686298],[-77.868788455666504,-9.2503586878177302],[-77.869478498873633,-9.2501921240047746],[-77.870620643068875,-9.2500969493872276],[-77.871810378200706,-9.2500255599335173],[-77.873261844798904,-9.2500255596275256],[-77.874237424743427,-9.25016832831896],[-77.8757483811291,-9.2504895582995008],[-77.876509813070797,-9.2506323261100718],[-77.876890524398249,-9.2507750926345693],[-77.87724743941844,-9.2510368342818801],[-77.877580567713281,-9.2513937488671321],[-77.877913697142858,-9.2518696453091422],[-77.878413379208382,-9.2524882987720254],[-77.878889275728227,-9.2529879917717484],[-77.879341365763693,-9.2532735283058081],[-77.88015039073484,-9.2535590637127942],[-77.880864221361492,-9.2538208031648104],[-77.881149757331983,-9.2539635708036752],[-77.881720828093023,-9.2543680790564053],[-77.882196725366342,-9.2548201786520199],[-77.882696408343037,-9.2553912412061372],[-77.883410247937334,-9.2562002663052354],[-77.884266854893042,-9.2569141061159979],[-77.88500449112459,-9.257604148768209],[-77.885456580825135,-9.2582941931083891],[-77.885718320882717,-9.2588890510786825],[-77.885884884599108,-9.2593173548238603],[-77.886099041662177,-9.2596266871592565],[-77.886372680295921,-9.2597813527999691],[-77.886967537975366,-9.2597813529955388],[-77.887633794667011,-9.259757557294785],[-77.887966914431061,-9.259709963932556],[-77.8884428096855,-9.2594720198296301],[-77.889251825088564,-9.2591151060957362],[-77.890037044229103,-9.2587343851636419],[-77.890631912114671,-9.25856783021068],[-77.891131594651654,-9.2586154125721407],[-77.891631287668261,-9.2588533660203876],[-77.892226145586207,-9.2592578744104905],[-77.892963782252366,-9.2599241197950306],[-77.893796593196413,-9.2606141642140667],[-77.894819764702063,-9.2611138473511545],[-77.895462216416846,-9.2613755866105159],[-77.895890519589685,-9.2614469761391298],[-77.896128462702748,-9.2613042071288252],[-77.896223649245812,-9.2611376437526491],[-77.896295028405916,-9.2606855432287905],[-77.896461591882797,-9.2601620636349367],[-77.896628155089203,-9.2596385850045255],[-77.896889895055295,-9.2590675128189446],[-77.897389577759085,-9.258544034417266],[-77.897841677938743,-9.2579967578160023],[-77.89831757461873,-9.2572829189620904],[-77.898543619997568,-9.2567951248083862],[-77.899257460289817,-9.2557957578227015],[-77.899804735104681,-9.2551770941464415],[-77.900161649873368,-9.2547963829166129],[-77.90082790732059,-9.2544870510244763],[-77.90125620215882,-9.25415392286056],[-77.90208901204015,-9.2537494147132531],[-77.90263628902224,-9.2533687034278742],[-77.90320735955315,-9.2530355745763444],[-77.903707052660138,-9.2528928071932821],[-77.904063968397523,-9.2528690196860968],[-77.904563660323774,-9.2527738363035326],[-77.905110935590898,-9.2527976319733884],[-77.90582477542155,-9.2528928069477558],[-77.906395837563323,-9.253059371199674],[-77.906895530077534,-9.2529879915710218],[-77.907038298159691,-9.2527976320484964],[-77.907204862105743,-9.2525596878896099],[-77.907490397571536,-9.2524407173590628],[-77.908251820962292,-9.2524169196081871],[-77.909132225141079,-9.2524169198271693],[-77.910381440754648,-9.2525715858481021],[-77.911357020886641,-9.2525953822218234],[-77.912308804263546,-9.2526191687235695],[-77.913855455351154,-9.2525477901042041],[-77.915021385171229,-9.2525477901836908],[-77.916377676188645,-9.2525953820576152],[-77.917519818691204,-9.2525953823114708],[-77.917995716319453,-9.2524288176379628],[-77.918209862110317,-9.2521670775962885],[-77.918400222966923,-9.2518339512460006],[-77.91863816624101,-9.2514532387146513],[-77.918947499282751,-9.2512866746252307],[-77.919447181628982,-9.2511439068964254],[-77.919851689413292,-9.2510963139489579],[-77.920803481926583,-9.2508107785763425],[-77.921374544347145,-9.2505728345859275],[-77.922017005034149,-9.2502397156170186],[-77.922885510757339,-9.2497281261669322],[-77.923361396982827,-9.2494901826437168],[-77.923908672744858,-9.2490618786381695],[-77.924693900682598,-9.2483480393701889],[-77.925241177058709,-9.247729383993569],[-77.925883627163614,-9.2470869230219979],[-77.926764031352121,-9.2466110369910144],[-77.927525453943517,-9.2463730837643112],[-77.927953758395603,-9.2463017050597465],[-77.929048309180118,-9.2462779088463609],[-77.929738352551851,-9.246277909005638],[-77.930499783856575,-9.2462779089395255],[-77.931737102645613,-9.2463968802755723],[-77.933236162251049,-9.2465396481293745],[-77.93469952583041,-9.2465515456127783],[-77.935794087270551,-9.246622934915953],[-77.937150378104263,-9.2467419071339005],[-77.938411491601286,-9.2468608787864017],[-77.939410859452025,-9.2469560541747509],[-77.940124697800613,-9.2471464152630762],[-77.941100277072735,-9.2474081540894666],[-77.942028273180128,-9.2476223019704999],[-77.942456577347059,-9.2475985141863006],[-77.942908668396953,-9.2474319500758657],[-77.943527333113622,-9.2471226182940729],[-77.944383938767459,-9.2467419072891257],[-77.944931215553041,-9.2466229352762834],[-77.945407101586753,-9.2465991393399793],[-77.945882999016433,-9.2465991388898292],[-77.946216117247019,-9.2466705178995401],[-77.946739607310803,-9.246789490057024],[-77.947274983696644,-9.246896573058212],[-77.948250563418782,-9.2468251837513087],[-77.948631274126001,-9.2468013882320008],[-77.949011986329097,-9.2466824159174656],[-77.949511677889745,-9.2465872400086706],[-77.94986859301433,-9.2465634438739812],[-77.950082750105054,-9.2467538052724301],[-77.950296897005288,-9.2470393410345331],[-77.950511043663624,-9.2475152272897905],[-77.950725200050996,-9.2480863002398941],[-77.950891765429915,-9.2484194269577671],[-77.951153503895824,-9.2488715183417938],[-77.951510420398918,-9.2491570544426516],[-77.951843547687403,-9.2493474137182581],[-77.952152879917861,-9.2494425900554607],[-77.952557387038169,-9.2495615623553],[-77.95296189490233,-9.2496567470937023],[-77.953318810006152,-9.2497995144034633],[-77.953794706900027,-9.2500612539140903],[-77.95427059296658,-9.2502991966427324],[-77.95455613033414,-9.2504419661696229],[-77.954841665291625,-9.2507988895489017],[-77.954889256928695,-9.251036833969275],[-77.955032026445068,-9.2513699527400473],[-77.9552699690514,-9.2517268766425786],[-77.955722068815632,-9.2522265597750941],[-77.956078983914793,-9.2526548641082567],[-77.956578677380392,-9.2531545566057058],[-77.957125952305091,-9.2534400918522461],[-77.957815995705133,-9.2537970069816993],[-77.958434650109595,-9.2538921818357274],[-77.958958138623757,-9.2539635713281463],[-77.959481618051598,-9.2537732113818603],[-77.959802848450494,-9.2535709622880731],[-77.95999319900227,-9.2533330090748596],[-77.960492892041145,-9.2529047050094153],[-77.961206721979323,-9.2525953820770344],[-77.961658822160118,-9.2523336430689724],[-77.962396457699285,-9.2520005146297937],[-77.963015113005099,-9.2517387752523437],[-77.963467212995283,-9.2516911818006538],[-77.964228645443811,-9.2517387746554256],[-77.964514180898448,-9.2517863577337884],[-77.964942474799798,-9.2518339510611973],[-77.965465962674088,-9.2518815429829324],[-77.965894267296719,-9.2519291259713619],[-77.966370154156905,-9.2518577467413792],[-77.966869846821055,-9.2517149786091135],[-77.967298150376223,-9.2516435902028498],[-77.967726444985459,-9.2515484147000056],[-77.968059572802403,-9.2514532391631548],[-77.968749616770211,-9.2513342680488666],[-77.969534835417591,-9.2511201111913159],[-77.970367647351082,-9.250834575202056],[-77.97081974718769,-9.2506680199845963],[-77.971176672288024,-9.2505014556156091],[-77.971367021929012,-9.25031109500752],[-77.971652559369119,-9.249954181375589],[-77.972104658598511,-9.2495496730321882],[-77.972271223093998,-9.2492879237544283],[-77.972354499574209,-9.2490618792092736],[-77.972306907007493,-9.2486335754013318],[-77.972497267775609,-9.2483242426633439],[-77.972806599910783,-9.2481338917366784],[-77.973092136006557,-9.2479911241830379],[-77.97347284816982,-9.2477531813839082],[-77.973829763213985,-9.2475866157077977],[-77.974162889735723,-9.2471345163532987],[-77.974496019377071,-9.2465872399025155],[-77.974662573083151,-9.2462541127542845],[-77.974876730926965,-9.2457782263223987],[-77.975067091210093,-9.2453737181777633],[-77.975328831311657,-9.2448026458506956],[-77.975661949661387,-9.2441601863304967],[-77.975899902275657,-9.2438032711583435],[-77.976566149606555,-9.2434225593953059],[-77.976946859995778,-9.2433749669236143],[-77.977256192913131,-9.243470142741284],[-77.9776131078698,-9.2436129109101124],[-77.978112801000222,-9.2439222426136762],[-77.9786124842351,-9.2441363985529694],[-77.979350120416044,-9.2443505463303239],[-77.979778422633615,-9.2444219348042278],[-77.980159133764204,-9.2443981387164218],[-77.980587437701033,-9.2445409071711122],[-77.981206093334436,-9.2448026455735342],[-77.982015108436926,-9.2448502297319148],[-77.982728947615769,-9.244969211199713],[-77.983918684352744,-9.2453499217470281],[-77.984775290947198,-9.2456830399766012],[-77.98573897271767,-9.2458377066717752],[-77.986500394572502,-9.2459566781746023],[-77.987452177749063,-9.2458852991269698],[-77.988118425639996,-9.2457663278943265],[-77.988879856857821,-9.2455283842411049],[-77.98964129015134,-9.2452904311297477],[-77.990212351938553,-9.2451000800983305],[-77.990854813079906,-9.2450286919234941],[-77.991497262565531,-9.2450762835776832],[-77.992282482748806,-9.2452904310734105],[-77.992853554182986,-9.245338023958336],[-77.993472217570442,-9.2451476630167395],[-77.993971901299886,-9.2448383401529277],[-77.994566769583301,-9.2443148521665428],[-77.995304404715498,-9.2437913720380873],[-77.995661319645592,-9.2434820413451657],[-77.996589307326673,-9.2431013297406466],[-77.997279351333688,-9.2429585614129373],[-77.997862320693173,-9.2429466629876682],[-77.998266828349173,-9.2429942553519595],[-77.999004463688706,-9.2432321989860764],[-77.999313795918269,-9.2433035877245846],[-78.000265578775938,-9.2434463548950259],[-78.001169770150341,-9.2437080953296658],[-78.001740841168598,-9.2439698352675492],[-78.002073969772979,-9.2441601860805811],[-78.002764014214961,-9.2447788498100714],[-78.003025753162404,-9.2450167936015006],[-78.003406463895956,-9.2454926899225178],[-78.003834768345328,-9.245920994297812],[-78.004310663796517,-9.2463255006689558],[-78.004929319123548,-9.2466348330215808],[-78.005262446870503,-9.2467062128153987],[-78.005714546589346,-9.2467538054144125],[-78.006428387567553,-9.2468013880264479],[-78.006832893709685,-9.2469441559505245],[-78.007189809959613,-9.2470869231871049],[-78.007499142014851,-9.2471821090344957],[-78.008094009966655,-9.247324877312515],[-78.008427128563511,-9.2474200523463068],[-78.009093376450579,-9.247539022876289],[-78.009807216217695,-9.2477769670466472],[-78.010723313956859,-9.2478602535575991],[-78.011746475571556,-9.2479316332689283],[-78.012460315935257,-9.2480030220416491],[-78.013007591193485,-9.2480030218985121],[-78.013531069742541,-9.2480268179123346],[-78.014244910808088,-9.2479554288244294],[-78.014863574223682,-9.2478602536049692],[-78.015339461070525,-9.2476936898537794],[-78.015886737019514,-9.2475509223677772],[-78.016386428958896,-9.2474319499800437],[-78.01705267663597,-9.2473129792540902],[-78.01738580378256,-9.2473367754115454],[-78.017790312069039,-9.2474795428851078],[-78.018266198593949,-9.2475509219046081],[-78.01859932683999,-9.247503329136288],[-78.019027630553992,-9.2473605617015107],[-78.01924177855787,-9.247241589861444],[-78.01955110981325,-9.2470988211131253],[-78.019884238921037,-9.2471226176428054],[-78.020264950914097,-9.2472653855810094],[-78.020764632946083,-9.2474081542634714],[-78.021573648907975,-9.2476698935970578],[-78.021906776199714,-9.2478364575853842],[-78.022311284071804,-9.2480981976790471],[-78.022680097091154,-9.2483718345865569],[-78.023441529852747,-9.2484908065650853],[-78.024179164956266,-9.2483718348501878],[-78.025107152219505,-9.24811009615782],[-78.025725807185964,-9.2478959483604246],[-78.026653803763637,-9.2474676437424481],[-78.027224874672683,-9.2472772836873389],[-78.028319426389459,-9.2469679520732235],[-78.029080848711288,-9.246658620082318],[-78.029770892424025,-9.2462065288693687],[-78.030318168412776,-9.2458734006461807],[-78.030746472196256,-9.2457544292158858],[-78.031484106678647,-9.2456830401113912],[-78.032483483252761,-9.2457306331192921],[-78.033697006187666,-9.2458258088056446],[-78.034529816621557,-9.2458020217857122],[-78.035088990572831,-9.2457663276123299],[-78.035493498402687,-9.2455759670712467],[-78.035850423083417,-9.2453142276784881],[-78.036231134408666,-9.2448383401225929],[-78.036445280809914,-9.2445052131659757],[-78.03692117787493,-9.2439579369084406],[-78.037397063910191,-9.243743779874567],[-78.038015727797074,-9.2436486048781212],[-78.03844403205521,-9.2436961966434659],[-78.039253048142143,-9.2438865478605354],[-78.039990683616466,-9.2439817333569128],[-78.040871077556275,-9.2440531122062612],[-78.041370771095899,-9.2440531116780509],[-78.041965628781085,-9.244124500712017],[-78.042489117782466,-9.2442910548427779],[-78.04301259701937,-9.2445765916904232],[-78.043440901414399,-9.2449573133830416],[-78.043964380444947,-9.2453142280540579],[-78.044535452183567,-9.2458139197707645],[-78.044987552291616,-9.2464801667625647],[-78.045344466021561,-9.2470988208071105],[-78.04548723493194,-9.2475985142029664],[-78.045630002569908,-9.2480030218884686],[-78.045867946419094,-9.2484313260505076],[-78.046034510026146,-9.2490023976891447],[-78.046058306928558,-9.2494069049739132],[-78.04617727808332,-9.2499541810425558],[-78.04634384276298,-9.2505252530148017],[-78.046629378057659,-9.2510725282785682],[-78.046843526272994,-9.2514770347615904],[-78.047129061180186,-9.2520481068258853],[-78.047426495430912,-9.2526072803875774],[-78.047640651931005,-9.2531307597151979],[-78.048045158555155,-9.253630443166573],[-78.048497249822745,-9.2542253108458254],[-78.048830377939836,-9.2548201791066678],[-78.049020738142332,-9.2555578057891736],[-78.049139710748776,-9.256343034410758],[-78.049353858084856,-9.2574375852423429],[-78.049639394126345,-9.2585083387300298],[-78.049734569305713,-9.2592935576185127],[-78.049758364566273,-9.2600787872374344],[-78.049686986391137,-9.2606974419043908],[-78.04968698573704,-9.2613636890843889],[-78.049758364903283,-9.2618633824169088],[-78.049889235168166,-9.2622797874489162],[-78.050079595888306,-9.2628984422138814],[-78.050531695809255,-9.2635884845724199],[-78.05093620263996,-9.2642309460575962],[-78.051316914220536,-9.2648020170588925],[-78.051673829222239,-9.2654920595507164],[-78.052149725838717,-9.2662772802583024],[-78.052815972567586,-9.267110091201495],[-78.053410841055268,-9.2678477272187827],[-78.053648783671946,-9.2682522338080897],[-78.053862941371733,-9.2687519182963474],[-78.053910524180594,-9.2692516100480482],[-78.053886736859582,-9.269965440400405],[-78.054077088142634,-9.2707030762058338],[-78.05419606001162,-9.2711551763321189],[-78.054362623842891,-9.2715120916292815],[-78.054552983888541,-9.2717976267926545],[-78.054648159995551,-9.2722021350251556],[-78.054671955971486,-9.2725590589994038],[-78.054838520037137,-9.272939771211826],[-78.055076463680166,-9.2732491022748373],[-78.055552360007624,-9.2735346390491529],[-78.055956867370483,-9.2736060178236546],[-78.0563137823125,-9.2735346386074582],[-78.056551725970905,-9.2734394543116352],[-78.056908650712515,-9.273106334802165],[-78.057408333894685,-9.2724876706050559],[-78.057622489741377,-9.2722735231337605],[-78.057955609076032,-9.2721069586224818],[-78.058502885420452,-9.2718690163546231],[-78.058788421434187,-9.2717262483132838],[-78.060061432691001,-9.2711194824373511],[-78.060608709732236,-9.2709053343390426],[-78.061037013232053,-9.2707149742261805],[-78.061512909931437,-9.2705008271990295],[-78.062036388624833,-9.2703580592097019],[-78.062631257136047,-9.2702628737988277],[-78.063535446759346,-9.2701201073640309],[-78.064177898201464,-9.2700249311938219],[-78.064772765775203,-9.2699773380951935],[-78.065034505739675,-9.2699059588808606],[-78.065439012914339,-9.2698107835515504],[-78.06577214161868,-9.2697393954544101],[-78.066033880835462,-9.2697393948381563],[-78.066271825023719,-9.2698821630932819],[-78.066390795825853,-9.2700963186149448],[-78.066581156847263,-9.270167698892168],[-78.066819100396302,-9.2701676992786588],[-78.06729499567335,-9.2701201067963233],[-78.067889863719245,-9.2700487266780343],[-78.068865443746333,-9.2700487273743395],[-78.069365127213345,-9.2700487267288416],[-78.069769635266468,-9.2699059587014681],[-78.070245531135441,-9.2698107843749753],[-78.070792805959826,-9.2698107843149806],[-78.072375141650937,-9.2695371459222891],[-78.072993806592692,-9.2693943779819925],[-78.074802197039233,-9.2689898612451547],[-78.076039516071106,-9.2686805383174278],[-78.077348213879276,-9.2684901782455213],[-78.078038257932988,-9.2683712072071671],[-78.078466560851652,-9.2681808454012078],[-78.078752096850607,-9.2678239314161512],[-78.079132817906711,-9.2672052657258401],[-78.079442141223751,-9.2667055826019205],[-78.079775269319214,-9.2661345122571142],[-78.080251165049347,-9.2656586158807404],[-78.080964994734217,-9.265325496781827],[-78.081702632070261,-9.2651113397993541],[-78.08253544225056,-9.2648971928072257],[-78.083582410920016,-9.2648733961984799],[-78.084367628896274,-9.2650161636966377],[-78.084772137144014,-9.2651827292605677],[-78.085485976754924,-9.2655158573415743],[-78.086235501413896,-9.2657181055960383],[-78.087306265855389,-9.2657894953372928],[-78.088281845065254,-9.2658132813171878],[-78.089186036372496,-9.2659560497393567],[-78.090708889650529,-9.2662653808071891],[-78.091803442419163,-9.2664319463383755],[-78.093064555995952,-9.2664319456286375],[-78.093683220854132,-9.2664081485564616],[-78.094397060361942,-9.2662891779517818],[-78.094896742725282,-9.2662415850538462],[-78.095562991422042,-9.2662177887840862],[-78.096015091449743,-9.266170205898705],[-78.096205450844565,-9.2660750206295202],[-78.096514774314215,-9.2659084664012674],[-78.097276204747402,-9.2658132809975058],[-78.098192293654748,-9.2655634401652982],[-78.098810959119405,-9.2654206717003564],[-78.09935823400447,-9.2652065248289155],[-78.100191046021735,-9.2649685722127337],[-78.101000061335895,-9.2647782212866314],[-78.101832872282486,-9.2646354543198566],[-78.102689479544352,-9.2644212957358452],[-78.103331930642852,-9.2643261205712708],[-78.10428371375319,-9.264397510302107],[-78.104759610453854,-9.2643737143227405],[-78.105021349308132,-9.2644212963893331],[-78.105211710193331,-9.2645402772380212],[-78.105473449973402,-9.2647782214444199],[-78.105901753269009,-9.2648258142295976],[-78.106139696878529,-9.2647306290452907],[-78.106377639785222,-9.264540277008166],[-78.106615594163642,-9.2643499166639423],[-78.106948712284748,-9.264088177270196],[-78.107377016124516,-9.2637312530603868],[-78.107710144026754,-9.2632791628077342],[-78.108067059392141,-9.2628508592571528],[-78.108447770755632,-9.2625653232879923],[-78.108804696364174,-9.2621370194136841],[-78.109090231064812,-9.2618038896108139],[-78.109351971353632,-9.2614945676809768],[-78.109506637078965,-9.2612447173394514],[-78.109863552126214,-9.2609591824115078],[-78.110149088116501,-9.2606498586420507],[-78.110696364230492,-9.2601501662807681],[-78.111196055654489,-9.2597456586618989],[-78.111981275361572,-9.2592459760853902],[-78.112480957792798,-9.2588652548772128],[-78.11321859443909,-9.2585083393272143],[-78.113908636958442,-9.2582465998424865],[-78.115026983588564,-9.2577944999059252],[-78.115693232258906,-9.2576041493564105],[-78.11624050683443,-9.2575803533978451],[-78.116835375181651,-9.2577707039104364],[-78.117287475216116,-9.258080035032922],[-78.117906129383783,-9.2584607471477582],[-78.118334432989883,-9.2586273123013161],[-78.118691358057347,-9.2586749043400474],[-78.119262420116911,-9.2586749036173135],[-78.119904880854492,-9.2587224873052509],[-78.120404563853583,-9.2588652547478691],[-78.120832868056169,-9.2591983828765976],[-78.121261172341875,-9.2595790952221808],[-78.121820345181845,-9.2599717036483842],[-78.12236762096282,-9.260233452974667],[-78.123057663892212,-9.2605903676379384],[-78.12358114359327,-9.2609948762346548],[-78.124033244222417,-9.2612804112280642],[-78.124532927372442,-9.2616373255772668],[-78.12529435785801,-9.2620180466975626],[-78.125794041738317,-9.2623987590428545],[-78.12641270609285,-9.2628270627278511],[-78.126912388790899,-9.2631125978388713],[-78.127507257269656,-9.2633267460150126],[-78.127864172114315,-9.2634457167230568],[-78.128411446788107,-9.2635646977277482],[-78.128934936204729,-9.2635884851753811],[-78.129458416218426,-9.2636598737076099],[-78.12993431158516,-9.2637788457700161],[-78.13052916991316,-9.2638740211465844],[-78.130957473840795,-9.2640643810276249],[-78.131314398760722,-9.2643023252106449],[-78.131837877850998,-9.2645402772843877],[-78.13226618192526,-9.2647306287758298],[-78.132623095649805,-9.2648258141437907],[-78.133229862669012,-9.2649328871709269],[-78.133896110135765,-9.2650756557659371],[-78.134253025203918,-9.2650994517608698],[-78.13460995012143,-9.2651232382642519],[-78.135252399747529,-9.2651708305683655],[-78.135704500602287,-9.2652660057974536],[-78.136180396781569,-9.2652660063743504],[-78.136632487368274,-9.2652898021099439],[-78.137155966102156,-9.2653135982407964],[-78.137512891004818,-9.2653135976901169],[-78.137964991225118,-9.2653849767652883],[-78.138464674269414,-9.2655515417055199],[-78.138797802609815,-9.2657181063219927],[-78.139297486097689,-9.2660988176853785],[-78.139725790304581,-9.2663367695658803],[-78.140082705083231,-9.2664557419669542],[-78.140249268999256,-9.2666698892310837],[-78.140463425628965,-9.2670030179409491],[-78.140629980039691,-9.2673361370440457],[-78.140867933076947,-9.2678596259029469],[-78.140986904920254,-9.268335511880986],[-78.141248643978443,-9.2685972511123058],[-78.141676947964271,-9.2687876124189952],[-78.142057659711185,-9.2688589910549926],[-78.142462166737417,-9.268811407783355],[-78.142525993906602,-9.2687765987241661],[-78.142843296846408,-9.2690939005814919],[-78.143322997664839,-9.2696421367229789],[-78.143768430262696,-9.2700875703539936],[-78.144179604918335,-9.2705672698168762],[-78.14452224505736,-9.2711497549933455],[-78.145001944689383,-9.2718350433738852],[-78.145378851957574,-9.2722119500215445],[-78.14585855337684,-9.2726231247688169],[-78.146303984945305,-9.2730342893590176],[-78.146749417668261,-9.2734797229231134],[-78.147092066934292,-9.2738908971873659],[-78.147263387000734,-9.2741307431650277],[-78.147743086578629,-9.2746447116159949],[-78.148291313767132,-9.2752272058009506],[-78.148668221022717,-9.2756041129306279],[-78.148908067424514,-9.2758782260985608],[-78.149045128210233,-9.2762208646988764],[-78.149113653549549,-9.276632039660754],[-78.149182179595201,-9.2770774726059901],[-78.149353509127693,-9.2775571725657517],[-78.149661880689166,-9.2781053999002747],[-78.150141580648835,-9.2786536274115647],[-78.150689808400159,-9.2792018528858708],[-78.151100982037093,-9.2796815539720647],[-78.152231703884411,-9.2804696355551766],[-78.152814197993763,-9.2807094812095681],[-78.153499475731209,-9.2808808003399363],[-78.154013444649664,-9.2809493266405578],[-78.154390351571351,-9.2811549143401209],[-78.154767257955768,-9.2814975628248604],[-78.155024233026865,-9.281994391668281],[-78.155127027024875,-9.2827139394504545],[-78.155195561716354,-9.2835705465761791],[-78.155435407649378,-9.2843586190441112],[-78.155572459933381,-9.2849068550696714],[-78.155675252850173,-9.2855236067711218],[-78.155983634562276,-9.2863802147966297],[-78.156223488682983,-9.2869284417634237],[-78.156531861245128,-9.2875794618828387],[-78.156771715607562,-9.2882647498505229],[-78.156874510305883,-9.2890870902856779],[-78.156908767689629,-9.2898409033224958],[-78.157045829344028,-9.2902863357611309],[-78.15731994280101,-9.2905947175780383],[-78.157617880806129,-9.2908921132490558],[-78.158063313732754,-9.2912347615692212],[-78.158371694746663,-9.2914403491289939],[-78.15850874561707,-9.2916801949446768],[-78.158577282353846,-9.2921256281623545],[-78.158611541318876,-9.2933248752181257],[-78.158680065919242,-9.2941472238716933],[-78.158748601604245,-9.2947982438613703],[-78.158748602195587,-9.2955520486254866],[-78.158680065847278,-9.2965799757684078],[-78.15874860168951,-9.2980190778425325],[-78.158919920587493,-9.2993211187996501],[-78.159159766971044,-9.3003833142799905],[-78.159468147589095,-9.3014454987176496],[-78.159742260985169,-9.3024734257319128],[-78.160084899855704,-9.3032615078488341],[-78.160461807803074,-9.3042551672364446],[-78.160581740148828,-9.3049233257851398],[-78.160581740046297,-9.3055743469635246],[-78.160410410582841,-9.3063281596841598],[-78.160170565444233,-9.3069106451920725],[-78.160033504382525,-9.3074246141954387],[-78.159999245058927,-9.3080071080466258],[-78.160102038883082,-9.3085553342508796],[-78.16037615301974,-9.309069292850193],[-78.160478946145659,-9.3094462014238477],[-78.160444678128741,-9.3098573752478408],[-78.16023909143459,-9.3103713338803811],[-78.159999245451885,-9.3109880959108438],[-78.159930719139183,-9.3115020551684378],[-78.159930719426484,-9.3120502809578003],[-78.159999244858128,-9.3126670426009355],[-78.160067772298632,-9.3137292287972269],[-78.160239090941673,-9.3145515784119475],[-78.160684524327593,-9.3161962579345126],[-78.160992905183861,-9.3170185975483903],[-78.161404080439596,-9.317703886056659],[-78.161849512929351,-9.3182521133240641],[-78.162534801032081,-9.3187660720395886],[-78.162860309837313,-9.3189545292958265],[-78.163648382694177,-9.3191943752472728],[-78.164025289398424,-9.3194342301021909],[-78.164333670706981,-9.3197426019002911],[-78.164539258395649,-9.3201195083857602],[-78.164779103636121,-9.3204621567471158],[-78.165087484943811,-9.3209075907972423],[-78.165567184835496,-9.3213187652569172],[-78.165978350699874,-9.3215928783698008],[-78.166355256596347,-9.3219012497233429],[-78.166732164109376,-9.3222781570166777],[-78.167006278401047,-9.3227235995728268],[-78.167211865113842,-9.3232032906299587],[-78.167348926041512,-9.3236829909973125],[-78.167485979104072,-9.3240941655690293],[-78.167760091956993,-9.3245738668774472],[-78.168102740728045,-9.3250535668243284],[-78.168616699894329,-9.3254647323667008],[-78.169267720319709,-9.3259444327326051],[-78.169833075210008,-9.3263727358639823],[-78.170758218695212,-9.3270237569797132],[-78.171991723082598,-9.3280859522232955],[-78.172677010809963,-9.3287027042395927],[-78.173670671338641,-9.3295593123014342],[-78.174698598285914,-9.3305872390408311],[-78.175863586633724,-9.3317179601337283],[-78.176446081244237,-9.3324375069934824],[-78.177097101944995,-9.3334311663964318],[-78.177679586047873,-9.3346304234399788],[-78.178467668256843,-9.3359667210651196],[-78.179358534359167,-9.3372345029377417],[-78.179975296326958,-9.3382624314025122],[-78.180454996146722,-9.3391190285720977],[-78.181208811377928,-9.3401812238698376],[-78.181688511390419,-9.3406609250805008],[-78.182545108722877,-9.3412776767991659],[-78.182990551202977,-9.3415517903664984],[-78.183470241682215,-9.3418944385710514],[-78.183641572175077,-9.342100025817297],[-78.183744365593114,-9.3426139850040126],[-78.183744365603431,-9.3434705931239161],[-78.183710097993924,-9.3441216132733356],[-78.18383002066912,-9.3450981437595999],[-78.183967081808134,-9.3462288648579861],[-78.18403560706362,-9.3471197296821718],[-78.184035606823997,-9.3480106051286747],[-78.184035606776348,-9.3487986774314784],[-78.184172660009736,-9.3494496977658201],[-78.184446773066142,-9.3499979243855957],[-78.184857947975004,-9.3505461607589009],[-78.185337648731405,-9.3511286454404523],[-78.185817349099807,-9.3516083467849942],[-78.186194255562569,-9.3519852528109499],[-78.186468369271424,-9.3523964282227112],[-78.186625927212503,-9.3528982032534067],[-78.186694043595054,-9.3534431679852581],[-78.187162377654346,-9.3534091093535761],[-78.187511494914446,-9.3534176209987852],[-78.187938942992091,-9.353507299219693],[-78.188555705276201,-9.353712887108804],[-78.189035405151145,-9.3539527321710025],[-78.190234651915333,-9.354466700305176],[-78.191468166600885,-9.3550149274551178],[-78.19246182736768,-9.3552205151080301],[-78.193489753656181,-9.3553232994134561],[-78.194380619425885,-9.355289040388552],[-78.195168702114188,-9.3551177212850387],[-78.195991041099049,-9.3545009590451222],[-78.196539266695481,-9.3539527316344646],[-78.196796250931854,-9.3535244289912924],[-78.197344478163757,-9.3526335627671067],[-78.197652858983147,-9.352051068169299],[-78.197926973310445,-9.3513315227575244],[-78.198338146623186,-9.3507490280221628],[-78.198852105724583,-9.3503378537188588],[-78.199366074786042,-9.3501322759297878],[-78.200188415192216,-9.3497896267327985],[-78.200805167318379,-9.3493784608435444],[-78.201250599603014,-9.348967286977885],[-78.201764568598378,-9.3485218539793564],[-78.20234706296813,-9.3481792049841559],[-78.202586909155954,-9.3481106786805643],[-78.202826753896829,-9.3481449472560918],[-78.203066609282587,-9.348247739820712],[-78.203546310134996,-9.3485561121144745],[-78.203991741703234,-9.3489330191551119],[-78.204402917183259,-9.3494812548401267],[-78.204779823913199,-9.3500637402432893],[-78.205156730884696,-9.3509203466007396],[-78.205670690137282,-9.3517084290364636],[-78.206321710012759,-9.352427974937882],[-78.207383905188365,-9.3531132627919309],[-78.208309038181724,-9.353455903245786],[-78.209474016964634,-9.3534901713908472],[-78.210433419552558,-9.3533873763523268],[-78.211324284854271,-9.3531817904077812],[-78.212146633572686,-9.3531475223330496],[-78.212968973769591,-9.3532160573149614],[-78.213928375926585,-9.3533873755762986],[-78.214784974009362,-9.3535586964038835],[-78.215675848977426,-9.3535929542556921],[-78.216395394964067,-9.3535244286829151],[-78.216549585739969,-9.3534730307323244],[-78.217063553865586,-9.3532331859239015],[-78.217543246161014,-9.3527534862654544],[-78.217920151787339,-9.3522737852672719],[-78.218331327278733,-9.3517940838762676],[-78.218811028426771,-9.3513486510964299],[-78.219427779908443,-9.3509374770010005],[-78.220010275159325,-9.3507661567526821],[-78.22048997499293,-9.3508346920222678],[-78.220695563193914,-9.3509032186930554],[-78.221072469208877,-9.3509717436426776],[-78.221620695784651,-9.3510060124064118],[-78.222134654995614,-9.3509032186006191],[-78.222545829993706,-9.3507318994028825],[-78.223059787589989,-9.3504920431760485],[-78.22357375638947,-9.3504920432773311],[-78.223779343693352,-9.350594838073782],[-78.223984922228894,-9.3507318992161874],[-78.224190510186986,-9.3510402696170587],[-78.224361828921147,-9.3514514453220432],[-78.224533158197673,-9.3521709912761413],[-78.224635941613613,-9.352959071700699],[-78.224841530389583,-9.3539870001377352],[-78.225047117221024,-9.3547065459107319],[-78.225286961650852,-9.3552890401069888],[-78.225526817848504,-9.35580299921223],[-78.225835199427323,-9.3563512256309256],[-78.226143569961707,-9.3567281333553307],[-78.226554744943527,-9.3571735748649214],[-78.226657538951486,-9.3574819473243398],[-78.226691797389904,-9.3577903277304646],[-78.226589011739421,-9.3578588542075636],[-78.226417683266334,-9.3578588542459578],[-78.225937992133666,-9.3577903278061356],[-78.225252703950034,-9.3577218021959343],[-78.224807270738225,-9.357687533977824],[-78.224327570897259,-9.3577218017536286],[-78.223950664372211,-9.3578245951179895],[-78.223505230679322,-9.3580987086980816],[-78.222991263092084,-9.3585784099080609],[-78.222511562115145,-9.3590923691300176],[-78.222031861145666,-9.3598461817486598],[-78.221415108176245,-9.3605657285559598],[-78.220764088207517,-9.361251016642667],[-78.220078799549995,-9.3621076251906334],[-78.219290727562992,-9.3635124580878948],[-78.21894807877969,-9.3640606853426025],[-78.218639708289032,-9.364780232019088],[-78.218536915340849,-9.3654997772844766],[-78.21870823390789,-9.3667675601307945],[-78.219016615414574,-9.3677954865746429],[-78.219239330795247,-9.3684636363836269],[-78.219684763566462,-9.3693545121108457],[-78.220095938570481,-9.3699369959742853],[-78.220712690588059,-9.3706222836750737],[-78.221192391984346,-9.371067716858839],[-78.221672093299617,-9.3715816864434913],[-78.221980464310434,-9.3720956442486862],[-78.222288845812656,-9.3733291589255998],[-78.222562958883088,-9.374596941356641],[-78.222700020400296,-9.3756248690856925],[-78.222700019833113,-9.3762416206518484],[-78.222562958739942,-9.3766527958370709],[-78.222254577925597,-9.3771667551700837],[-78.221843412160297,-9.3776807242086715],[-78.221466505610508,-9.3785030629189254],[-78.221329443713643,-9.3793596709114802],[-78.221295185832304,-9.3799764227752629],[-78.22141510764402,-9.3807131079249864],[-78.221757748205633,-9.3814669223525158],[-78.222237448339968,-9.3824263136324646],[-78.222614355077695,-9.3833857148044171],[-78.222682882154729,-9.3843108488707774],[-78.222580086867438,-9.3851331887158178],[-78.222340242188011,-9.3858870018764904],[-78.222100395654422,-9.3861953831025744],[-78.22196333531366,-9.3863667033227216],[-78.221963334657204,-9.3866065485668706],[-78.222134655399159,-9.3870862500902827],[-78.222374509847256,-9.3877372699157426],[-78.223128323555414,-9.3892791658341412],[-78.22364228277182,-9.3902728245620146],[-78.223967792982293,-9.3909752423952959],[-78.224344700445897,-9.3919003758748261],[-78.224790132908041,-9.3925171383762418],[-78.225132781638166,-9.3929283021694872],[-78.226057915404496,-9.3934765290065343],[-78.226880254809203,-9.3937849103644844],[-78.228319356350525,-9.3939562295604873],[-78.22914169718463,-9.3939904984371214],[-78.229929768681046,-9.39412754861055],[-78.230820643819371,-9.3942988787115809],[-78.231677251828529,-9.3946757860912324],[-78.232773704967386,-9.3953268062419006],[-78.233938683581712,-9.3959778260657369],[-78.234658239341812,-9.3967316401800982],[-78.235206465729334,-9.3977595670264282],[-78.235686167029598,-9.3988902787291746],[-78.235926012984095,-9.3997126279062808],[-78.235994537733504,-9.4002265870304367],[-78.235926012844942,-9.4014601005832628],[-78.235823219151015,-9.4026936160698202],[-78.235823219088658,-9.4033788949588164],[-78.235857486034504,-9.4036530082611449],[-78.235926012690982,-9.4038243371668848],[-78.236097332318039,-9.4039613890484546],[-78.236474239722526,-9.4042012443901797],[-78.237022466356407,-9.4044410893324866],[-78.237330846244191,-9.4047152033151935],[-78.237673486410245,-9.4052634286110202],[-78.237844814983916,-9.4056403359330858],[-78.238221713247128,-9.4060857703015088],[-78.238838474329341,-9.4064969441546271],[-78.239523762394953,-9.4068053251405459],[-78.24027756679871,-9.4070451707978258],[-78.240997121745792,-9.4072850249427589],[-78.24161387594242,-9.4075248713996338],[-78.24188798855441,-9.4077647169523093],[-78.242025050359061,-9.4080388300966433],[-78.242025049656476,-9.4083814787683604],[-78.241990783066569,-9.4085870660684865],[-78.24178519492169,-9.4089639726365952],[-78.241476824190769,-9.4095122004309477],[-78.241236968105127,-9.4101974782985049],[-78.241236967828925,-9.4112254059958023],[-78.241305495019375,-9.412047755323611],[-78.241579616733475,-9.4130071469175327],[-78.241869252992572,-9.41384578841825],[-78.242280426896826,-9.4152506229892694],[-78.242588797618907,-9.4161072300761255],[-78.242862921919354,-9.4171351569720265],[-78.243068498584933,-9.4179574967529831],[-78.243188431445233,-9.4184200589035978],[-78.243291216340168,-9.4191738730197603],[-78.243291216428759,-9.4196878415699974],[-78.243085637909459,-9.4204759136872411],[-78.242845782281549,-9.421229727060064],[-78.242674462732339,-9.4220178099996463],[-78.242366081859032,-9.422840148678679],[-78.241920648605017,-9.4237310241032155],[-78.24154374179875,-9.4243477773893822],[-78.24130389692661,-9.424930270738427],[-78.241098309158588,-9.4256840855541046],[-78.240892721965025,-9.4266777447319701],[-78.240858454293601,-9.4276714040437444],[-78.240892722391735,-9.4283566930274443],[-78.240892721621194,-9.4289049184100264],[-78.240892722209651,-9.4293160942019707],[-78.240824196369303,-9.429727259142954],[-78.240584341411278,-9.4301041660826499],[-78.240413021055033,-9.4303440206674445],[-78.240190304842614,-9.4310464384210082],[-78.240293097554726,-9.4314233445935791],[-78.240464418413538,-9.4316974577475623],[-78.240670005670808,-9.4318687782689921],[-78.240944118220924,-9.432005839009113],[-78.241046913320361,-9.4320743652813483],[-78.241115438130549,-9.4322799533912427],[-78.241115437747908,-9.4324855299356063],[-78.241046912742547,-9.433102293204481],[-78.240944117913003,-9.4337533130093387],[-78.240807067368365,-9.4345756532606408],[-78.240635737878449,-9.4352609412193154],[-78.24043015997799,-9.4358091666302197],[-78.240293097573456,-9.4365287127322635],[-78.240258830081487,-9.4374538472313247],[-78.240310227689776,-9.438019212297684],[-78.2404472888378,-9.4388415521610778],[-78.24058434127069,-9.4399722729460738],[-78.240687134038708,-9.4410002004072187],[-78.240892722013683,-9.4416512196995921],[-78.241098308725967,-9.4418910658114026],[-78.241509484332767,-9.4419938604002436],[-78.241886381329707,-9.4419938601343674],[-78.242674462624933,-9.4417540143697316],[-78.243496803340037,-9.4413428395462837],[-78.244250616718759,-9.4411029939906168],[-78.244935904785166,-9.4410344587555421],[-78.245449864357226,-9.4411372522881774],[-78.245929565089398,-9.4414799009268258],[-78.246340738993382,-9.4418910662702213],[-78.246923233987005,-9.4424050338060468],[-78.247642780296374,-9.4431588479643587],[-78.248362326153512,-9.4442210339074535],[-78.24877350067014,-9.4449405802527036],[-78.248910552403188,-9.445488815935045],[-78.249321726640858,-9.4462768880939834],[-78.249904220656362,-9.4470307022678135],[-78.250589500354025,-9.447715989575638],[-78.251497504380325,-9.4484526658604739],[-78.252079997580708,-9.4490351601981075],[-78.252491164022828,-9.4495491280321531],[-78.252868070787841,-9.4502686740549677],[-78.253073657553855,-9.4510224881062381],[-78.253210720184356,-9.4519818904255093],[-78.253210719922663,-9.4525301161620341],[-78.253107926012277,-9.4532153943021964],[-78.25300513178729,-9.4544489091674127],[-78.253107925728955,-9.4554768370105382],[-78.253107925978426,-9.4566418254413236],[-78.252902339081274,-9.4574984328645257],[-78.252611096444568,-9.4582351076220252],[-78.252542559869482,-9.4588861293710682],[-78.252611096238098,-9.4595714169587293],[-78.252748147716332,-9.4600853752733531],[-78.252953735779272,-9.4606336006127787],[-78.253193580872804,-9.4614559511204739],[-78.253296375129523,-9.4622782911793504],[-78.253364909973371,-9.463169157178303],[-78.253296374584252,-9.4638887130734375],[-78.253399168413878,-9.464676784676028],[-78.253673281243451,-9.4652935468072261],[-78.254118714648811,-9.4659103001218092],[-78.254598415382333,-9.4665270520214708],[-78.255112384057,-9.4669382260370476],[-78.255660610347235,-9.467383660174546],[-78.256311630788687,-9.4680004212533504],[-78.256859857009758,-9.4685486480636083],[-78.257476619158197,-9.4690968747758966],[-78.258127640220309,-9.4696793687473093],[-78.25894997937786,-9.4706045017550178],[-78.259669525006004,-9.4713240489343242],[-78.260286278023386,-9.4719065426532545],[-78.261177153279007,-9.4724890283261836],[-78.262136554765135,-9.4731743160200583],[-78.262890368143161,-9.4738596043102294],[-78.26347285364794,-9.474407830890371],[-78.264295202965357,-9.4752986957577718],[-78.264946223170227,-9.47618957178193],[-78.265562975309621,-9.4771489734236756],[-78.265957010739669,-9.477851390437527],[-78.266402444560953,-9.4788450498180978],[-78.266779350995208,-9.47990724403458],[-78.267498907285486,-9.4811750177480771],[-78.267978607645432,-9.4817575119273094],[-78.268526834916386,-9.4823057375798356],[-78.269075061243697,-9.4828539654081556],[-78.26941770078777,-9.4834707171115351],[-78.269623286836193,-9.4843958513373199],[-78.269760339699801,-9.4854237778588235],[-78.269897401401337,-9.4862803864381053],[-78.269847678026679,-9.4868361830338053],[-78.269034715559769,-9.4866283508584655],[-78.268383694732009,-9.4864912897374118],[-78.267527096892152,-9.4863199701519232],[-78.2665334280819,-9.486114382814133],[-78.265402707605674,-9.485737475579981],[-78.264683161174005,-9.485463363313249],[-78.263895079674597,-9.4850864552687373],[-78.263244059202407,-9.4847438155854267],[-78.26252451272974,-9.4842983843171851],[-78.262079080162906,-9.4839214756611536],[-78.261393792114106,-9.4834075075774518],[-78.260879832986433,-9.4831676615968714],[-78.260091752070778,-9.4829963431883542],[-78.259132350783872,-9.4827564879954771],[-78.258549865957448,-9.4826879613747206],[-78.257796051619579,-9.4827222285906139],[-78.256733857254687,-9.4828592810893664],[-78.255774456201351,-9.4829963431811386],[-78.25503778001594,-9.4831162646252185],[-78.254146905166579,-9.4831847922048738],[-78.253598678162987,-9.4832533176798712],[-78.252913390419607,-9.4832875851759795],[-78.252536493003959,-9.4832875849421008],[-78.252125317586362,-9.4831847916900109],[-78.251302977669141,-9.482876410884705],[-78.250720483385706,-9.4825680392648266],[-78.250377844242465,-9.482328183673312],[-78.249932402293595,-9.4819512769513565],[-78.249384175382843,-9.4815058437024433],[-78.24880169074703,-9.4809233492350167],[-78.248493309567493,-9.4804779168642526],[-78.24821919580549,-9.4798954228341685],[-78.248047876307041,-9.4794842573242164],[-78.247910814645962,-9.4792101436286433],[-78.247773763374298,-9.4790045570780563],[-78.247602434034832,-9.4789017634196622],[-78.247225527227471,-9.478867494970622],[-78.246574506611722,-9.478970289272743],[-78.246197601338253,-9.4791073501052789],[-78.245649373699564,-9.4793471956002957],[-78.24451865306321,-9.4799982160588065],[-78.243559261231525,-9.4806492359076895],[-78.242462798277188,-9.4812317313228913],[-78.241229292694385,-9.4817456989565496],[-78.240475479235101,-9.4819855445562364],[-78.238659471087374,-9.4825337711373106],[-78.237802863376459,-9.4827393593515712],[-78.237237506646991,-9.4827222291949571],[-78.236757807407628,-9.4825851682590887],[-78.236346631545715,-9.482173992582517],[-78.236209579575402,-9.4817285603102857],[-78.236106785909271,-9.4811118077832681],[-78.235901199318391,-9.4805978403844495],[-78.235524292413714,-9.4800838813741954],[-78.234976064590043,-9.479535654116825],[-78.234290777207093,-9.4791244803212571],[-78.233639756970192,-9.4789874281523563],[-78.232920210765656,-9.4789188918825626],[-78.232406251957798,-9.4789188923358711],[-78.231652437886893,-9.4788503663028987],[-78.231275531005011,-9.4787818402265422],[-78.230658769133385,-9.4784391918147293],[-78.230299000659613,-9.477942361245324],[-78.230059145256703,-9.4775654548815762],[-78.229716505584207,-9.4772570829398575],[-78.229339599776864,-9.4770857539993418],[-78.228996960064194,-9.477085754192224],[-78.228517259026049,-9.4771200224077567],[-78.228071825736052,-9.4772228160704781],[-78.227592126314519,-9.4773256090521727],[-78.227043899031486,-9.4774969287382316],[-78.226632725220838,-9.477565454988115],[-78.226358610833699,-9.4774969291306856],[-78.226153023731115,-9.4772570827372125],[-78.225913178145191,-9.4768801772181721],[-78.225570528877171,-9.4765032692487026],[-78.225159364565968,-9.4760920942709337],[-78.224782458443158,-9.4758179813184888],[-78.224302756673126,-9.4756123940000681],[-78.223480416676395,-9.4753725491246481],[-78.222658067785744,-9.4751669610976883],[-78.222058444122467,-9.4750812957349915],[-78.220859197353775,-9.4748757178352925],[-78.219968330811312,-9.4747729251276827],[-78.219214518348778,-9.474635863593468],[-78.218632023391493,-9.4744645443313971],[-78.218186590299666,-9.4742246977518203],[-78.217741157602106,-9.4739505848372811],[-78.217398508686486,-9.4735736776083659],[-78.216918808045207,-9.4732995645571396],[-78.216507642723599,-9.4730939783083166],[-78.216027942350152,-9.4730254419246176],[-78.215651034838771,-9.4730597099209408],[-78.215137076046759,-9.4731282359439728],[-78.214280467859197,-9.4733338229730801],[-78.213458118815666,-9.4734023490146058],[-78.213149748361033,-9.473299564999131],[-78.212909892896022,-9.4730597097625573],[-78.212772839961389,-9.4727855966185182],[-78.212670046743085,-9.4723058963012612],[-78.212498726853482,-9.4718604632394001],[-78.212258871638184,-9.4714835558577342],[-78.212053294867928,-9.471243710224817],[-78.21177917138219,-9.4711751740230028],[-78.211573594277056,-9.4711751738189704],[-78.211333738814105,-9.4711751743224291],[-78.211025367170777,-9.47124371015585],[-78.210579925115113,-9.4714150304418343],[-78.210203018149059,-9.4715520823391657],[-78.209894646619745,-9.47165487593964],[-78.209791853341983,-9.4716891425582048],[-78.209654790573836,-9.4716891430281756],[-78.209483471943003,-9.4716206176658861],[-78.209346419861177,-9.4715520817290759],[-78.209106564413233,-9.4714150300703164],[-78.208438415903117,-9.4710895186149813],[-78.207650333735742,-9.4709524582386369],[-78.206965056429297,-9.4709181999631689],[-78.206485354864981,-9.4708839328536243],[-78.205868592424324,-9.4708154060945215],[-78.205525953370369,-9.4707126131335446],[-78.205114779203626,-9.470541294359812],[-78.204737872005609,-9.4705070261986393],[-78.204052593027413,-9.4705412938388562],[-78.203315907962065,-9.4706269492070927],[-78.202630620160491,-9.4705241536781752],[-78.202116660763949,-9.4703185677459878],[-78.201671228688895,-9.4700787216909941],[-78.201088733860729,-9.4698046092467241],[-78.200471981978112,-9.4693934341860917],[-78.200026539228233,-9.4689822691587207],[-78.199478312603148,-9.4684340423153674],[-78.198964353964485,-9.4681256606418103],[-78.198587446404787,-9.468057134866342],[-78.19845038519361,-9.4680913930246149],[-78.198381859774599,-9.4681599276399986],[-78.198176272001419,-9.4683997742717789],[-78.197765107214479,-9.4689137326425854],[-78.197422458402059,-9.4695647627587078],[-78.197182613209009,-9.4701472481307452],[-78.196805705639193,-9.4707982676618396],[-78.196017623979742,-9.4717919368543413],[-78.195229551828533,-9.4723744210708603],[-78.194749851188874,-9.4727855972071797],[-78.194304417969761,-9.4730939777109047],[-78.193756181581563,-9.4733680897056303],[-78.193413542712165,-9.4734023489448536],[-78.19271112597211,-9.4733166935871456],[-78.191785992986965,-9.473179633259365],[-78.19110070362305,-9.4731796329027311],[-78.190483951180099,-9.4731111062640814],[-78.189867198623347,-9.472905518979573],[-78.189353230637906,-9.472597147042114],[-78.188770736865408,-9.4722887656427073],[-78.188188252417177,-9.472083178748866],[-78.187537230554142,-9.4720489120042863],[-78.186886210762694,-9.4721517047466044],[-78.186235190754857,-9.4722887656736408],[-78.185172996294455,-9.4724600857643271],[-78.184796088913942,-9.4723915610793288],[-78.18435065614743,-9.4721859728031959],[-78.183905213852228,-9.4718775920813325],[-78.183219935042587,-9.4716034781367782],[-78.182466121052158,-9.4712950970243579],[-78.181780833862845,-9.4710552517146382],[-78.181198339347816,-9.470952457732146],[-78.180341740718902,-9.4711580464046108],[-78.179759247420222,-9.4714664268077602],[-78.179279545853774,-9.471877591673783],[-78.178971165187562,-9.4722544981155412],[-78.178697051210207,-9.4728369933103043],[-78.178628526355311,-9.4731796329295275],[-78.178491464385047,-9.473933445972623],[-78.178217351025026,-9.47465300237279],[-78.177908979950232,-9.4752012285832219],[-78.177669124131839,-9.4754753423814488],[-78.177292218174699,-9.4756809295530253],[-78.176709732929339,-9.4759207752084222],[-78.176092970882806,-9.476194888146221],[-78.175510475664709,-9.4767088567812401],[-78.175219233208395,-9.4774112641786363],[-78.175116439912287,-9.4786105212818192],[-78.175287759779422,-9.4794328605883305],[-78.175459079199413,-9.4799468191373943],[-78.175596140573006,-9.4804950462601454],[-78.17559614107391,-9.4809062209516419],[-78.175356295861107,-9.4814201886809926],[-78.174910852031914,-9.4820712090285895],[-78.17419130673251,-9.4830306010664795],[-78.173745872776976,-9.4836816211527442],[-78.173437492350914,-9.4842641159785668],[-78.173129111783808,-9.485120723074056],[-78.172752203868271,-9.4860458572361601],[-78.172341039720962,-9.4869024639513384],[-78.172169720292786,-9.4875534837783526],[-78.172066926189004,-9.4881702365836116],[-78.172135451795427,-9.4887527310100275],[-78.172375297547205,-9.4894380201595663],[-78.172478090813343,-9.4904659468035675],[-78.172375298272058,-9.4909456480567194],[-78.172203978159033,-9.4913910800656094],[-78.172032659438671,-9.4917337192726041],[-78.172018904836179,-9.4917573073961474],[-78.171664701110899,-9.4921557849535123],[-78.170842352002623,-9.4931151862433989],[-78.170294124622785,-9.4937319384546104],[-78.169780166229373,-9.4944514941925462],[-78.169540312421702,-9.4950682456833881],[-78.169266197971965,-9.4957535341301895],[-78.168855032867526,-9.4962332247881562],[-78.168169745249074,-9.4968499872778338],[-78.167587249564008,-9.4975695335988402],[-78.167278878721262,-9.4983233482905245],[-78.167141817075986,-9.4991799550184624],[-78.167021894262888,-9.4995739920838584],[-78.166884833277194,-9.4997453113210604],[-78.166713513622895,-9.4999508975689402],[-78.166439400849853,-9.5001907533976286],[-78.166028224600339,-9.5002935373393953],[-78.165411472711867,-9.500259278976932],[-78.164897513627835,-9.5001564858206518],[-78.164280752717417,-9.5000194237550133],[-78.163287092544905,-9.4999851659256578],[-78.162704598031254,-9.4999508975507094],[-78.161779465324358,-9.4998138460789132],[-78.161094177105682,-9.499539732616741],[-78.160580217936158,-9.4993684039720296],[-78.160031991268312,-9.4993684041406024],[-78.159552291055462,-9.4994369389029547],[-78.159141115613949,-9.4995397331223348],[-78.158627158137833,-9.4997453110584118],[-78.157941870086788,-9.4999508983174987],[-78.157427910640365,-9.5000536915699936],[-78.157085262446685,-9.5000536924434229],[-78.156708355172626,-9.4999851659906049],[-78.156434242245609,-9.4998138462597108],[-78.155851746688171,-9.4994369390993629],[-78.155406313733778,-9.499060032682765],[-78.154995148859726,-9.4986145897797361],[-78.154652499925703,-9.4982376829525332],[-78.154001479598335,-9.4977579911638816],[-78.153230535748435,-9.4970555752893393],[-78.152613783789775,-9.4967129261021803],[-78.152065548323264,-9.496370286930949],[-78.15168864193376,-9.4961989668224636],[-78.151277476016375,-9.4960961742800603],[-78.15062645565655,-9.4958563180676379],[-78.150112487333814,-9.4955136792325217],[-78.149701322612714,-9.4952738344368353],[-78.149290147685818,-9.4950682459253777],[-78.148878981730533,-9.4950339780911701],[-78.148536334312084,-9.4950682457133091],[-78.148193695061877,-9.495136772550449],[-78.147576941642555,-9.4953423587710972],[-78.146617541125408,-9.4955479468107793],[-78.145521088348843,-9.4955822050666239],[-78.144801531831177,-9.4954794212485361],[-78.144184778628329,-9.4953080919642527],[-78.143670811229299,-9.4950682458482323],[-78.143191109968924,-9.4946228138089896],[-78.14271141867907,-9.4940403189306846],[-78.142300243661126,-9.4934578247355681],[-78.142026130903147,-9.492943866416292],[-78.141717750052848,-9.4924298976527304],[-78.14127231697168,-9.4919844646244531],[-78.140963935867291,-9.4916075582812045],[-78.140518502555338,-9.4910935885806822],[-78.140141595560024,-9.4905453622083993],[-78.139798957403954,-9.4901341983058796],[-78.13938778241382,-9.4897230231970084],[-78.139045143308877,-9.4895174345596924],[-78.138633967901171,-9.4893803833956127],[-78.138051482774358,-9.4890720022234198],[-78.137640309316026,-9.4888321561974163],[-78.137194876117249,-9.488523776278285],[-78.136543855094558,-9.4880783433568148],[-78.135961361362149,-9.4878727546213781],[-78.135207547344123,-9.4878042303540884],[-78.134282414021015,-9.4878384870550931],[-78.13277478557157,-9.4874958479158842],[-78.131575539017291,-9.487118942363626],[-78.130718930754412,-9.4867077670562363],[-78.129810926910636,-9.4861424110267123],[-78.129434019959561,-9.4859025664459597],[-78.128645947918514,-9.4853885983578277],[-78.128063453670123,-9.4848746386233724],[-78.127549485015422,-9.4843264015788336],[-78.126932732879922,-9.4836753823910911],[-78.126418774067844,-9.4830928965919465],[-78.125836278701357,-9.4826817226377536],[-78.125288052194023,-9.4824076086350253],[-78.124499970652337,-9.4821677638274142],[-78.123369249871971,-9.4817908571025615],[-78.122409858639031,-9.4813454139899331],[-78.121416190100987,-9.4807286619525417],[-78.120439659449957,-9.4799919769417134],[-78.119514525945917,-9.4791011109299319],[-78.118829238284064,-9.478415822708687],[-78.118315279212439,-9.4779361232648398],[-78.117767052417847,-9.4775934828355055],[-78.116944712380288,-9.4772508437139624],[-78.116156630730387,-9.4769081953161489],[-78.115471343164941,-9.4765312879931312],[-78.114683269570875,-9.4758802683692114],[-78.11403224975875,-9.4750579278813856],[-78.113518281635294,-9.4744754337920156],[-78.113038581078285,-9.4740300009930163],[-78.1123875612126,-9.4736873606435097],[-78.111719412399822,-9.47349890430249],[-78.110999865265285,-9.4733275844473095],[-78.110211784112764,-9.4731562644486882],[-78.109560763820852,-9.4728478827765752],[-78.109012536941094,-9.4722996572425782],[-78.108669897646706,-9.4716486362461758],[-78.108498567662409,-9.4711346772099247],[-78.108258722718176,-9.4705179162629562],[-78.108018876785181,-9.4700724819024327],[-78.107607701904854,-9.4695927820113859],[-78.10733358904055,-9.4689760289934242],[-78.107162270205137,-9.4682564827375302],[-78.106888157422517,-9.4677082469985852],[-78.106716837069612,-9.4672285554503226],[-78.106716837434377,-9.4665775353912078],[-78.106819620588581,-9.4658237220940435],[-78.106973812072525,-9.4651213053124277],[-78.106905285004132,-9.464641603871577],[-78.106665439662137,-9.4643674912184341],[-78.106117204226081,-9.4639905827565105],[-78.105363398893985,-9.4636822020640246],[-78.104541049974728,-9.4633738219611043],[-78.103581657742524,-9.4630997085997244],[-78.102725049867146,-9.4628255949189626],[-78.102005503623971,-9.462448687924029],[-78.101217422196129,-9.4618319349506699],[-78.100360814619449,-9.4610438543780759],[-78.099949649954084,-9.4604271020667152],[-78.099641268884909,-9.4595362255592761],[-78.099538475124888,-9.4586796283646368],[-78.099572742714045,-9.4578915463914921],[-78.099692665786094,-9.4571891292739014],[-78.099658398317914,-9.4563667901141955],[-78.099761191311345,-9.4557842949205142],[-78.09982971813875,-9.4553045942180169],[-78.099726924281853,-9.4552018010435575],[-78.099658398440255,-9.4551332752137363],[-78.099110170552549,-9.4549962229584548],[-78.098424882772122,-9.4546535742661302],[-78.097876656897398,-9.4541738740119552],[-78.097362698428228,-9.4535571204064297],[-78.096951523103513,-9.4529403681694646],[-78.096608883875618,-9.4522208118910349],[-78.096334771067291,-9.4513984717583206],[-78.095957863670037,-9.4504048133200023],[-78.095580956325492,-9.4492398237724746],[-78.095272575053485,-9.448451751954698],[-78.094929935822407,-9.4478007321427402],[-78.094621554595079,-9.4472867639649944],[-78.094227519154003,-9.4466186141413662],[-78.093747818783271,-9.4459333266919963],[-78.093405180238449,-9.4451795122994593],[-78.093096798877596,-9.4447340803193107],[-78.092514304021677,-9.4440145326817255],[-78.09206887102016,-9.4435005649948689],[-78.091520644087382,-9.4429180710576315],[-78.090869623856037,-9.4421642558108037],[-78.090321397587033,-9.441616030080862],[-78.089841697436199,-9.4411705973209887],[-78.089327729044498,-9.4405881025873697],[-78.088779501662515,-9.4398685571368688],[-78.088436863062128,-9.4391832690843955],[-78.088094213816348,-9.4384637224164578],[-78.087751574574483,-9.4377441766685326],[-78.087408936170462,-9.4371616818110819],[-78.08713482323617,-9.4368190415684801],[-78.08675791563266,-9.4364078679532071],[-78.086312483084825,-9.4360652294263065],[-78.085764246547669,-9.4357911149553111],[-78.085113226454069,-9.4357225804078588],[-78.084325154194943,-9.4357225796091271],[-78.08362273738372,-9.4355683988858701],[-78.083143036330611,-9.4354313376003454],[-78.082663335602135,-9.4352600183347608],[-78.082252170352774,-9.4352257496440171],[-78.081909520553381,-9.435260017654814],[-78.081464088958668,-9.4353970698711187],[-78.080881594853295,-9.4358425132987929],[-78.080093522328227,-9.4365277913452896],[-78.07940823362965,-9.4371445533431828],[-78.078654419611979,-9.4378298324339305],[-78.077763553792067,-9.438378056580266],[-78.076701360069293,-9.4389262940045171],[-78.075913277713582,-9.439303201072148],[-78.074748297981287,-9.4397828922175613],[-78.07392595927773,-9.4401940668688091],[-78.073309197321393,-9.4405367061108247],[-78.072623918437841,-9.4410506738739279],[-78.072247011136497,-9.4413933131534407],[-78.071904361833475,-9.4418387469089318],[-78.071493197683822,-9.4422156529095087],[-78.070910703114663,-9.4423869815640398],[-78.070362477160671,-9.4426268277169729],[-78.070019838148795,-9.4428324160471764],[-78.069745714280302,-9.4428324155717966],[-78.06964293017225,-9.442798148156891],[-78.069540137038956,-9.442626827832699],[-78.069317419709208,-9.4419586776156681],[-78.068974770761329,-9.4415132358077489],[-78.06849507022244,-9.4411363292550323],[-78.067981112262132,-9.4405881028649219],[-78.067604205372035,-9.4400056182401375],[-78.067330091395476,-9.4393203299349633],[-78.067021711450948,-9.4385665157650536],[-78.066267896780417,-9.4376413821279446],[-78.065651144456609,-9.4370931563317075],[-78.064863062213959,-9.436442135241224],[-78.064006454767792,-9.435825372892916],[-78.062978527170372,-9.4351743534076906],[-78.061984868210232,-9.4346603941591578],[-78.061094003099356,-9.4341464261829326],[-78.060477240182337,-9.4335639416070975],[-78.060134600583567,-9.432912912197537],[-78.059894745699694,-9.4321591066609525],[-78.059654899900636,-9.4311997061086732],[-78.059415055106214,-9.4302060370827725],[-78.05900388019289,-9.4289725321367754],[-78.058558447120973,-9.4279788626593319],[-78.058044478697582,-9.4267110903873927],[-78.057667571556323,-9.4256146357853652],[-78.057307804367355,-9.4247409000226234],[-78.056965155212069,-9.4241584059452812],[-78.056279875991962,-9.4231304792249784],[-78.055800176276378,-9.4223423967436251],[-78.055320474662878,-9.4215543246683708],[-78.055012093664132,-9.4209375629924725],[-78.054772247622338,-9.420218016439911],[-78.054806506835433,-9.4195327276399503],[-78.054977835670101,-9.4189502437011701],[-78.055286207337147,-9.4183334820029838],[-78.055457526823616,-9.4178195225546766],[-78.055354743328621,-9.4174083481065551],[-78.054977835756475,-9.4168258540148013],[-78.054463867359587,-9.4161405762558612],[-78.054086960095631,-9.4157979267386693],[-78.053470207757854,-9.4152496999462638],[-78.052887713021391,-9.4147699989645517],[-78.052168168387013,-9.4140847205596412],[-78.051825518983293,-9.413502226153394],[-78.051277292007171,-9.4127141452162064],[-78.050523479086692,-9.4118918051158751],[-78.049803932158824,-9.4113093113064128],[-78.049101515383256,-9.4106068928180022],[-78.048724607977022,-9.4099901407179303],[-78.048416226696645,-9.4095104399620251],[-78.04786800034644,-9.4090307398760853],[-78.047114185859357,-9.4085510392745064],[-78.046394640441349,-9.408071348370795],[-78.045709351852224,-9.4076601734184582],[-78.045366712696321,-9.4074203177970759],[-78.045092600207028,-9.4073860598342023],[-78.044749961116025,-9.4074203184332461],[-78.044064673393947,-9.407625904568004],[-78.04331085844845,-9.4077972246057264],[-78.042557045092863,-9.4079685540773905],[-78.042111611154326,-9.4079685535737045],[-78.041494848636347,-9.4079685543036398],[-78.040946623423054,-9.4080713481700275],[-78.040466922391275,-9.4082769248972475],[-78.039815902351705,-9.4085510390750056],[-78.039233416600851,-9.4086538333888097],[-78.038582397040642,-9.4087566257857542],[-78.037931377432528,-9.4090650084365546],[-78.037383149712525,-9.4092363265831995],[-78.036903450003493,-9.4093048532953016],[-78.035944048375327,-9.4095447080209098],[-78.035121707976344,-9.4098188208379483],[-78.034402153116304,-9.4101614609556723],[-78.033973857832336,-9.4102471250565465],[-78.033665477890622,-9.4100072704399036],[-78.033288569648406,-9.4096303630319813],[-78.03294593058655,-9.4091164043003737],[-78.032500488635804,-9.4083283231161925],[-78.03208932327631,-9.4077115696069598],[-78.031746673661203,-9.4072661370506641],[-78.03136976741358,-9.4068206948247841],[-78.030821541033035,-9.4063410028980936],[-78.030410375617123,-9.405998355232958],[-78.029896407115217,-9.4057242413722211],[-78.029005541792543,-9.405244541000565],[-78.028354521444442,-9.4046620560440566],[-78.027909079053941,-9.4040795616799375],[-78.027326595281522,-9.4035313350181475],[-78.026607038724251,-9.4028803153144036],[-78.026093079950883,-9.4024006143533079],[-78.025544852688924,-9.4019894403638027],[-78.025202203793896,-9.4017495943439222],[-78.024825297650722,-9.4012356262002754],[-78.024688244749669,-9.4007559246547725],[-78.024448399748252,-9.4003104921027614],[-78.024174277123237,-9.4000363788633337],[-78.023763111771899,-9.3998307913364378],[-78.023283411322822,-9.3996937392882884],[-78.022666658222704,-9.3995566778237993],[-78.022118423133776,-9.3994196264310848],[-78.021570196363413,-9.3993168321823841],[-78.021056236761311,-9.3991797709005862],[-78.020542267738421,-9.3989399259894029],[-78.020131103842772,-9.398528751135089],[-78.01961713516468,-9.397877730234244],[-78.019240228005359,-9.3974665658946535],[-78.018829062712172,-9.3969868637954068],[-78.018520681571559,-9.3965414220171226],[-78.018212301403295,-9.3960959896471401],[-78.017869660696078,-9.3957190816883607],[-78.017527022109007,-9.3953764432184208],[-78.017081579600585,-9.3950680620447997],[-78.016636147183789,-9.3948967432160995],[-78.016327766133571,-9.3948967426424073],[-78.015711013121972,-9.3949310107341937],[-78.015025724663772,-9.3951023302280312],[-78.014271921280084,-9.3952393815829645],[-78.013689426934292,-9.3953764427030677],[-78.013381045561871,-9.3953421748986585],[-78.013038406158685,-9.3949310109531474],[-78.012592964298605,-9.3942457216054915],[-78.012284592735597,-9.3935261760304805],[-78.012061877245856,-9.3930293473413169],[-78.01182202123556,-9.3926181707205636],[-78.011513649853711,-9.3921042025907617],[-78.010931155429361,-9.3914531833591379],[-78.010382929447744,-9.3910420181525005],[-78.009937486371939,-9.3907336360011264],[-78.009217939956542,-9.3900483587799393],[-78.00884103344066,-9.3895686569176959],[-78.008601186756309,-9.3891232147615131],[-78.008361332928146,-9.3885407306223865],[-78.008155745245759,-9.3878897099162639],[-78.007950167383427,-9.3874100089983283],[-78.007676054221534,-9.3869988347351985],[-78.007230612421665,-9.3865191336602276],[-78.00685370496798,-9.3862792879363308],[-78.006339745933744,-9.3860051762645522],[-78.005757251191994,-9.3855940001064013],[-78.00548313822928,-9.3852513610671764],[-78.00520902496433,-9.3847716605949234],[-78.004934911068901,-9.3841549076190258],[-78.004558005252974,-9.3835038882769801],[-78.00428389100415,-9.3829899202814921],[-78.004009777815639,-9.3824759608397699],[-78.00376992329916,-9.3818934660764643],[-78.003564345226778,-9.3815850850231381],[-78.003358757562538,-9.3812767038166651],[-78.003153170302411,-9.3811396533133333],[-78.002844788747012,-9.3811396525701554],[-78.00253641764165,-9.3813109716606284],[-78.002090975219105,-9.3815850853706237],[-78.001474223308023,-9.3820305189557125],[-78.001063047824658,-9.3823388997394161],[-78.000583356728967,-9.3826472800073386],[-77.999932335778581,-9.3828871262385878],[-77.999349843063442,-9.3829899200786446],[-77.998561760989332,-9.3830927134068993],[-77.997842215252746,-9.3830584446624012],[-77.996642967707274,-9.3830584446229519],[-77.995991948405603,-9.3830927125865138],[-77.995135340287831,-9.3831955066080184],[-77.994210207428139,-9.3834353515661757],[-77.993182279337361,-9.3837094657459623],[-77.991880239088232,-9.3839835785722414],[-77.990783784832928,-9.3841206402981605],[-77.98955027068483,-9.3842234344296056],[-77.988213963187391,-9.3842577023459253],[-77.986740601847103,-9.3842919597733303],[-77.986140977613701,-9.3842405625568652],[-77.985729803545482,-9.3841377699616899],[-77.985318639129716,-9.384000717422273],[-77.984838938395754,-9.3838979241699807],[-77.984153649899341,-9.3838979237389566],[-77.983673949352735,-9.3840007174156828],[-77.982817341929547,-9.3841377697060455],[-77.982337640925451,-9.3840692440218447],[-77.981789414901854,-9.3838636563480318],[-77.981172662195846,-9.3836238106365197],[-77.980555910055557,-9.3835210167407173],[-77.979665033609209,-9.3835895431759209],[-77.978911220648129,-9.3834524919558628],[-77.978191674061918,-9.3831098433829627],[-77.977266540627738,-9.3826986769962062],[-77.976649778146438,-9.3824588227727972],[-77.975142159642758,-9.3820133890331174],[-77.974285551588991,-9.3818763366826339],[-77.972983511669838,-9.381944863731384],[-77.971647203824034,-9.3821161831674491],[-77.970636405892108,-9.3822018483142333],[-77.970019653992892,-9.3822703728252073],[-77.969025993949614,-9.382373166786504],[-77.967895272841574,-9.3827158063769165],[-77.966867344820869,-9.3831612389386017],[-77.965770882939083,-9.3837094656120126],[-77.964605903815325,-9.3843262278834789],[-77.963406656808388,-9.3849429803139621],[-77.962652842733988,-9.3853198868670269],[-77.961693440759916,-9.3856967950384274],[-77.961248008561455,-9.3857995880985996],[-77.960631246698455,-9.3857310621650072],[-77.960288607930764,-9.3856282683885119],[-77.959911699556699,-9.385388412917429],[-77.95943200026224,-9.3851143001471851],[-77.958918041258514,-9.3849772480389735],[-77.958575392452616,-9.3850800408963995],[-77.958027165315528,-9.3854569491576303],[-77.957513207418089,-9.3857310616916614],[-77.956690866743401,-9.3860051762995305],[-77.955748594735738,-9.3862621604514871],[-77.954343760661104,-9.386810385628598],[-77.953350101215904,-9.3869817053415421],[-77.952664812921114,-9.3871187578563653],[-77.951636886137251,-9.3872900867272122],[-77.950951607383757,-9.3874614073662741],[-77.950094999300376,-9.3878383127061245],[-77.949478236734208,-9.388180951622104],[-77.948587371670186,-9.3889347668991832],[-77.947902084136729,-9.3893801988448597],[-77.947182538124068,-9.389654311888032],[-77.946462990715219,-9.3899969609610334],[-77.94574343584469,-9.3904766527201851],[-77.944921096017296,-9.3909563539876384],[-77.94409875573848,-9.3912647351675513],[-77.943344942078312,-9.3916416413000228],[-77.942522601942699,-9.3922583936292963],[-77.94190583973149,-9.3926353005952894],[-77.94135761431447,-9.3928751556364727],[-77.941014974239579,-9.3928066212968186],[-77.940706593139936,-9.3926010425604733],[-77.940226893015705,-9.3923269292472398],[-77.939952779163676,-9.3922583941537745],[-77.939507345615013,-9.3922926617679821],[-77.938719275081908,-9.3926695678724315],[-77.937006058935765,-9.3932520626235263],[-77.935704019204749,-9.3936974957278565],[-77.93474461660584,-9.3940058757905174],[-77.933682421871097,-9.3943827837390064],[-77.93309993654799,-9.3946911546197782],[-77.932688762820902,-9.3948282162230008],[-77.932630041879122,-9.3948184299599529],[-77.932483175265574,-9.3947939489799204],[-77.932174804140729,-9.3943827839208698],[-77.931917201187986,-9.3940363879489155],[-77.931437501018479,-9.3934881605905822],[-77.931026334917476,-9.3932140476821644],[-77.930580902976985,-9.3929399338478401],[-77.930066933808575,-9.3927686050541102],[-77.929518708364853,-9.392802873071048],[-77.928953352300866,-9.3929227955901862],[-77.928199538310309,-9.3930255891666352],[-77.927205869214589,-9.393162650919983],[-77.926623383626136,-9.3931626512388444],[-77.925561189556646,-9.3929913208057556],[-77.924773107289241,-9.3926829502473907],[-77.924224880741605,-9.3923745693892879],[-77.92367665368171,-9.3919291366247997],[-77.923299746873411,-9.3915864974056618],[-77.922888583310908,-9.3911410549637182],[-77.922648726544196,-9.3908326827438433],[-77.92251167495894,-9.3904557767605521],[-77.92251167468315,-9.3900446014472294],[-77.922648727185944,-9.3895991686772824],[-77.922854314764777,-9.3891194679854308],[-77.922922840968994,-9.3885369740179101],[-77.922854315105127,-9.3880915407626269],[-77.922648726791778,-9.3876803656916614],[-77.922408882427931,-9.3874062526439452],[-77.921929180608089,-9.3869608201677668],[-77.921415213136953,-9.386618180630526],[-77.920935511605876,-9.3862755323912683],[-77.920421552635887,-9.3858986250043817],[-77.919804800419442,-9.3854531922056612],[-77.919119512089367,-9.3849049646147975],[-77.918605543877135,-9.3842882128283502],[-77.918262905023482,-9.3838085116957508],[-77.917937395084124,-9.3832431472433022],[-77.917491961869004,-9.3822152196804982],[-77.916977993680177,-9.3813243538934472],[-77.916566827862496,-9.3807076021003724],[-77.915950067224742,-9.3798852518615323],[-77.915504633137516,-9.3793370256558219],[-77.91512772667177,-9.3786860051528933],[-77.914887881382626,-9.3780692522899738],[-77.914682293123292,-9.3774867581973425],[-77.914271118623645,-9.3767329437952895],[-77.913894211872019,-9.3758763374338034],[-77.913671495323754,-9.3751396610182809],[-77.913465908068289,-9.3745228990774425],[-77.91322606287946,-9.3738718791117215],[-77.912883424353268,-9.3730495392663258],[-77.912643568355406,-9.3723985192363273],[-77.912575042980123,-9.3717132305580382],[-77.912643567564729,-9.3711992723944011],[-77.912883423592291,-9.3703426640681453],[-77.913191794777973,-9.3697944378011186],[-77.913465907825696,-9.3691091495606749],[-77.913671495097688,-9.3684581302247381],[-77.913740021623028,-9.3676700565680608],[-77.913740022134391,-9.3671560889788559],[-77.913637236915392,-9.3669162436498699],[-77.913397383086192,-9.3667449240062268],[-77.913054743102819,-9.3666421296288203],[-77.912506516310629,-9.3665050693565828],[-77.912095340671087,-9.3662652242333326],[-77.911958289783385,-9.3660253679313481],[-77.911958289989656,-9.3657169973728536],[-77.91206107405489,-9.3650317085655921],[-77.912163868133817,-9.3643464206490918],[-77.912129609088396,-9.3640037811800187],[-77.911958290168926,-9.363729668360234],[-77.911684166677119,-9.3634555538315443],[-77.91117020755172,-9.3631129074124697],[-77.910656240067937,-9.3626674727093135],[-77.910296471756766,-9.3622734373439016],[-77.909782503425646,-9.3616909426931443],[-77.909405596062612,-9.3611084480235274],[-77.909097224687955,-9.3603546349502302],[-77.908891636611202,-9.3597036142648786],[-77.908754575806526,-9.3588470168826277],[-77.908754575805588,-9.3580589343309697],[-77.908823110695522,-9.3571680692524311],[-77.908925905048278,-9.3563114611675182],[-77.909028689163122,-9.35562617293761],[-77.9091657496202,-9.3549751533299528],[-77.909302802586097,-9.3544269258352273],[-77.909337069592468,-9.3541185452275428],[-77.909234276345032,-9.3538786992341354],[-77.90899443104415,-9.3535703177508953],[-77.908703179257728,-9.353176281711395],[-77.908326271907455,-9.3526965817280399],[-77.907949365383033,-9.3520798300081118],[-77.907709520446289,-9.351428808929537],[-77.907435405570865,-9.3509148411171683],[-77.906989973137584,-9.3501610268178883],[-77.906338952871835,-9.3495100056701386],[-77.90579072616967,-9.3491330988313415],[-77.905311026430425,-9.3488247177094195],[-77.904420150136531,-9.3483792859335377],[-77.903495016759734,-9.3481736982525288],[-77.902946790157799,-9.3480709139813367],[-77.902535615914545,-9.3480023788947548],[-77.90181606931209,-9.3476940066379992],[-77.901267842065991,-9.3472485650234045],[-77.900856667691542,-9.3469401929389146],[-77.900514029062933,-9.3465290192369057],[-77.900085724940055,-9.3459636628468861],[-77.899571766210016,-9.3453469005654188],[-77.899023538575008,-9.3447644059315245],[-77.898441045071721,-9.3443189744280559],[-77.897687230673938,-9.3439420671940709],[-77.896933416915914,-9.3436336953227368],[-77.896213871117155,-9.3433938395745262],[-77.895151675637123,-9.343188252405179],[-77.894774768626334,-9.3431882515571179],[-77.894123748928067,-9.3432567875779373],[-77.893712573765612,-9.3434281078041526],[-77.893438461140263,-9.3434281078786707],[-77.893301409144115,-9.3431539946107662],[-77.893198615021262,-9.3428113462384044],[-77.892958770383828,-9.3420232728989419],[-77.892616121368079,-9.3414407787855378],[-77.89227348205263,-9.3410638718247938],[-77.891862306921809,-9.3406869650358271],[-77.890937174325288,-9.3401044708627978],[-77.89028615393805,-9.3396590380897546],[-77.889806452878048,-9.3392136045913148],[-77.889395287235942,-9.3386996356583829],[-77.889155431843903,-9.3380486159308642],[-77.889052639237192,-9.3375346572954996],[-77.888984111632865,-9.3367465761910875],[-77.888915586805794,-9.3361640906971335],[-77.88874426690677,-9.3356843900369988],[-77.88847015427254,-9.3353417415993096],[-77.888127506377373,-9.3350676277396261],[-77.887750597730118,-9.3347592567632827],[-77.887339433049192,-9.3343138146277553],[-77.887031051839088,-9.3339369076869811],[-77.886825464298553,-9.3335942676971086],[-77.886619877997603,-9.3330117744239445],[-77.886448558134461,-9.3324635475694695],[-77.886277238248027,-9.331949589063985],[-77.886037392263532,-9.3315726811567217],[-77.885763278886415,-9.3312643010761924],[-77.88542063085616,-9.3310587127832534],[-77.885043723337787,-9.3308873933828043],[-77.884564022806543,-9.3307846002221417],[-77.884050064381,-9.3306818060160808],[-77.883707425084708,-9.3305790116223122],[-77.883364776214421,-9.3304419608749125],[-77.882713755953091,-9.3302706410794762],[-77.882268322728905,-9.330202105325661],[-77.881891415660803,-9.3302021047105157],[-77.881445983423461,-9.330339165845821],[-77.881206127630634,-9.3304419611664553],[-77.881103333928209,-9.3304076925798736],[-77.881000549973791,-9.3302706410993892],[-77.8809320146337,-9.3300307858051692],[-77.880760694573311,-9.3296196209167377],[-77.880486581240262,-9.3293112403325082],[-77.880212467840295,-9.3291399200576919],[-77.879767036382333,-9.3290371262353329],[-77.879150273127635,-9.3290371262709328],[-77.878327932760584,-9.3291056522923537],[-77.877676913351834,-9.3291056515786188],[-77.877197211954012,-9.3289686008038899],[-77.876443399068179,-9.328900065167975],[-77.875963697603837,-9.3288658065574079],[-77.875518264865988,-9.3286602200605557],[-77.87520989384312,-9.3282833128151204],[-77.874832986264821,-9.3275980247372701],[-77.874490337396907,-9.3270155304396791],[-77.874216225099147,-9.3262274577650679],[-77.874044905150456,-9.3255079112183275],[-77.873873585445892,-9.3249939429341016],[-77.873667997944992,-9.3244799847386606],[-77.873393884788811,-9.3241030784014889],[-77.873016976982498,-9.3237604288829754],[-77.872537277174544,-9.3234177902595476],[-77.871954783367201,-9.3230408821751514],[-77.871269504968438,-9.322801037382245],[-77.870412897169615,-9.3224241301322444],[-77.869967463175428,-9.3221500167740974],[-77.869693350042027,-9.3219786878679187],[-77.869522021007086,-9.3216360488483812],[-77.869316443240606,-9.3208822343281259],[-77.869042329997853,-9.320402534009423],[-77.868733949041356,-9.319991367664473],[-77.868322773557551,-9.3196487201775646],[-77.868014402596074,-9.3194431422383399],[-77.867706022430355,-9.319271813274943],[-77.86729484663384,-9.3191347609666106],[-77.86681514592135,-9.3190319672938813],[-77.866198393637163,-9.3188949061175741],[-77.865581642272318,-9.3186550595658115],[-77.864896354091798,-9.3183124208128625],[-77.864245332636841,-9.3180040403714184],[-77.863183137799993,-9.3176271334280667],[-77.862258004593343,-9.317421545861146],[-77.86129861311241,-9.3174215461110474],[-77.860510531195175,-9.3174558143017681],[-77.859345541730846,-9.3177299271022296],[-77.858317614564157,-9.3177641947048357],[-77.857700863119547,-9.3175928657383835],[-77.857426749838808,-9.3173872875983896],[-77.857221161730251,-9.3170446387554513],[-77.856844254812785,-9.3160509789387298],[-77.856398823381099,-9.3148174646477422],[-77.856124709242579,-9.3140293918360708],[-77.856056183151196,-9.3137552696462649],[-77.855850595670375,-9.3133783720274401],[-77.855576483432543,-9.3129671975816688],[-77.855233833717776,-9.3126930838078401],[-77.854822667978624,-9.3125902909056268],[-77.854308700292606,-9.3125217642451688],[-77.853726216417499,-9.3125560225825978],[-77.852972401363147,-9.312556023233368],[-77.85240703604218,-9.3123675746932815],[-77.851995871265245,-9.3121619873904127],[-77.851653222136719,-9.3121619872164985],[-77.851344851226585,-9.3122305126479965],[-77.850693830295242,-9.3125046257649764],[-77.850042810032093,-9.3128472745943203],[-77.849186201912758,-9.3131213883088968],[-77.848329595165609,-9.3133612342306105],[-77.847301667978655,-9.3134640267568845],[-77.846513585945402,-9.313464027126825],[-77.845245813258686,-9.3133269758643671],[-77.844457732177759,-9.3131213878657615],[-77.84387524644832,-9.3127444810678632],[-77.843292752864954,-9.3123333067635699],[-77.842881576939661,-9.3119563987297891],[-77.842470412667424,-9.3117165540319675],[-77.842059237551936,-9.3116137603455496],[-77.841682330825904,-9.3116822861755839],[-77.840877119696046,-9.3120420644108588],[-77.840191841889904,-9.3122819099564254],[-77.839540821551921,-9.3123847032228451],[-77.83868421404884,-9.3124189705727041],[-77.837964657593062,-9.3124532298251204],[-77.836491298184242,-9.3124874974157006],[-77.835120731357492,-9.3124874972993954],[-77.834332649743374,-9.3123161772346066],[-77.833887216856809,-9.3120420643042383],[-77.833407517037912,-9.3116308896808295],[-77.83279076295986,-9.3109113427026085],[-77.832208269992364,-9.3102603229657941],[-77.831454455019369,-9.3095407767224749],[-77.830803434572218,-9.3088554882685699],[-77.830049621360232,-9.3080674067425146],[-77.829484266333381,-9.3074335245517954],[-77.828353544355394,-9.3063370629159259],[-77.82732561656465,-9.3051720842981052],[-77.826469009963006,-9.304144156304412],[-77.825749463663342,-9.3032190228217875],[-77.825098442549958,-9.3023624157919169],[-77.824653000624878,-9.3016771274426446],[-77.824036247922905,-9.300923313200256],[-77.823419495769883,-9.3003408293986105],[-77.823008320787196,-9.2999981800426443],[-77.822631413651564,-9.2997240661995981],[-77.822117455042545,-9.2995184786317129],[-77.82174054814304,-9.2992786330682833],[-77.821158054450549,-9.298559086666593],[-77.820609828194705,-9.2977710048646003],[-77.820301446674662,-9.2971885124026308],[-77.820164393623372,-9.2965374909027219],[-77.82019865234976,-9.2960920582234738],[-77.820404240036126,-9.2955095641982339],[-77.820575560164272,-9.2949270791158796],[-77.820541292194648,-9.2942417913279112],[-77.820404240408649,-9.2936250383496404],[-77.820164394285513,-9.2929397496106532],[-77.819958806658718,-9.2925285763556378],[-77.819616159008561,-9.2922202040992978],[-77.819136467737849,-9.2919118233076468],[-77.81879381903471,-9.2917747621145637],[-77.818279860230987,-9.2917747622873357],[-77.817731633324271,-9.2917747621073232],[-77.816875024698561,-9.2919460906834956],[-77.815847098401647,-9.2921174111510663],[-77.814647850944354,-9.2922202042252398],[-77.813928296077208,-9.2921859370794397],[-77.812831842205725,-9.2922202044097464],[-77.811324214029682,-9.2924257817227947],[-77.810330555061682,-9.2926313692848002],[-77.809679534407067,-9.2927684312714245],[-77.808959988594864,-9.293076802175996],[-77.808446019831337,-9.2932823895636822],[-77.807966320245626,-9.2932138631436612],[-77.807520885586683,-9.2928712245762064],[-77.807178247112958,-9.2924943180017205],[-77.806904134245329,-9.292014616692903],[-77.806595753234504,-9.2913635966966019],[-77.806424434061228,-9.2906783090974336],[-77.80625310358532,-9.2897874426769942],[-77.805978990844537,-9.2889308351657309],[-77.805807670948823,-9.2885539281266354],[-77.805499299961639,-9.2882455473555563],[-77.804985331426877,-9.2879371658673087],[-77.804604154016204,-9.2876671711022851]]]},"properties":{"OBJECTID":932,"CODIGO":"1375962","NIVEL":7,"NIVEL7":"1375962","NOMB_UH_N7":"Sechin","Nombre_UH":"Cuenca Sechin","AREA_KM2":729.32740000000001,"AREA_FINAL":725.45669999999996}}]}