{"type":"FeatureCollection","crs":{"type":"name","properties":{"name":"EPSG:4326"}},"features":[{"type":"Feature","id":926,"geometry":{"type":"Polygon","coordinates":[[[-77.932630041879122,-9.3948184299599529],[-77.932688762820902,-9.3948282162230008],[-77.93309993654799,-9.3946911546197782],[-77.933682421871097,-9.3943827837390064],[-77.93474461660584,-9.3940058757905174],[-77.935704019204749,-9.3936974957278565],[-77.937006058935765,-9.3932520626235263],[-77.938719275081908,-9.3926695678724315],[-77.939507345615013,-9.3922926617679821],[-77.939952779163676,-9.3922583941537745],[-77.940226893015705,-9.3923269292472398],[-77.940706593139936,-9.3926010425604733],[-77.941014974239579,-9.3928066212968186],[-77.94135761431447,-9.3928751556364727],[-77.94190583973149,-9.3926353005952894],[-77.942522601942699,-9.3922583936292963],[-77.943344942078312,-9.3916416413000228],[-77.94409875573848,-9.3912647351675513],[-77.944921096017296,-9.3909563539876384],[-77.94574343584469,-9.3904766527201851],[-77.946462990715219,-9.3899969609610334],[-77.947182538124068,-9.389654311888032],[-77.947902084136729,-9.3893801988448597],[-77.948587371670186,-9.3889347668991832],[-77.949478236734208,-9.388180951622104],[-77.950094999300376,-9.3878383127061245],[-77.950951607383757,-9.3874614073662741],[-77.951636886137251,-9.3872900867272122],[-77.952664812921114,-9.3871187578563653],[-77.953350101215904,-9.3869817053415421],[-77.954343760661104,-9.386810385628598],[-77.955748594735738,-9.3862621604514871],[-77.956690866743401,-9.3860051762995305],[-77.957513207418089,-9.3857310616916614],[-77.958027165315528,-9.3854569491576303],[-77.958575392452616,-9.3850800408963995],[-77.958918041258514,-9.3849772480389735],[-77.95943200026224,-9.3851143001471851],[-77.959911699556699,-9.385388412917429],[-77.960288607930764,-9.3856282683885119],[-77.960631246698455,-9.3857310621650072],[-77.961248008561455,-9.3857995880985996],[-77.961693440759916,-9.3856967950384274],[-77.962652842733988,-9.3853198868670269],[-77.963406656808388,-9.3849429803139621],[-77.964605903815325,-9.3843262278834789],[-77.965770882939083,-9.3837094656120126],[-77.966867344820869,-9.3831612389386017],[-77.967895272841574,-9.3827158063769165],[-77.969025993949614,-9.382373166786504],[-77.970019653992892,-9.3822703728252073],[-77.970636405892108,-9.3822018483142333],[-77.971647203824034,-9.3821161831674491],[-77.972983511669838,-9.381944863731384],[-77.974285551588991,-9.3818763366826339],[-77.975142159642758,-9.3820133890331174],[-77.976649778146438,-9.3824588227727972],[-77.977266540627738,-9.3826986769962062],[-77.978191674061918,-9.3831098433829627],[-77.978911220648129,-9.3834524919558628],[-77.979665033609209,-9.3835895431759209],[-77.980555910055557,-9.3835210167407173],[-77.981172662195846,-9.3836238106365197],[-77.981789414901854,-9.3838636563480318],[-77.982337640925451,-9.3840692440218447],[-77.982817341929547,-9.3841377697060455],[-77.983673949352735,-9.3840007174156828],[-77.984153649899341,-9.3838979237389566],[-77.984838938395754,-9.3838979241699807],[-77.985318639129716,-9.384000717422273],[-77.985729803545482,-9.3841377699616899],[-77.986140977613701,-9.3842405625568652],[-77.986740601847103,-9.3842919597733303],[-77.988213963187391,-9.3842577023459253],[-77.98955027068483,-9.3842234344296056],[-77.990783784832928,-9.3841206402981605],[-77.991880239088232,-9.3839835785722414],[-77.993182279337361,-9.3837094657459623],[-77.994210207428139,-9.3834353515661757],[-77.995135340287831,-9.3831955066080184],[-77.995991948405603,-9.3830927125865138],[-77.996642967707274,-9.3830584446229519],[-77.997842215252746,-9.3830584446624012],[-77.998561760989332,-9.3830927134068993],[-77.999349843063442,-9.3829899200786446],[-77.999932335778581,-9.3828871262385878],[-78.000583356728967,-9.3826472800073386],[-78.001063047824658,-9.3823388997394161],[-78.001474223308023,-9.3820305189557125],[-78.002090975219105,-9.3815850853706237],[-78.00253641764165,-9.3813109716606284],[-78.002844788747012,-9.3811396525701554],[-78.003153170302411,-9.3811396533133333],[-78.003358757562538,-9.3812767038166651],[-78.003564345226778,-9.3815850850231381],[-78.00376992329916,-9.3818934660764643],[-78.004009777815639,-9.3824759608397699],[-78.00428389100415,-9.3829899202814921],[-78.004558005252974,-9.3835038882769801],[-78.004934911068901,-9.3841549076190258],[-78.00520902496433,-9.3847716605949234],[-78.00548313822928,-9.3852513610671764],[-78.005757251191994,-9.3855940001064013],[-78.006339745933744,-9.3860051762645522],[-78.00685370496798,-9.3862792879363308],[-78.007230612421665,-9.3865191336602276],[-78.007676054221534,-9.3869988347351985],[-78.007950167383427,-9.3874100089983283],[-78.008155745245759,-9.3878897099162639],[-78.008361332928146,-9.3885407306223865],[-78.008601186756309,-9.3891232147615131],[-78.00884103344066,-9.3895686569176959],[-78.009217939956542,-9.3900483587799393],[-78.009937486371939,-9.3907336360011264],[-78.010382929447744,-9.3910420181525005],[-78.010931155429361,-9.3914531833591379],[-78.011513649853711,-9.3921042025907617],[-78.01182202123556,-9.3926181707205636],[-78.012061877245856,-9.3930293473413169],[-78.012284592735597,-9.3935261760304805],[-78.012592964298605,-9.3942457216054915],[-78.013038406158685,-9.3949310109531474],[-78.013381045561871,-9.3953421748986585],[-78.013689426934292,-9.3953764427030677],[-78.014271921280084,-9.3952393815829645],[-78.015025724663772,-9.3951023302280312],[-78.015711013121972,-9.3949310107341937],[-78.016327766133571,-9.3948967426424073],[-78.016636147183789,-9.3948967432160995],[-78.017081579600585,-9.3950680620447997],[-78.017527022109007,-9.3953764432184208],[-78.017869660696078,-9.3957190816883607],[-78.018212301403295,-9.3960959896471401],[-78.018520681571559,-9.3965414220171226],[-78.018829062712172,-9.3969868637954068],[-78.019240228005359,-9.3974665658946535],[-78.01961713516468,-9.397877730234244],[-78.020131103842772,-9.398528751135089],[-78.020542267738421,-9.3989399259894029],[-78.021056236761311,-9.3991797709005862],[-78.021570196363413,-9.3993168321823841],[-78.022118423133776,-9.3994196264310848],[-78.022666658222704,-9.3995566778237993],[-78.023283411322822,-9.3996937392882884],[-78.023763111771899,-9.3998307913364378],[-78.024174277123237,-9.4000363788633337],[-78.024448399748252,-9.4003104921027614],[-78.024688244749669,-9.4007559246547725],[-78.024825297650722,-9.4012356262002754],[-78.025202203793896,-9.4017495943439222],[-78.025544852688924,-9.4019894403638027],[-78.026093079950883,-9.4024006143533079],[-78.026607038724251,-9.4028803153144036],[-78.027326595281522,-9.4035313350181475],[-78.027909079053941,-9.4040795616799375],[-78.028354521444442,-9.4046620560440566],[-78.029005541792543,-9.405244541000565],[-78.029896407115217,-9.4057242413722211],[-78.030410375617123,-9.405998355232958],[-78.030821541033035,-9.4063410028980936],[-78.03136976741358,-9.4068206948247841],[-78.031746673661203,-9.4072661370506641],[-78.03208932327631,-9.4077115696069598],[-78.032500488635804,-9.4083283231161925],[-78.03294593058655,-9.4091164043003737],[-78.033288569648406,-9.4096303630319813],[-78.033665477890622,-9.4100072704399036],[-78.033973857832336,-9.4102471250565465],[-78.034402153116304,-9.4101614609556723],[-78.035121707976344,-9.4098188208379483],[-78.035944048375327,-9.4095447080209098],[-78.036903450003493,-9.4093048532953016],[-78.037383149712525,-9.4092363265831995],[-78.037931377432528,-9.4090650084365546],[-78.038582397040642,-9.4087566257857542],[-78.039233416600851,-9.4086538333888097],[-78.039815902351705,-9.4085510390750056],[-78.040466922391275,-9.4082769248972475],[-78.040946623423054,-9.4080713481700275],[-78.041494848636347,-9.4079685543036398],[-78.042111611154326,-9.4079685535737045],[-78.042557045092863,-9.4079685540773905],[-78.04331085844845,-9.4077972246057264],[-78.044064673393947,-9.407625904568004],[-78.044749961116025,-9.4074203184332461],[-78.045092600207028,-9.4073860598342023],[-78.045366712696321,-9.4074203177970759],[-78.045709351852224,-9.4076601734184582],[-78.046394640441349,-9.408071348370795],[-78.047114185859357,-9.4085510392745064],[-78.04786800034644,-9.4090307398760853],[-78.048416226696645,-9.4095104399620251],[-78.048724607977022,-9.4099901407179303],[-78.049101515383256,-9.4106068928180022],[-78.049803932158824,-9.4113093113064128],[-78.050523479086692,-9.4118918051158751],[-78.051277292007171,-9.4127141452162064],[-78.051825518983293,-9.413502226153394],[-78.052168168387013,-9.4140847205596412],[-78.052887713021391,-9.4147699989645517],[-78.053470207757854,-9.4152496999462638],[-78.054086960095631,-9.4157979267386693],[-78.054463867359587,-9.4161405762558612],[-78.054977835756475,-9.4168258540148013],[-78.055354743328621,-9.4174083481065551],[-78.055457526823616,-9.4178195225546766],[-78.055286207337147,-9.4183334820029838],[-78.054977835670101,-9.4189502437011701],[-78.054806506835433,-9.4195327276399503],[-78.054772247622338,-9.420218016439911],[-78.055012093664132,-9.4209375629924725],[-78.055320474662878,-9.4215543246683708],[-78.055800176276378,-9.4223423967436251],[-78.056279875991962,-9.4231304792249784],[-78.056965155212069,-9.4241584059452812],[-78.057307804367355,-9.4247409000226234],[-78.057667571556323,-9.4256146357853652],[-78.058044478697582,-9.4267110903873927],[-78.058558447120973,-9.4279788626593319],[-78.05900388019289,-9.4289725321367754],[-78.059415055106214,-9.4302060370827725],[-78.059654899900636,-9.4311997061086732],[-78.059894745699694,-9.4321591066609525],[-78.060134600583567,-9.432912912197537],[-78.060477240182337,-9.4335639416070975],[-78.061094003099356,-9.4341464261829326],[-78.061984868210232,-9.4346603941591578],[-78.062978527170372,-9.4351743534076906],[-78.064006454767792,-9.435825372892916],[-78.064863062213959,-9.436442135241224],[-78.065651144456609,-9.4370931563317075],[-78.066267896780417,-9.4376413821279446],[-78.067021711450948,-9.4385665157650536],[-78.067330091395476,-9.4393203299349633],[-78.067604205372035,-9.4400056182401375],[-78.067981112262132,-9.4405881028649219],[-78.06849507022244,-9.4411363292550323],[-78.068974770761329,-9.4415132358077489],[-78.069317419709208,-9.4419586776156681],[-78.069540137038956,-9.442626827832699],[-78.06964293017225,-9.442798148156891],[-78.069745714280302,-9.4428324155717966],[-78.070019838148795,-9.4428324160471764],[-78.070362477160671,-9.4426268277169729],[-78.070910703114663,-9.4423869815640398],[-78.071493197683822,-9.4422156529095087],[-78.071904361833475,-9.4418387469089318],[-78.072247011136497,-9.4413933131534407],[-78.072623918437841,-9.4410506738739279],[-78.073309197321393,-9.4405367061108247],[-78.07392595927773,-9.4401940668688091],[-78.074748297981287,-9.4397828922175613],[-78.075913277713582,-9.439303201072148],[-78.076701360069293,-9.4389262940045171],[-78.077763553792067,-9.438378056580266],[-78.078654419611979,-9.4378298324339305],[-78.07940823362965,-9.4371445533431828],[-78.080093522328227,-9.4365277913452896],[-78.080881594853295,-9.4358425132987929],[-78.081464088958668,-9.4353970698711187],[-78.081909520553381,-9.435260017654814],[-78.082252170352774,-9.4352257496440171],[-78.082663335602135,-9.4352600183347608],[-78.083143036330611,-9.4354313376003454],[-78.08362273738372,-9.4355683988858701],[-78.084325154194943,-9.4357225796091271],[-78.085113226454069,-9.4357225804078588],[-78.085764246547669,-9.4357911149553111],[-78.086312483084825,-9.4360652294263065],[-78.08675791563266,-9.4364078679532071],[-78.08713482323617,-9.4368190415684801],[-78.087408936170462,-9.4371616818110819],[-78.087751574574483,-9.4377441766685326],[-78.088094213816348,-9.4384637224164578],[-78.088436863062128,-9.4391832690843955],[-78.088779501662515,-9.4398685571368688],[-78.089327729044498,-9.4405881025873697],[-78.089841697436199,-9.4411705973209887],[-78.090321397587033,-9.441616030080862],[-78.090869623856037,-9.4421642558108037],[-78.091520644087382,-9.4429180710576315],[-78.09206887102016,-9.4435005649948689],[-78.092514304021677,-9.4440145326817255],[-78.093096798877596,-9.4447340803193107],[-78.093405180238449,-9.4451795122994593],[-78.093747818783271,-9.4459333266919963],[-78.094227519154003,-9.4466186141413662],[-78.094621554595079,-9.4472867639649944],[-78.094929935822407,-9.4478007321427402],[-78.095272575053485,-9.448451751954698],[-78.095580956325492,-9.4492398237724746],[-78.095957863670037,-9.4504048133200023],[-78.096334771067291,-9.4513984717583206],[-78.096608883875618,-9.4522208118910349],[-78.096951523103513,-9.4529403681694646],[-78.097362698428228,-9.4535571204064297],[-78.097876656897398,-9.4541738740119552],[-78.098424882772122,-9.4546535742661302],[-78.099110170552549,-9.4549962229584548],[-78.099658398440255,-9.4551332752137363],[-78.099726924281853,-9.4552018010435575],[-78.09982971813875,-9.4553045942180169],[-78.099761191311345,-9.4557842949205142],[-78.099658398317914,-9.4563667901141955],[-78.099692665786094,-9.4571891292739014],[-78.099572742714045,-9.4578915463914921],[-78.099538475124888,-9.4586796283646368],[-78.099641268884909,-9.4595362255592761],[-78.099949649954084,-9.4604271020667152],[-78.100360814619449,-9.4610438543780759],[-78.101217422196129,-9.4618319349506699],[-78.102005503623971,-9.462448687924029],[-78.102725049867146,-9.4628255949189626],[-78.103581657742524,-9.4630997085997244],[-78.104541049974728,-9.4633738219611043],[-78.105363398893985,-9.4636822020640246],[-78.106117204226081,-9.4639905827565105],[-78.106665439662137,-9.4643674912184341],[-78.106905285004132,-9.464641603871577],[-78.106973812072525,-9.4651213053124277],[-78.106819620588581,-9.4658237220940435],[-78.106716837434377,-9.4665775353912078],[-78.106716837069612,-9.4672285554503226],[-78.106888157422517,-9.4677082469985852],[-78.107162270205137,-9.4682564827375302],[-78.10733358904055,-9.4689760289934242],[-78.107607701904854,-9.4695927820113859],[-78.108018876785181,-9.4700724819024327],[-78.108258722718176,-9.4705179162629562],[-78.108498567662409,-9.4711346772099247],[-78.108669897646706,-9.4716486362461758],[-78.109012536941094,-9.4722996572425782],[-78.109560763820852,-9.4728478827765752],[-78.110211784112764,-9.4731562644486882],[-78.110999865265285,-9.4733275844473095],[-78.111719412399822,-9.47349890430249],[-78.1123875612126,-9.4736873606435097],[-78.113038581078285,-9.4740300009930163],[-78.113518281635294,-9.4744754337920156],[-78.11403224975875,-9.4750579278813856],[-78.114683269570875,-9.4758802683692114],[-78.115471343164941,-9.4765312879931312],[-78.116156630730387,-9.4769081953161489],[-78.116944712380288,-9.4772508437139624],[-78.117767052417847,-9.4775934828355055],[-78.118315279212439,-9.4779361232648398],[-78.118829238284064,-9.478415822708687],[-78.119514525945917,-9.4791011109299319],[-78.120439659449957,-9.4799919769417134],[-78.121416190100987,-9.4807286619525417],[-78.122409858639031,-9.4813454139899331],[-78.123369249871971,-9.4817908571025615],[-78.124499970652337,-9.4821677638274142],[-78.125288052194023,-9.4824076086350253],[-78.125836278701357,-9.4826817226377536],[-78.126418774067844,-9.4830928965919465],[-78.126932732879922,-9.4836753823910911],[-78.127549485015422,-9.4843264015788336],[-78.128063453670123,-9.4848746386233724],[-78.128645947918514,-9.4853885983578277],[-78.129434019959561,-9.4859025664459597],[-78.129810926910636,-9.4861424110267123],[-78.130718930754412,-9.4867077670562363],[-78.131575539017291,-9.487118942363626],[-78.13277478557157,-9.4874958479158842],[-78.134282414021015,-9.4878384870550931],[-78.135207547344123,-9.4878042303540884],[-78.135961361362149,-9.4878727546213781],[-78.136543855094558,-9.4880783433568148],[-78.137194876117249,-9.488523776278285],[-78.137640309316026,-9.4888321561974163],[-78.138051482774358,-9.4890720022234198],[-78.138633967901171,-9.4893803833956127],[-78.139045143308877,-9.4895174345596924],[-78.13938778241382,-9.4897230231970084],[-78.139798957403954,-9.4901341983058796],[-78.140141595560024,-9.4905453622083993],[-78.140518502555338,-9.4910935885806822],[-78.140963935867291,-9.4916075582812045],[-78.14127231697168,-9.4919844646244531],[-78.141717750052848,-9.4924298976527304],[-78.142026130903147,-9.492943866416292],[-78.142300243661126,-9.4934578247355681],[-78.14271141867907,-9.4940403189306846],[-78.143191109968924,-9.4946228138089896],[-78.143670811229299,-9.4950682458482323],[-78.144184778628329,-9.4953080919642527],[-78.144801531831177,-9.4954794212485361],[-78.145521088348843,-9.4955822050666239],[-78.146617541125408,-9.4955479468107793],[-78.147576941642555,-9.4953423587710972],[-78.148193695061877,-9.495136772550449],[-78.148536334312084,-9.4950682457133091],[-78.148878981730533,-9.4950339780911701],[-78.149290147685818,-9.4950682459253777],[-78.149701322612714,-9.4952738344368353],[-78.150112487333814,-9.4955136792325217],[-78.15062645565655,-9.4958563180676379],[-78.151277476016375,-9.4960961742800603],[-78.15168864193376,-9.4961989668224636],[-78.152065548323264,-9.496370286930949],[-78.152613783789775,-9.4967129261021803],[-78.153230535748435,-9.4970555752893393],[-78.154001479598335,-9.4977579911638816],[-78.154652499925703,-9.4982376829525332],[-78.154995148859726,-9.4986145897797361],[-78.155406313733778,-9.499060032682765],[-78.155851746688171,-9.4994369390993629],[-78.156434242245609,-9.4998138462597108],[-78.156708355172626,-9.4999851659906049],[-78.157085262446685,-9.5000536924434229],[-78.157427910640365,-9.5000536915699936],[-78.157941870086788,-9.4999508983174987],[-78.158627158137833,-9.4997453110584118],[-78.159141115613949,-9.4995397331223348],[-78.159552291055462,-9.4994369389029547],[-78.160031991268312,-9.4993684041406024],[-78.160580217936158,-9.4993684039720296],[-78.161094177105682,-9.499539732616741],[-78.161779465324358,-9.4998138460789132],[-78.162704598031254,-9.4999508975507094],[-78.163287092544905,-9.4999851659256578],[-78.164280752717417,-9.5000194237550133],[-78.164897513627835,-9.5001564858206518],[-78.165411472711867,-9.500259278976932],[-78.166028224600339,-9.5002935373393953],[-78.166439400849853,-9.5001907533976286],[-78.166713513622895,-9.4999508975689402],[-78.166884833277194,-9.4997453113210604],[-78.167021894262888,-9.4995739920838584],[-78.167141817075986,-9.4991799550184624],[-78.167278878721262,-9.4983233482905245],[-78.167587249564008,-9.4975695335988402],[-78.168169745249074,-9.4968499872778338],[-78.168855032867526,-9.4962332247881562],[-78.169266197971965,-9.4957535341301895],[-78.169540312421702,-9.4950682456833881],[-78.169780166229373,-9.4944514941925462],[-78.170294124622785,-9.4937319384546104],[-78.170842352002623,-9.4931151862433989],[-78.171664701110899,-9.4921557849535123],[-78.172018904836179,-9.4917573073961474],[-78.172032659438671,-9.4917337192726041],[-78.172203978159033,-9.4913910800656094],[-78.172375298272058,-9.4909456480567194],[-78.172478090813343,-9.4904659468035675],[-78.172375297547205,-9.4894380201595663],[-78.172135451795427,-9.4887527310100275],[-78.172066926189004,-9.4881702365836116],[-78.172169720292786,-9.4875534837783526],[-78.172341039720962,-9.4869024639513384],[-78.172752203868271,-9.4860458572361601],[-78.173129111783808,-9.485120723074056],[-78.173437492350914,-9.4842641159785668],[-78.173745872776976,-9.4836816211527442],[-78.17419130673251,-9.4830306010664795],[-78.174910852031914,-9.4820712090285895],[-78.175356295861107,-9.4814201886809926],[-78.17559614107391,-9.4809062209516419],[-78.175596140573006,-9.4804950462601454],[-78.175459079199413,-9.4799468191373943],[-78.175287759779422,-9.4794328605883305],[-78.175116439912287,-9.4786105212818192],[-78.175219233208395,-9.4774112641786363],[-78.175510475664709,-9.4767088567812401],[-78.176092970882806,-9.476194888146221],[-78.176709732929339,-9.4759207752084222],[-78.177292218174699,-9.4756809295530253],[-78.177669124131839,-9.4754753423814488],[-78.177908979950232,-9.4752012285832219],[-78.178217351025026,-9.47465300237279],[-78.178491464385047,-9.473933445972623],[-78.178628526355311,-9.4731796329295275],[-78.178697051210207,-9.4728369933103043],[-78.178971165187562,-9.4722544981155412],[-78.179279545853774,-9.471877591673783],[-78.179759247420222,-9.4714664268077602],[-78.180341740718902,-9.4711580464046108],[-78.181198339347816,-9.470952457732146],[-78.181780833862845,-9.4710552517146382],[-78.182466121052158,-9.4712950970243579],[-78.183219935042587,-9.4716034781367782],[-78.183905213852228,-9.4718775920813325],[-78.18435065614743,-9.4721859728031959],[-78.184796088913942,-9.4723915610793288],[-78.185172996294455,-9.4724600857643271],[-78.186235190754857,-9.4722887656736408],[-78.186886210762694,-9.4721517047466044],[-78.187537230554142,-9.4720489120042863],[-78.188188252417177,-9.472083178748866],[-78.188770736865408,-9.4722887656427073],[-78.189353230637906,-9.472597147042114],[-78.189867198623347,-9.472905518979573],[-78.190483951180099,-9.4731111062640814],[-78.19110070362305,-9.4731796329027311],[-78.191785992986965,-9.473179633259365],[-78.19271112597211,-9.4733166935871456],[-78.193413542712165,-9.4734023489448536],[-78.193756181581563,-9.4733680897056303],[-78.194304417969761,-9.4730939777109047],[-78.194749851188874,-9.4727855972071797],[-78.195229551828533,-9.4723744210708603],[-78.196017623979742,-9.4717919368543413],[-78.196805705639193,-9.4707982676618396],[-78.197182613209009,-9.4701472481307452],[-78.197422458402059,-9.4695647627587078],[-78.197765107214479,-9.4689137326425854],[-78.198176272001419,-9.4683997742717789],[-78.198381859774599,-9.4681599276399986],[-78.19845038519361,-9.4680913930246149],[-78.198587446404787,-9.468057134866342],[-78.198964353964485,-9.4681256606418103],[-78.199478312603148,-9.4684340423153674],[-78.200026539228233,-9.4689822691587207],[-78.200471981978112,-9.4693934341860917],[-78.201088733860729,-9.4698046092467241],[-78.201671228688895,-9.4700787216909941],[-78.202116660763949,-9.4703185677459878],[-78.202630620160491,-9.4705241536781752],[-78.203315907962065,-9.4706269492070927],[-78.204052593027413,-9.4705412938388562],[-78.204737872005609,-9.4705070261986393],[-78.205114779203626,-9.470541294359812],[-78.205525953370369,-9.4707126131335446],[-78.205868592424324,-9.4708154060945215],[-78.206485354864981,-9.4708839328536243],[-78.206965056429297,-9.4709181999631689],[-78.207650333735742,-9.4709524582386369],[-78.208438415903117,-9.4710895186149813],[-78.209106564413233,-9.4714150300703164],[-78.209346419861177,-9.4715520817290759],[-78.209483471943003,-9.4716206176658861],[-78.209654790573836,-9.4716891430281756],[-78.209791853341983,-9.4716891425582048],[-78.209894646619745,-9.47165487593964],[-78.210203018149059,-9.4715520823391657],[-78.210579925115113,-9.4714150304418343],[-78.211025367170777,-9.47124371015585],[-78.211333738814105,-9.4711751743224291],[-78.211573594277056,-9.4711751738189704],[-78.21177917138219,-9.4711751740230028],[-78.212053294867928,-9.471243710224817],[-78.212258871638184,-9.4714835558577342],[-78.212498726853482,-9.4718604632394001],[-78.212670046743085,-9.4723058963012612],[-78.212772839961389,-9.4727855966185182],[-78.212909892896022,-9.4730597097625573],[-78.213149748361033,-9.473299564999131],[-78.213458118815666,-9.4734023490146058],[-78.214280467859197,-9.4733338229730801],[-78.215137076046759,-9.4731282359439728],[-78.215651034838771,-9.4730597099209408],[-78.216027942350152,-9.4730254419246176],[-78.216507642723599,-9.4730939783083166],[-78.216918808045207,-9.4732995645571396],[-78.217398508686486,-9.4735736776083659],[-78.217741157602106,-9.4739505848372811],[-78.218186590299666,-9.4742246977518203],[-78.218632023391493,-9.4744645443313971],[-78.219214518348778,-9.474635863593468],[-78.219968330811312,-9.4747729251276827],[-78.220859197353775,-9.4748757178352925],[-78.222058444122467,-9.4750812957349915],[-78.222658067785744,-9.4751669610976883],[-78.223480416676395,-9.4753725491246481],[-78.224302756673126,-9.4756123940000681],[-78.224782458443158,-9.4758179813184888],[-78.225159364565968,-9.4760920942709337],[-78.225570528877171,-9.4765032692487026],[-78.225913178145191,-9.4768801772181721],[-78.226153023731115,-9.4772570827372125],[-78.226358610833699,-9.4774969291306856],[-78.226632725220838,-9.477565454988115],[-78.227043899031486,-9.4774969287382316],[-78.227592126314519,-9.4773256090521727],[-78.228071825736052,-9.4772228160704781],[-78.228517259026049,-9.4771200224077567],[-78.228996960064194,-9.477085754192224],[-78.229339599776864,-9.4770857539993418],[-78.229716505584207,-9.4772570829398575],[-78.230059145256703,-9.4775654548815762],[-78.230299000659613,-9.477942361245324],[-78.230658769133385,-9.4784391918147293],[-78.231275531005011,-9.4787818402265422],[-78.231652437886893,-9.4788503663028987],[-78.232406251957798,-9.4789188923358711],[-78.232920210765656,-9.4789188918825626],[-78.233639756970192,-9.4789874281523563],[-78.234290777207093,-9.4791244803212571],[-78.234976064590043,-9.479535654116825],[-78.235524292413714,-9.4800838813741954],[-78.235901199318391,-9.4805978403844495],[-78.236106785909271,-9.4811118077832681],[-78.236209579575402,-9.4817285603102857],[-78.236346631545715,-9.482173992582517],[-78.236757807407628,-9.4825851682590887],[-78.237237506646991,-9.4827222291949571],[-78.237802863376459,-9.4827393593515712],[-78.238659471087374,-9.4825337711373106],[-78.240475479235101,-9.4819855445562364],[-78.241229292694385,-9.4817456989565496],[-78.242462798277188,-9.4812317313228913],[-78.243559261231525,-9.4806492359076895],[-78.24451865306321,-9.4799982160588065],[-78.245649373699564,-9.4793471956002957],[-78.246197601338253,-9.4791073501052789],[-78.246574506611722,-9.478970289272743],[-78.247225527227471,-9.478867494970622],[-78.247602434034832,-9.4789017634196622],[-78.247773763374298,-9.4790045570780563],[-78.247910814645962,-9.4792101436286433],[-78.248047876307041,-9.4794842573242164],[-78.24821919580549,-9.4798954228341685],[-78.248493309567493,-9.4804779168642526],[-78.24880169074703,-9.4809233492350167],[-78.249384175382843,-9.4815058437024433],[-78.249932402293595,-9.4819512769513565],[-78.250377844242465,-9.482328183673312],[-78.250720483385706,-9.4825680392648266],[-78.251302977669141,-9.482876410884705],[-78.252125317586362,-9.4831847916900109],[-78.252536493003959,-9.4832875849421008],[-78.252913390419607,-9.4832875851759795],[-78.253598678162987,-9.4832533176798712],[-78.254146905166579,-9.4831847922048738],[-78.25503778001594,-9.4831162646252185],[-78.255774456201351,-9.4829963431811386],[-78.256733857254687,-9.4828592810893664],[-78.257796051619579,-9.4827222285906139],[-78.258549865957448,-9.4826879613747206],[-78.259132350783872,-9.4827564879954771],[-78.260091752070778,-9.4829963431883542],[-78.260879832986433,-9.4831676615968714],[-78.261393792114106,-9.4834075075774518],[-78.262079080162906,-9.4839214756611536],[-78.26252451272974,-9.4842983843171851],[-78.263244059202407,-9.4847438155854267],[-78.263895079674597,-9.4850864552687373],[-78.264683161174005,-9.485463363313249],[-78.265402707605674,-9.485737475579981],[-78.2665334280819,-9.486114382814133],[-78.267527096892152,-9.4863199701519232],[-78.268383694732009,-9.4864912897374118],[-78.269034715559769,-9.4866283508584655],[-78.269847678026679,-9.4868361830338053],[-78.270314757592004,-9.4878247352210305],[-78.270623128815799,-9.4886813326964976],[-78.271068571653458,-9.4901889609938461],[-78.271514004958192,-9.4917993815600106],[-78.27175385001037,-9.4932384847547429],[-78.271925170269,-9.494746103238727],[-78.272062231262581,-9.4967676987013849],[-78.272096498162369,-9.4976928329651162],[-78.272096497895774,-9.4985836992129933],[-78.272233550550936,-9.4992347194018532],[-78.272439137681062,-9.4995773682390574],[-78.272644725433921,-9.5000228008463292],[-78.272850312911743,-9.500433974825274],[-78.273055890575748,-9.5011877796733746],[-78.273158683950484,-9.5018730681440946],[-78.273021632573105,-9.5029695207211926],[-78.272884570613812,-9.5039289231365185],[-78.272644724828851,-9.5048540555637793],[-78.272490535231427,-9.5053166279011894],[-78.272456266727957,-9.5060019062887573],[-78.272353472880255,-9.5066186683583123],[-78.272113627691851,-9.5071668946066001],[-78.272045102424556,-9.5076465948164142],[-78.272147896206562,-9.508092028097261],[-78.27252480185598,-9.5086059958752749],[-78.273038760983439,-9.5091199553112169],[-78.273518462029926,-9.5096681815816506],[-78.273929627450471,-9.5101821511718434],[-78.274717709381989,-9.5109359637984561],[-78.275351599778261,-9.511501320229101],[-78.276002620405777,-9.5121180723964578],[-78.276653640675931,-9.5128718860229284],[-78.2769620118288,-9.5132830612955352],[-78.277030547980829,-9.5136942361855485],[-78.276756433891677,-9.5145508339376956],[-78.276276732967148,-9.5156130286743981],[-78.275899827130473,-9.5162640490218635],[-78.275694238696687,-9.5168465429947364],[-78.275694238615543,-9.5173947701329951],[-78.27596835234246,-9.51790872925827],[-78.276585115444206,-9.5183884290773051],[-78.276705037259617,-9.5186111455990083],[-78.276773564282337,-9.5189880530884174],[-78.276533718055859,-9.519536288979376],[-78.2760540172183,-9.5202900932945891],[-78.275368728872763,-9.5211809687263287],[-78.274820502986401,-9.5221403702419352],[-78.274443595734496,-9.5231340296459042],[-78.274306535409892,-9.5240934313878878],[-78.274409328192519,-9.52512135789026],[-78.274717709420187,-9.5258751722912685],[-78.275128883900976,-9.5265947176732553],[-78.275608575173337,-9.527554118655285],[-78.275899826972122,-9.5283593301903622],[-78.276653640802252,-9.5298326896769616],[-78.277236135029511,-9.5306892981349485],[-78.277647300233497,-9.5316144317188041],[-78.277784361279942,-9.532402504278684],[-78.278092732749897,-9.5331905853727896],[-78.27840111433072,-9.5339101322467421],[-78.278743754406506,-9.5343898317244165],[-78.279017866577391,-9.5347324710173655],[-78.279120660215185,-9.5350065841070055],[-78.279086401661075,-9.5354177599787437],[-78.278812289215224,-9.5360687797791588],[-78.278503907755976,-9.5366512740143623],[-78.278229794559095,-9.5375764076090075],[-78.278058474625183,-9.5384330149342809],[-78.277989939172642,-9.5393581491552979],[-78.277989939149293,-9.5402147562960877],[-78.27804133641942,-9.5414654003919992],[-78.2781441302442,-9.5427331734016168],[-78.278315449722029,-9.5444806457397],[-78.278658099332276,-9.545988273637052],[-78.278966480281042,-9.5470504702449013],[-78.279514705154753,-9.5486266227224181],[-78.280028663608491,-9.5499971893172031],[-78.280679685018967,-9.5521558378469251],[-78.281107987881867,-9.5535778009985872],[-78.281484896421702,-9.5545372021834218],[-78.281930328562112,-9.5556679227779231],[-78.282581348559148,-9.5570042312203221],[-78.28326663682455,-9.5587859728318278],[-78.283746337987921,-9.5602593330717678],[-78.284088976853553,-9.5612529923398508],[-78.284739996622363,-9.5625893001525828],[-78.285048377806604,-9.5629662079908027],[-78.285253965931801,-9.563377381730394],[-78.285425285382161,-9.5639256093085283],[-78.285493811262597,-9.5646451552880141],[-78.285391018395472,-9.5653989691164814],[-78.285391018414288,-9.5660157211892791],[-78.285459542597948,-9.5667352769545282],[-78.285699398893513,-9.5674205559652119],[-78.28593924440311,-9.5679345238456772],[-78.286333289559281,-9.5687054671302896],[-78.286607402761234,-9.5693222194532801],[-78.28653886708689,-9.5698361875499707],[-78.286093434334646,-9.5703158876113807],[-78.285442414048632,-9.5710354353929112],[-78.284859920367268,-9.5714123422587178],[-78.28400332228756,-9.5718577747644051],[-78.282290106626945,-9.5723717425675225],[-78.281210782632698,-9.5728343053988443],[-78.280765349015496,-9.5730056253832849],[-78.280594029893706,-9.573176953191382],[-78.280354174829938,-9.5734853255958345],[-78.280285648856378,-9.5741020867317363],[-78.280319916891685,-9.5747188397350911],[-78.280182854749384,-9.5755754467336391],[-78.279908741900798,-9.5765005808131018],[-78.279668896074739,-9.5775627759705877],[-78.279429040667878,-9.5780424670062896],[-78.279291988780997,-9.5781795289540455],[-78.279017866771468,-9.5782823222044726],[-78.278503908147272,-9.5781795287877838],[-78.27775009409028,-9.578076734663167],[-78.276893487050643,-9.5778711466766335],[-78.276173939563122,-9.5776313020034429],[-78.275728507064542,-9.577631302343649],[-78.275420126328939,-9.5779396829421746],[-78.275279051062242,-9.5784260704281934],[-78.275347585774796,-9.579042822416822],[-78.275553164151816,-9.5798309042259699],[-78.276032864707744,-9.5808588311765313],[-78.276718152811583,-9.5816469125591102],[-78.276992266372247,-9.582023820023517],[-78.277129319042373,-9.5823321909165919],[-78.277095060117659,-9.5828118915508362],[-78.27685520484124,-9.5833943871325342],[-78.27678667892269,-9.583805550924243],[-78.276855204619793,-9.5843880459592867],[-78.276820945578962,-9.5846964273866302],[-78.276615359915411,-9.5850390660452955],[-78.276272720205284,-9.5853131793307398],[-78.275724493632993,-9.5855872929314874],[-78.275416113235352,-9.5859299420188222],[-78.275381845171125,-9.5864781677915669],[-78.275244792982917,-9.5870949212786201],[-78.274799350700206,-9.5876431470205059],[-78.274388185026908,-9.5881228472995641],[-78.273959881236834,-9.5885168929612448],[-78.273788561952756,-9.5888595316887191],[-78.273754293670066,-9.5891679138885912],[-78.273754294401613,-9.5894762853734701],[-78.273857088405876,-9.5899217269949979],[-78.274131201217742,-9.5904699543247052],[-78.27430252085766,-9.5908468622154377],[-78.274371056906887,-9.5912237679131405],[-78.274405313966554,-9.5916006745684665],[-78.27430252105593,-9.592114633591434],[-78.274165469263309,-9.5925600672585638],[-78.274016899002149,-9.592857195831364],[-78.273754293806206,-9.5933138813564689],[-78.27337738768172,-9.5937250549520829],[-78.273069006118135,-9.5941362213799515],[-78.272760634272927,-9.594513127661136],[-78.272657841107801,-9.5948557772132297],[-78.272631877417197,-9.5951413697242813],[-78.272296474397862,-9.5951413698171901],[-78.271725411671099,-9.5951413703899604],[-78.270904498977913,-9.5948915279110754],[-78.270458344053196,-9.5947666018840412],[-78.269708818955294,-9.5944096875914706],[-78.2691377466262,-9.5942312251035524],[-78.268530982161479,-9.5941241511841593],[-78.268174065791683,-9.5939813844066038],[-78.267602994686598,-9.5935173863505057],[-78.267138997007692,-9.5932318488691486],[-78.266710692597158,-9.5930533869961607],[-78.266139619819427,-9.592946313257908],[-78.265104560175899,-9.592874933866625],[-78.262855966799492,-9.5928392400256897],[-78.261963664785696,-9.5927678512720878],[-78.26099998381855,-9.5925537036172361],[-78.26017907140664,-9.5923395571153751],[-78.259429546636767,-9.5917684849208253],[-78.259001242580069,-9.5914115603858878],[-78.258501550722073,-9.590804803844307],[-78.257894793172269,-9.5900195746570773],[-78.257109566367518,-9.5890915888421748],[-78.25621727286665,-9.5879851401224414],[-78.255396360303138,-9.5870214586271771],[-78.254432679128257,-9.5862005451478343],[-78.253254839556149,-9.5854153166299625],[-78.252184086137348,-9.5849156340211987],[-78.251166867608063,-9.584719328858359],[-78.249703494066821,-9.5846479401044533],[-78.248525666325889,-9.5847550226427849],[-78.247240754944158,-9.5850405598193458],[-78.245491853838459,-9.5856830100393218],[-78.24352879828713,-9.5862183874137603],[-78.242172506921918,-9.586646690568486],[-78.241094390092655,-9.5870526068179931],[-78.240682027144388,-9.5871532233047159],[-78.240149958784016,-9.5872071492517801],[-78.239583291439004,-9.5871899824162075],[-78.239050975908796,-9.587275835636941],[-78.238793402390755,-9.5875334104020276],[-78.238558730982248,-9.5879451938476929],[-78.238140878923105,-9.5884091643992075],[-78.23774031932993,-9.588616015780941],[-78.236925787259253,-9.5888952836616745],[-78.235926421548953,-9.5890380517398413],[-78.234712889439805,-9.5890737472560215],[-78.23292071537567,-9.5892849158111364],[-78.231818792654281,-9.5894313932697415],[-78.231282644843091,-9.5896269558513278],[-78.230791436366658,-9.5897657206669873],[-78.230413662891721,-9.5897485442900194],[-78.229915684307798,-9.5894394587045308],[-78.229280336632144,-9.5893879382577261],[-78.228698803371259,-9.5895198925635672],[-78.227770817302954,-9.5898411228858347],[-78.226700061593363,-9.5905192677654068],[-78.22602190689949,-9.5910546453932923],[-78.224986847000267,-9.5917327913651995],[-78.224522847842039,-9.5920540214396066],[-78.224058860279882,-9.5925537035545059],[-78.223416399196282,-9.5930890820226704],[-78.222595486417873,-9.5935530803565161],[-78.22152473090658,-9.5943026040641026],[-78.220453975791287,-9.5948379914267239],[-78.21949029468891,-9.5953019799762966],[-78.217955541930195,-9.5959087461583366],[-78.217206007571264,-9.5961228930894418],[-78.216456473984636,-9.5960872083203022],[-78.215564180786728,-9.5958373569131172],[-78.214529111814784,-9.5954804416773207],[-78.213547587659917,-9.594998600620297],[-78.212726675366426,-9.5944275293393773],[-78.212298371384463,-9.5940349200285961],[-78.211977141219904,-9.5939635313098659],[-78.211782481968271,-9.5940071006875094],[-78.211691604905539,-9.5941776880918148],[-78.21144176421241,-9.594713066028941],[-78.211336021128005,-9.5949858847054976],[-78.211049154173992,-9.5951770636489133],[-78.210442387786202,-9.5954269053285941],[-78.208800561439816,-9.5960693559107941],[-78.208300877690306,-9.5961764298288266],[-78.207194428596836,-9.5961764298785983],[-78.205873823730926,-9.5960693559153469],[-78.205195678367971,-9.596033661996282],[-78.204767373906591,-9.5958908932801226],[-78.203982155981521,-9.5956053583620893],[-78.203232622049711,-9.5954625989726221],[-78.202447401983832,-9.5954982845709722],[-78.202019099024497,-9.5955339788200629],[-78.201483720915689,-9.5956410521194879],[-78.201055416875874,-9.5956410523823337],[-78.200520040085664,-9.5956053581247467],[-78.19980619962412,-9.5957124407489829],[-78.199199434455579,-9.5958552092428029],[-78.198842518663838,-9.5959622830269318],[-78.198664056971751,-9.5961050513490971],[-78.198646213618332,-9.5962656608181387],[-78.19864621412701,-9.5967296594132367],[-78.198663381628322,-9.5972868730047072],[-78.198663381963044,-9.597647479303502],[-78.198610519616253,-9.5980145704055158],[-78.198508839224672,-9.5987292950717773],[-78.198553948994572,-9.5989818751702209],[-78.198714901887314,-9.5993131201377242],[-78.198860362210155,-9.5996207032986742],[-78.199038824174849,-9.6001560795474745],[-78.199003128756686,-9.6006557723437513],[-78.198824668298045,-9.6010126883412781],[-78.198182215914585,-9.6012982241999207],[-78.197682533441963,-9.6015837592194035],[-78.197254229348701,-9.6018692948127331],[-78.196897305028031,-9.6021905259972442],[-78.196254853961335,-9.603082818448673],[-78.195541014646508,-9.6042963398617918],[-78.195184098768323,-9.6051529484115168],[-78.194755795663411,-9.6059381770076744],[-78.194470259348591,-9.6063307860185656],[-78.194256102686381,-9.6065449326529535],[-78.193720725771257,-9.6068304692238513],[-78.193363811445835,-9.6071873933037377],[-78.193006886277999,-9.6075443083126082],[-78.192364435115365,-9.607758455944186],[-78.191757668202499,-9.6079012244334869],[-78.191293679826913,-9.6082224542886738],[-78.191079523907021,-9.6085079899331216],[-78.190793987335482,-9.6089362928802942],[-78.190401378057516,-9.6093645965485859],[-78.189723233174533,-9.6098285862549915],[-78.189116467237895,-9.6101855111310233],[-78.188688162598851,-9.6104353528780369],[-78.188152785562622,-9.6109707299402274],[-78.187189104385467,-9.6119701046324781],[-78.186689420943679,-9.6125768714317292],[-78.186439579608191,-9.6128980919488853],[-78.186225422810935,-9.6132193227903784],[-78.185868508649435,-9.6134334791596228],[-78.185654350593452,-9.6136119319339635],[-78.185618667219515,-9.6137903937840061],[-78.185440204776796,-9.6140759297295943],[-78.184619290810261,-9.6144328451961432],[-78.184119599135158,-9.6146470022209787],[-78.183798378416185,-9.6148254535541469],[-78.18361991596484,-9.6149325373763102],[-78.183405768070017,-9.6152894519996419],[-78.182977463681866,-9.6155749887850721],[-78.18276330788585,-9.6156463773968301],[-78.182370699175124,-9.6157177561885625],[-78.181871016190172,-9.6157534506615594],[-78.181442712377077,-9.6158962184151875],[-78.181157175169758,-9.6159319129247738],[-78.180550409573627,-9.6159675978628538],[-78.180371948094376,-9.61600329341376],[-78.180050727448375,-9.616253133866401],[-78.179693802274343,-9.6165743640890824],[-78.179515349958834,-9.616645742869796],[-78.179139278973608,-9.6168109756111004],[-78.178916049921114,-9.6170170394377745],[-78.178623047943717,-9.6172168148368158],[-78.178262536612181,-9.6173306125769109],[-78.178073973967287,-9.6173183162242442],[-78.177944902009429,-9.6173238892676096],[-78.177782951115589,-9.617379803371195],[-78.177631280931152,-9.6175068682418452],[-78.177445219120273,-9.6177165072951958],[-78.177127097908112,-9.6180684393458353],[-78.176860670898648,-9.6184250498503765],[-78.176512248267287,-9.6189046364333919],[-78.176176133705383,-9.6192489576521591],[-78.175987200324457,-9.6194617740217776],[-78.17580721632838,-9.6196793552564106],[-78.175657571390332,-9.6197681677919835],[-78.175430214257858,-9.6199362059026452],[-78.174949410323634,-9.6203998419034686],[-78.17458881361145,-9.6204856978911675],[-78.174159520735998,-9.6205372178132542],[-78.173592852819993,-9.620691761334129],[-78.17319341418424,-9.6208451240730444],[-78.172265428164465,-9.6212020390513171],[-78.17194438678743,-9.6214644817450203],[-78.171694355798323,-9.6217374256336896],[-78.171444514707915,-9.6219872666663786],[-78.170909126887423,-9.6224512549719563],[-78.170623602034667,-9.6227011066745654],[-78.170409443981356,-9.6229866421035553],[-78.170123908768062,-9.6233792520382515],[-78.169909761406842,-9.6238075555771285],[-78.169766993698161,-9.6240217029560267],[-78.169410069434832,-9.6241287772895117],[-78.168910386269943,-9.6243072391254572],[-78.168698948621341,-9.6245038572180164],[-78.168553460952452,-9.6247712365541052],[-78.168232241332277,-9.6255564556486846],[-78.168018083681915,-9.6260918329007072],[-78.167768242612809,-9.6264487575818318],[-78.167411328168669,-9.6268413678754783],[-78.167090097423397,-9.6271982833430467],[-78.166804560594386,-9.6273053563711137],[-78.166340562920723,-9.6278050487886855],[-78.165848469878526,-9.6284361529917817],[-78.165555345359138,-9.6289471916415952],[-78.165162734627685,-9.6296967159454478],[-78.164877198959474,-9.6301607149248625],[-78.164555969258402,-9.6306603977929992],[-78.164091980168365,-9.6311957754056081],[-78.163717213057794,-9.6316062370474551],[-78.163324603221625,-9.6320702349666103],[-78.162860605314037,-9.632462844838388],[-78.162610763951378,-9.6327126847226339],[-78.162289534378601,-9.6329982224258242],[-78.162075386683071,-9.6332837566471348],[-78.161718462156628,-9.6337120612220808],[-78.161361547398258,-9.6341046696652199],[-78.161111706155268,-9.6344259010612614],[-78.160851534765598,-9.6347724680385269],[-78.160647707544086,-9.6350683516605127],[-78.160433551270145,-9.6353895817189894],[-78.160362172440799,-9.6357108028761225],[-78.160290792075685,-9.6360677272713691],[-78.160183708607789,-9.6363889480963287],[-78.160076634703501,-9.6367815671445527],[-78.159907094085327,-9.6371077999351797],[-78.159826793816876,-9.6373169437843345],[-78.159612637153586,-9.6377095542367766],[-78.159362795566437,-9.638137858309582],[-78.159291417256327,-9.6385304671918721],[-78.159291417306832,-9.6388516969119831],[-78.159362796026628,-9.6389944648207599],[-78.159541258025797,-9.6392086116104814],[-78.159755405849083,-9.6393870753932536],[-78.1600409405752,-9.6395298428874501],[-78.160290792424547,-9.6396726096071461],[-78.160433550845212,-9.6399224522344245],[-78.160540632774655,-9.6401722933538156],[-78.160826169555477,-9.6405649026244085],[-78.161040316219243,-9.6408147543086713],[-78.161076011334231,-9.6411002895719715],[-78.160968936764363,-9.6412787432314513],[-78.160765681162133,-9.6415895873909587],[-78.160397866367475,-9.6419925820588226],[-78.159755405888333,-9.6425279600027292],[-78.159005881364976,-9.6429919575923879],[-78.158720345385134,-9.643206105048117],[-78.158399114988129,-9.6433488734396935],[-78.158113578884624,-9.6433845666111022],[-78.157542506604855,-9.643348873163438],[-78.157221286080372,-9.6434559562310973],[-78.157042824440069,-9.6436701026532461],[-78.156864360920054,-9.644169786066044],[-78.156757287910565,-9.6445980902387038],[-78.1566145208092,-9.6449550152697299],[-78.156507447426748,-9.6455974653353547],[-78.156614520557838,-9.6459543899695532],[-78.156850552225237,-9.6466723860661396],[-78.157185592180767,-9.6470251447993203],[-78.157578201996074,-9.6473463752821154],[-78.158434809383465,-9.6479531306200279],[-78.159220027575159,-9.6485955929469185],[-78.159648330563826,-9.64920234903812],[-78.159786895571983,-9.649505697789138],[-78.159791100106077,-9.6498448093043123],[-78.159725636411764,-9.6501939544426421],[-78.159598010190805,-9.6504329616998934],[-78.15947066912409,-9.6506647906602794],[-78.159255721952078,-9.6509155642207123],[-78.158756038807965,-9.6511297110645486],[-78.158327306909214,-9.6511198203158433],[-78.157828042674325,-9.6510226382253812],[-78.157364053953984,-9.6508441758231616],[-78.156721594088097,-9.6502017242150533],[-78.156007754323923,-9.6496663470445601],[-78.155329608874936,-9.6490952748341279],[-78.154291979779543,-9.6484238816646837],[-78.153437941140567,-9.6480245199849737],[-78.152795488996958,-9.6479174367392417],[-78.151836450288428,-9.6477198486549423],[-78.15125261435216,-9.647805703910004],[-78.150651602890434,-9.6479774233978919],[-78.150118594447306,-9.6482386675567078],[-78.149483941150194,-9.6485440810128207],[-78.148937283993064,-9.6487611289141952],[-78.148333998838282,-9.6489168129147789],[-78.148012768886346,-9.6489168126118106],[-78.147691537674731,-9.6488811183604124],[-78.147298929380838,-9.6486669723753735],[-78.14697769867513,-9.6482743622042459],[-78.146585089916314,-9.6478460582863796],[-78.146192480223689,-9.647239292290104],[-78.145568812622841,-9.646569354120679],[-78.144907567952515,-9.6459186961600132],[-78.14439004429174,-9.6455439291050062],[-78.143390666681498,-9.6450085511571864],[-78.1427125216928,-9.644544552974784],[-78.142248523657258,-9.6440448700218031],[-78.141677453189743,-9.6434737980154335],[-78.140999307116047,-9.642902726645584],[-78.139999931149603,-9.6421175079605046],[-78.139393174724162,-9.6417248980418861],[-78.138822103331265,-9.6414036690227185],[-78.137858421659686,-9.641011058610383],[-78.137206250791436,-9.6407310106111623],[-78.136519383963332,-9.640301717909411],[-78.135823977182923,-9.6395476851123334],[-78.135324293853813,-9.6389052343280301],[-78.134967369065421,-9.6380486264417637],[-78.134360613337577,-9.6368351040395908],[-78.133754759439469,-9.6357684199775218],[-78.133617383832743,-9.6354936692479924],[-78.13341133096641,-9.6351158970775792],[-78.133040006933612,-9.6342295963620916],[-78.132433249720663,-9.6325163810831338],[-78.132183408386027,-9.6318025422031237],[-78.131755104940936,-9.6309459341036483],[-78.13154367658511,-9.6304878419189137],[-78.13148521400943,-9.6303259471042821],[-78.13111053263107,-9.6297418837633266],[-78.13071380502798,-9.6292349628895693],[-78.13026050645415,-9.6286560733443771],[-78.130046350080505,-9.6283348523704539],[-78.129403899360526,-9.6276210133662534],[-78.128761438043313,-9.6269428676111204],[-78.128047599139094,-9.6261933327305069],[-78.126920464201774,-9.6251220270299971],[-78.126423625423911,-9.6247478122208125],[-78.125709784926798,-9.6241053598670483],[-78.124924555983526,-9.6235342894410145],[-78.124103642995905,-9.6227490602235211],[-78.123461191820951,-9.6219281482981067],[-78.122390436707505,-9.6208216977750034],[-78.121034147255457,-9.6196795650767282],[-78.120017479992114,-9.6189917747512741],[-78.118464324374159,-9.618394653280415],[-78.116644035278966,-9.6176808128749354],[-78.114859440353385,-9.6168955948088097],[-78.113324688000205,-9.616217439291459],[-78.112111164580099,-9.6158248299757219],[-78.109916109132499,-9.6154500630444559],[-78.10802444090848,-9.6148790013488181],[-78.105668775021641,-9.6142008459761819],[-78.10381279207283,-9.6138439308754347],[-78.101885429943934,-9.6134156266338824],[-78.100422065091408,-9.6132014795632941],[-78.099993762261292,-9.6131300913670383],[-78.099279921702006,-9.613058711582223],[-78.098887311546704,-9.6127731757990809],[-78.098459008370583,-9.6123805656509802],[-78.097709475082169,-9.6117024115931695],[-78.095853492360646,-9.6105602783033568],[-78.094318747701962,-9.6098464384105569],[-78.093747676212686,-9.6096322811670571],[-78.093033835722181,-9.6094538291291656],[-78.092641227217499,-9.6094181336696707],[-78.092034461372805,-9.6092396719112187],[-78.091427694799123,-9.6087399888479652],[-78.090499708298651,-9.6079547612323264],[-78.089785868418119,-9.6069910801303937],[-78.0893932591854,-9.6065627862015166],[-78.088857880769993,-9.6063843226171333],[-78.087858505856076,-9.6063129341004636],[-78.086930518615617,-9.6062772491512156],[-78.085716996077167,-9.6062415549010201],[-78.085110229971448,-9.6060630934292401],[-78.084182242653412,-9.6055990949117938],[-78.083432708550433,-9.6050994114244528],[-78.082647490706947,-9.6045283387850198],[-78.08132688513119,-9.6032791232621673],[-78.08047027743774,-9.6028508190513708],[-78.07986352069652,-9.6026723663179645],[-78.078721377453874,-9.6026723663278144],[-78.078221694439975,-9.6025652827433188],[-78.076437089706459,-9.6023511350693287],[-78.075366335298369,-9.6021726729247163],[-78.074866651823697,-9.6020656001858704],[-78.074634653250911,-9.6019763690913535],[-78.074242043725079,-9.601869295176348],[-78.074027887217298,-9.6017622221944876],[-78.073813739958268,-9.6015837585536783],[-78.073492508806524,-9.6012268347099265],[-78.073064204773374,-9.6009056141330156],[-78.072707290808935,-9.6008342257744719],[-78.072386061278166,-9.6009413087206745],[-78.071850683124467,-9.6011554548192262],[-78.071386685156384,-9.601369603066388],[-78.070637160439247,-9.6014766859908782],[-78.069887625619046,-9.6014409907274185],[-78.068995333994408,-9.6015480650556686],[-78.067639034451915,-9.6017622223456556],[-78.066853815407413,-9.6020120627081358],[-78.065533208649015,-9.6022619049607485],[-78.064069845312318,-9.6026545136183561],[-78.06314185784106,-9.6029757441029933],[-78.062320945364448,-9.6032612797517842],[-78.061178801114664,-9.6037609632443424],[-78.060535075665911,-9.6040696576933655],[-78.059951249744373,-9.6042242004007097],[-78.059269282142139,-9.6042784988665666],[-78.05823422159537,-9.6043141930799099],[-78.056877920912569,-9.6045640343446657],[-78.055606829090962,-9.6046878378631497],[-78.054557949610938,-9.604706802436505],[-78.053772729932319,-9.6045997282067272],[-78.052916123188041,-9.6046354128763554],[-78.051702600352343,-9.6048495700449958],[-78.050167847230568,-9.6049566430398361],[-78.048990009286371,-9.6048852637378506],[-78.047669412831269,-9.6044926453612831],[-78.0458134302487,-9.603850195084263],[-78.044885443444116,-9.6035646578573068],[-78.042690386677933,-9.6030471236064798],[-78.041227022960555,-9.6027259028454477],[-78.039906416841532,-9.6025474398019597],[-78.039049808988665,-9.6024403668856024],[-78.037800592800167,-9.6021905261891654],[-78.036735249217188,-9.6019918907299555],[-78.035694768030282,-9.6019406740372464],[-78.034588318847554,-9.6019763687738919],[-78.033945867124302,-9.6019763690925721],[-78.033124953794712,-9.6018336013557803],[-78.032482502716675,-9.6016908327031469],[-78.03176866269834,-9.6014766858366567],[-78.030983435870155,-9.6012982235847186],[-78.03030529007728,-9.6010126878046869],[-78.029412997247334,-9.6005486888999911],[-78.028485001207386,-9.6000133118568236],[-78.027628403450422,-9.5996563967431641],[-78.027200099015531,-9.5996563972203521],[-78.026700405922725,-9.599870545371644],[-78.026272102896741,-9.6002631534018956],[-78.025915187815727,-9.6009056142385969],[-78.025629651826563,-9.6014409908694009],[-78.025201348224542,-9.6019049901678315],[-78.024701665068335,-9.6022975987409112],[-78.024130593885658,-9.6027259030222698],[-78.02363090062758,-9.6032612799047481],[-78.023427264040706,-9.6035716768641137],[-78.023309680102074,-9.603903730795686],[-78.023095523710964,-9.60458187715588],[-78.022912115685841,-9.6049454116810917],[-78.022667220374615,-9.6052957160747514],[-78.022396968367516,-9.6055292472184988],[-78.02206046329016,-9.6057240195660398],[-78.021310929396648,-9.6059024830765285],[-78.020454321677306,-9.6059024832940008],[-78.019669102825674,-9.6057597141443782],[-78.01895526283198,-9.6055098728581303],[-78.018562653787797,-9.6053671049093392],[-78.0178488137134,-9.6050458750478693],[-78.017313436376952,-9.6050101807772759],[-78.016956521136237,-9.6050815691308085],[-78.016385449787577,-9.6053314095929831],[-78.016064218657547,-9.605581251778295],[-78.015742990114134,-9.6058667880931026],[-78.015100538289374,-9.6059381766099659],[-78.014279625248193,-9.6059024827414827],[-78.013351637784353,-9.6060095557784635],[-78.012816250998725,-9.6060809354111107],[-78.012138105898131,-9.6061880180352901],[-78.011531348551898,-9.6062593972411605],[-78.011138730818359,-9.6064021650505946],[-78.010746120571937,-9.6064021654070277],[-78.0105088714419,-9.6062665974190988],[-78.010409007075864,-9.6061407200343929],[-78.010195068765512,-9.6059376335790994],[-78.009909534228612,-9.6057234871921402],[-78.009774107598645,-9.6056784910452464],[-78.009900517172866,-9.6053624439203862],[-78.010071846997164,-9.6048142181879843],[-78.010174639650501,-9.6044715697681546],[-78.010414485987511,-9.6040261356046379],[-78.010688599119788,-9.6037177648119343],[-78.011236825931718,-9.6033065913195497],[-78.011665130135185,-9.6029810804402249],[-78.012042037007504,-9.6026041726450941],[-78.012556004384749,-9.6021244720860697],[-78.013412602914229,-9.6016790398694809],[-78.014097891265834,-9.6014391840055779],[-78.014988757107616,-9.6011308133634827],[-78.015536992825659,-9.6007539064294409],[-78.015913899015928,-9.6004112571733984],[-78.016290807196725,-9.5998630312330775],[-78.016530653419295,-9.5991777516217027],[-78.016770498416491,-9.5985267319949656],[-78.017044612375841,-9.5980470317629596],[-78.01738725980367,-9.5973960107769116],[-78.017729898664854,-9.5969848359231378],[-78.018278125914009,-9.5964708773617353],[-78.018929146266345,-9.5960254353806711],[-78.019545908919866,-9.5955114757695572],[-78.019888547828103,-9.5952716297111067],[-78.020471042319116,-9.5947919300138444],[-78.020916473945732,-9.594346488372171],[-78.021293380916106,-9.5938667969763927],[-78.021498969401591,-9.5933528276047557],[-78.021636021083623,-9.5927360749629429],[-78.021738814166923,-9.592256374079545],[-78.02208146345464,-9.5917081489960054],[-78.022115721414409,-9.5912627047342323],[-78.022149988761115,-9.5910228602925844],[-78.022184247603406,-9.5909200656601126],[-78.022218515869497,-9.5908857994219083],[-78.022389835451037,-9.5908172728388035],[-78.022869535684478,-9.5907487461271064],[-78.023554823605082,-9.5905774272438151],[-78.02420584384069,-9.5902690463483413],[-78.024531353590902,-9.5900463303971151],[-78.024805467088299,-9.5895323613456771],[-78.024873992736303,-9.5886757629368766],[-78.024873993104052,-9.5879219495851569],[-78.024873993371898,-9.5870996096920216],[-78.024942519272813,-9.5862430023458334],[-78.025079579844231,-9.5854549209638407],[-78.025250899661899,-9.5848038996936715],[-78.025525013220957,-9.5842214059577593],[-78.025867651760606,-9.5839815602984189],[-78.026313095404916,-9.5838444984362585],[-78.027101167127725,-9.5837074465551328],[-78.028094836080953,-9.5833648072540996],[-78.028780115352035,-9.5829536330669693],[-78.029328341222893,-9.5825082000439359],[-78.029876576768004,-9.5819599726205187],[-78.03039053622507,-9.5813774789193271],[-78.030973031067646,-9.5807949852636369],[-78.031521257331306,-9.5803152839272876],[-78.032000957363735,-9.5800411711234545],[-78.032823297957151,-9.5798013249470877],[-78.033371524267423,-9.57952721173959],[-78.033782699450697,-9.5792188306039723],[-78.03402254441751,-9.5789104496671538],[-78.034091070047765,-9.5782594300755104],[-78.034056812094533,-9.5777797291632467],[-78.034056812125925,-9.5773342957544489],[-78.034159606323584,-9.5765462241964574],[-78.034228131643417,-9.5758266679106949],[-78.034296658085324,-9.5751756475885053],[-78.034296657593416,-9.574250515155784],[-78.034296657701375,-9.5733939068665954],[-78.034365182974327,-9.5724687727707813],[-78.034467978239761,-9.5717492266887518],[-78.034810627186147,-9.5710982073270596],[-78.035256058820821,-9.5705157124270208],[-78.035872810979569,-9.5699332184333734],[-78.036421037997002,-9.5694535173001878],[-78.036866480450556,-9.569179404233763],[-78.037003531676547,-9.5690423523437929],[-78.037072057767006,-9.5688024973441923],[-78.037003532113431,-9.5684598574045268],[-78.036866480233897,-9.5680144250560186],[-78.036695160900521,-9.5675004558584327],[-78.036660892650161,-9.5668837041241961],[-78.03676368733727,-9.5663012090747568],[-78.036969275014613,-9.5655473959647761],[-78.037209119850573,-9.5648621170540178],[-78.037431835609709,-9.5644338127642214],[-78.037808743129332,-9.5636114742981704],[-78.038185649636688,-9.5630289789074343],[-78.038768143758531,-9.5624464850635285],[-78.039247845412035,-9.5618297327106294],[-78.03959048371226,-9.561144444992081],[-78.039864597937765,-9.5601850429732789],[-78.040172978865129,-9.5594312289233798],[-78.040515618341658,-9.5587802088376694],[-78.040858257072728,-9.5581977243683447],[-78.041132370351789,-9.5575124363528143],[-78.041303699123517,-9.5568271478486508],[-78.04137222556227,-9.5563474475566963],[-78.041337957847546,-9.5559362822749829],[-78.041166638178154,-9.5553195213831259],[-78.04085825667498,-9.5543943858952947],[-78.040549886120601,-9.5537433657235926],[-78.040104451764194,-9.5529210258074215],[-78.039847468235251,-9.5523899289288003],[-78.03940203589147,-9.5518074343334938],[-78.038956593323846,-9.5513962703743047],[-78.038511160032982,-9.5510193629108251],[-78.038031458635615,-9.5505396618645229],[-78.037757346442376,-9.550025703036594],[-78.037586027200874,-9.5494089409913965],[-78.0375517592514,-9.548894982132639],[-78.037551758594233,-9.5483467562559703],[-78.037414707410932,-9.547729994204051],[-78.037106326427462,-9.5472160351378772],[-78.036626625697778,-9.5468048603038227],[-78.036283985609657,-9.5465307472154564],[-78.036249718569294,-9.5462223662354511],[-78.036318254195947,-9.5459482520310051],[-78.036523831131987,-9.5455370870693947],[-78.036832213216954,-9.5449545929931769],[-78.037106326320085,-9.5444748916922677],[-78.037568897610271,-9.5440465882879266],[-78.038219917873136,-9.5435326287759015],[-78.038733876801729,-9.5430871868884157],[-78.039247845263816,-9.5423333740278942],[-78.039556217322172,-9.5416823522357337],[-78.039796072032175,-9.5409628072759247],[-78.040001659369409,-9.5398663532233297],[-78.040104451983908,-9.5391810648821309],[-78.040378565908071,-9.5383929933834093],[-78.040618411270856,-9.5379475509904736],[-78.041029587103068,-9.5372622729076415],[-78.041612071081985,-9.5366797776006429],[-78.042126039351274,-9.5360972836647289],[-78.042571473251854,-9.5354120048719988],[-78.042845585976934,-9.5346924486809623],[-78.043153966973478,-9.5339729037879728],[-78.043667925739314,-9.5334246768890374],[-78.044284687447345,-9.5329107078811273],[-78.044832914441869,-9.53239674960051],[-78.045015789217729,-9.5320188529368508],[-78.045675350179337,-9.5314579298051196],[-78.046292104339273,-9.5304300025769813],[-78.046703278197043,-9.52940208516541],[-78.047080185161576,-9.5281685701169891],[-78.047388555775584,-9.5273804878491681],[-78.04783399834642,-9.5263183031543832],[-78.048313698728037,-9.5249134689897197],[-78.048587812792491,-9.523817007102279],[-78.048793390714366,-9.5226862853043208],[-78.048896184312611,-9.5212814512555504],[-78.048930451807763,-9.5201164724197209],[-78.048998976944347,-9.5188144307581624],[-78.04894758063628,-9.5180092206184312],[-78.048776261359464,-9.5171868805960784],[-78.048467880116036,-9.5163645414310771],[-78.047988188691832,-9.5157135205920369],[-78.047439952992121,-9.51499396501581],[-78.046788933054302,-9.5142744185835788],[-78.046069387186137,-9.5136233977021423],[-78.045658222148916,-9.5132807588106196],[-78.045315572656364,-9.5129038518382849],[-78.045075727251856,-9.5122870902828041],[-78.044972932662432,-9.5113962243762593],[-78.04500719244335,-9.5101627099381218],[-78.045041459741356,-9.50920330927649],[-78.044938665960771,-9.508209650120234],[-78.044733078955602,-9.5077299481863111],[-78.044476104063975,-9.5072673874195033],[-78.044270516779818,-9.5066163672757202],[-78.044236248575473,-9.5060338716885635],[-78.044133455134883,-9.5054513782466241],[-78.043962136289892,-9.5050059443068022],[-78.043756547795923,-9.5046975629113497],[-78.043482435145862,-9.5043549240720857],[-78.04307127033033,-9.5039780168159265],[-78.042694361948307,-9.5037724298291177],[-78.042454508405001,-9.5035668433084926],[-78.04221466176827,-9.5032927298603251],[-78.042077600703692,-9.5031556773365971],[-78.041769228649173,-9.5026759769690834],[-78.04152937391494,-9.5022990696068295],[-78.041152466991775,-9.5018878946201131],[-78.040844095168922,-9.5015795143892152],[-78.040535713972801,-9.5012711428274024],[-78.040021746049689,-9.5006201233776704],[-78.039816167898621,-9.5003117412511955],[-78.039713374656927,-9.500243215601996],[-78.039610581372457,-9.5002432157862113],[-78.039404993864963,-9.5002432160716239],[-78.039165148028772,-9.5004145345662323],[-78.038856766584587,-9.5007229156969704],[-78.038445592810447,-9.5011340810206395],[-78.037965891944197,-9.5013396680920259],[-78.037520458254917,-9.5013396677324753],[-78.036937965358973,-9.5011340808166214],[-78.036526798729625,-9.5010312865560298],[-78.035910036607703,-9.50099702889033],[-78.035053438716673,-9.501065554863942],[-78.033922717788812,-9.5009627623537281],[-78.032757729885986,-9.5006886478579968],[-78.031935389660546,-9.5003460087388536],[-78.031078782289867,-9.4999005668844649],[-78.030290710448995,-9.4993866083596092],[-78.029605422282344,-9.4989411750135986],[-78.028920134419977,-9.4985985259453152],[-78.028303381196977,-9.49849573201565],[-78.027857948326016,-9.4984957317068659],[-78.026881417921985,-9.4985471294093866],[-78.026196129925665,-9.4984443453304266],[-78.025476584167933,-9.4981016957896873],[-78.025031142413042,-9.4979646445839503],[-78.024619975936488,-9.4979303770544199],[-78.024208802210254,-9.4979989029064846],[-78.023729099689461,-9.498204489698244],[-78.023352193581843,-9.4984786031348349],[-78.022975286813676,-9.498752716346905],[-78.022769708774575,-9.4988555112421622],[-78.022632647977005,-9.4988897780506214],[-78.022495596105628,-9.4988555105983963],[-78.022290008049879,-9.49858139733964],[-78.022050153073423,-9.4982044899321316],[-78.021673247021582,-9.4975192018842982],[-78.021399133150297,-9.496833923921745],[-78.021227813053898,-9.496319954977567],[-78.020987967918728,-9.4958402553752315],[-78.020645319085645,-9.4954976163351734],[-78.020234153710561,-9.4952920276544361],[-78.019822979201052,-9.4952235016146336],[-78.018829319619059,-9.495017915417737],[-78.018383885848579,-9.4949151208089067],[-78.018144032255634,-9.4947780690806471],[-78.017698598930167,-9.4943668946583415],[-78.017287423614334,-9.4938871926822692],[-78.016739197256939,-9.4933732346553885],[-78.016259496752753,-9.4928250093474027],[-78.015779795808726,-9.492208245639711],[-78.015334364150291,-9.4917285452418536],[-78.014854662905151,-9.4912488539302604],[-78.014357832987159,-9.4908205503046741],[-78.01377533860925,-9.4903065820550534],[-78.013227111600969,-9.4899982012210682],[-78.012541833889557,-9.4896898300654744],[-78.012062133163809,-9.489484242188114],[-78.011445371309634,-9.4892101290979465],[-78.010760093111728,-9.4889017480573425],[-78.01017759835814,-9.4885933767784518],[-78.009903484952531,-9.4883192529754314],[-78.009800690664335,-9.4881822023330944],[-78.009800691428012,-9.4880451405969453],[-78.009800690908278,-9.4878395620066929],[-78.009903484549483,-9.4875997076383118],[-78.010074804992257,-9.487051480664821],[-78.010451710877973,-9.4861263466268095],[-78.010623031035053,-9.4856123791500213],[-78.010725825349866,-9.4851326880239242],[-78.010965679059893,-9.4843788740211998],[-78.011085602041177,-9.4837792513733916],[-78.011051334120339,-9.4828541078261335],[-78.010982809027638,-9.482031766738789],[-78.011085602099982,-9.4810381077377084],[-78.011393974412542,-9.480010180736052],[-78.01166808790984,-9.4793934280344772],[-78.011805149067911,-9.4786396149829422],[-78.011873674006907,-9.4778172650943944],[-78.011805148731767,-9.4770291917097111],[-78.01170235539476,-9.4761040586627416],[-78.011736622700909,-9.4753502446583955],[-78.01190794216707,-9.4743908436004975],[-78.01214778772129,-9.4738426179749933],[-78.012353375628877,-9.4734999789108194],[-78.012558961834742,-9.4731915973254921],[-78.01255896172826,-9.4731230706494625],[-78.012524695368043,-9.4729517419631755],[-78.012353376426816,-9.4726091030343813],[-78.012010737301182,-9.4721636703660419],[-78.011633829131412,-9.4717182371860229],[-78.011154129276719,-9.4710672166696295],[-78.010468840830129,-9.4703819278726726],[-78.009852087719906,-9.4699364960684402],[-78.009440912895812,-9.4696966402629137],[-78.009149670771265,-9.4694053987328388],[-78.009046877437029,-9.4693026044456055],[-78.008909826044828,-9.4690284911496576],[-78.008635702116294,-9.4686173164147807],[-78.008361588888533,-9.4682746771439756],[-78.008121742862144,-9.4680690899743247],[-78.00795042384614,-9.4678635034116319],[-78.00771056893845,-9.4675208637128385],[-78.007539248824358,-9.4671096976210354],[-78.007504990579832,-9.4666642557950169],[-78.007470722692105,-9.4665272040345094],[-78.007333661687952,-9.4663558840397037],[-78.007162341873055,-9.4662188228011512],[-78.006956754744664,-9.4660475041523142],[-78.006579848406119,-9.4659447093289142],[-78.006031620646525,-9.4658419161488467],[-78.005414868833654,-9.4657733899463743],[-78.005003694050231,-9.4657391232541617],[-78.004386942070738,-9.4656705960228269],[-78.003633126619093,-9.4656705958123517],[-78.002673725932198,-9.4656020697528618],[-78.002056973913312,-9.4654307503624242],[-78.001508747447559,-9.4650881022970221],[-78.000549345794994,-9.4644370808575644],[-77.999795532057419,-9.4637860610608815],[-77.999075985840648,-9.4631693088943667],[-77.998459223176411,-9.4627581336006781],[-77.997910997721817,-9.4623812276985717],[-77.997671152039345,-9.4622441758530904],[-77.997465563734565,-9.4622099083005775],[-77.997088658007996,-9.462175639569061],[-77.996574698956096,-9.4623812280080308],[-77.996197791850008,-9.462586814738609],[-77.995992203980393,-9.4626210821592966],[-77.995820883594604,-9.4625525465530327],[-77.995581029648491,-9.4623812279138573],[-77.995204123210755,-9.461970062234462],[-77.994758689841831,-9.4614560927201161],[-77.994364653370823,-9.4609249957028467],[-77.994022005450603,-9.4603425107317172],[-77.993782159249065,-9.459485903552757],[-77.993747891179851,-9.4586292967405257],[-77.993645098161664,-9.4580125343993551],[-77.993233932400628,-9.4572587300692952],[-77.992959820045527,-9.4568132879685329],[-77.992788499791658,-9.4564706481292635],[-77.992685706104126,-9.455785360449747],[-77.992685706175507,-9.4551343402977164],[-77.992822758374828,-9.4543462672716281],[-77.99306261304568,-9.4535581858537636],[-77.993131139072631,-9.4529414340205502],[-77.993131139243943,-9.4523932072427304],[-77.99306261282301,-9.4515708568897665],[-77.993062612882369,-9.4510226309525809],[-77.993199664243932,-9.4504744046875295],[-77.993302458591089,-9.4499604458522839],[-77.993302458728891,-9.4489667773833688],[-77.993165407360223,-9.4482814976091216],[-77.99306261259288,-9.4474934160853028],[-77.992994077809627,-9.4472193030939948],[-77.993045475313721,-9.446825267025547],[-77.993011215675466,-9.4465854108850831],[-77.992839897258662,-9.4464483604217175],[-77.992394453549963,-9.4463798344425189],[-77.991983288574772,-9.4462085052797633],[-77.991572114839144,-9.4459343912520914],[-77.990886836365434,-9.4454889592384284],[-77.990304340805523,-9.4452833709434021],[-77.989550528381855,-9.4450777841131863],[-77.988762445783607,-9.4447008869122318],[-77.988111425431939,-9.4443239797954401],[-77.987409008338872,-9.4438614075751968],[-77.986381080721145,-9.4432446560097976],[-77.985284627545511,-9.4425593669158818],[-77.984256700909597,-9.4417712860878602],[-77.98285186563119,-9.4409832138191483],[-77.982132320628224,-9.4407433592949754],[-77.981412765323668,-9.440469246442321],[-77.980384837418512,-9.4399895445882684],[-77.979356910373554,-9.4392699986026241],[-77.978671630676317,-9.4384133909191803],[-77.978157664274676,-9.4376595768986018],[-77.977403848787063,-9.4363575362824132],[-77.977026942343343,-9.4356722579200767],[-77.976547251214257,-9.4350212373442552],[-77.975964757058733,-9.4344730112560562],[-77.975536452892129,-9.4340789650463073],[-77.97505675332711,-9.4336678002158614],[-77.974645578418446,-9.4332566248791618],[-77.974337206304966,-9.4328111925564126],[-77.974131619293146,-9.4325028115552048],[-77.973926030741922,-9.4322972244246515],[-77.973754712158311,-9.4321944305757803],[-77.973514866618132,-9.4320916458562429],[-77.973069424279359,-9.4319888533268319],[-77.972589722832879,-9.4317489968058723],[-77.97221281678398,-9.431440626139084],[-77.971835919436415,-9.4310294523764586],[-77.971424744450772,-9.430584017802639],[-77.971150631174254,-9.4301728436977132],[-77.970910776384585,-9.4294875563903613],[-77.970636661880889,-9.4289050712885096],[-77.970122704379136,-9.4282197830469592],[-77.969677271324727,-9.4277743501821529],[-77.969197569842166,-9.427328917338027],[-77.968512281689144,-9.4267806812106691],[-77.968032582214647,-9.4263695155756881],[-77.967758468445851,-9.4261981973929672],[-77.967621415683993,-9.4261296608157021],[-77.967141716100556,-9.4260268675912062],[-77.966524954102837,-9.4258898153782695],[-77.966148047260972,-9.4256842276048243],[-77.965736881208215,-9.4253073207335767],[-77.965325707211449,-9.4250332080591992],[-77.964777479853339,-9.424724827378407],[-77.964092192298907,-9.4243821878833867],[-77.963201326952927,-9.4239367537636074],[-77.962413243611394,-9.4235941151845637],[-77.961625171545251,-9.4233885267334294],[-77.960665771347976,-9.4232514659524025],[-77.96004901868092,-9.4232172080194871],[-77.959226679190721,-9.4233885269772326],[-77.958695580689266,-9.4234399249960674],[-77.958181612601834,-9.423371389187075],[-77.957701911877038,-9.4231658107948668],[-77.957222221271024,-9.4229944816378275],[-77.956845314382193,-9.4229259568667114],[-77.956297078784331,-9.4228916984330429],[-77.955748852050291,-9.4228574300019687],[-77.955406212268244,-9.4227546367098256],[-77.955063573313922,-9.4225147906774396],[-77.954857986363962,-9.4222749359964393],[-77.954686665644545,-9.422035090800426],[-77.954412552703786,-9.4216924420512402],[-77.954069904108366,-9.4214183290018276],[-77.953624471661527,-9.4210756889823379],[-77.953179038221293,-9.4207330499452802],[-77.952699337318819,-9.4202876077472038],[-77.952288163096242,-9.4197051228395381],[-77.952048317438141,-9.4190541026384125],[-77.951911255879395,-9.418334546670204],[-77.951705678130281,-9.4176492682987423],[-77.951397297057994,-9.4168611873560675],[-77.951208838868695,-9.4163300885789294],[-77.950831932265956,-9.4155077500113862],[-77.950317973303115,-9.4146854097169879],[-77.949975333972986,-9.4138630703279329],[-77.949769746283053,-9.4128351432190751],[-77.949529892135686,-9.4123211741206223],[-77.949187251996364,-9.4119785351650709],[-77.94884461345066,-9.4117044208658491],[-77.948364913232822,-9.4113960402639858],[-77.947713891607521,-9.4109848746867666],[-77.947062871340961,-9.4107107517372857],[-77.9464461091126,-9.4105051752762225],[-77.945760831135942,-9.4103338549745619],[-77.945212603996566,-9.4100940002184039],[-77.944630109851033,-9.4096828346043182],[-77.944116142077732,-9.4093059277656224],[-77.943499389597591,-9.4089632792587672],[-77.942882636399659,-9.4087576912850643],[-77.942368668953833,-9.4085863721519143],[-77.942060287406605,-9.4084150515585225],[-77.94185471041429,-9.4082779998780612],[-77.941683381180411,-9.4080381453467368],[-77.941477802803504,-9.4075584443010047],[-77.941375008777811,-9.4069074239313615],[-77.941066628025027,-9.4058794969651487],[-77.940878179279807,-9.4053826681235613],[-77.940398478921963,-9.4045260597405047],[-77.939815984197224,-9.4037722455527764],[-77.939610396952915,-9.4035666675717611],[-77.939267758031619,-9.4032925454482328],[-77.938685263357087,-9.4030527001918998],[-77.938137035583111,-9.4029156385807919],[-77.937451749288854,-9.402915638728885],[-77.936903521692614,-9.402812853758526],[-77.936732203109671,-9.4027443192041513],[-77.936629408341403,-9.40260726735929],[-77.936389563072879,-9.4020247723181232],[-77.936115450374032,-9.4013737523299596],[-77.935704275119718,-9.4008940519140669],[-77.935258842868492,-9.400448618105619],[-77.934607822431573,-9.3999346512631163],[-77.934093854399009,-9.3996262780245718],[-77.933579894791578,-9.3993521654047072],[-77.933168719892905,-9.3990437851289919],[-77.932826081263116,-9.3986326086990815],[-77.932586226241227,-9.3982557032072958],[-77.932380648375897,-9.3977074758261132],[-77.932277853944782,-9.3969194041077131],[-77.932346379950914,-9.3959257346106249],[-77.93244917429341,-9.3953775086142102],[-77.932483175265574,-9.3947939489799204],[-77.932630041879122,-9.3948184299599529]]]},"properties":{"OBJECTID":926,"CODIGO":"1375963","NIVEL":7,"NIVEL7":"1375963","NOMB_UH_N7":"Medio Bajo Casma","Nombre_UH":"Medio Bajo Casma","AREA_KM2":487.53879999999998,"AREA_FINAL":484.9513}}]}