{"type":"FeatureCollection","crs":{"type":"name","properties":{"name":"EPSG:4326"}},"features":[{"type":"Feature","id":913,"geometry":{"type":"Polygon","coordinates":[[[-77.776724861279774,-9.5519667417337821],[-77.776810792411951,-9.5519053690841673],[-77.77711917176201,-9.5518025739460501],[-77.777564605216824,-9.5518025743623696],[-77.778524006190622,-9.5520081621751416],[-77.779791779089052,-9.5522137400490781],[-77.780614119245783,-9.552213740201605],[-77.781025293823149,-9.552076688402499],[-77.782087489339773,-9.5515969880893898],[-77.782755639163298,-9.5512714771616398],[-77.783749297797414,-9.5509288381603099],[-77.784845759901089,-9.5506889826720318],[-77.785565307110843,-9.5506889833495432],[-77.786593233993244,-9.5508945701991745],[-77.787518366837318,-9.5512372094110933],[-77.788786139636557,-9.5515798576644073],[-77.789848335061919,-9.5516483835827941],[-77.790704942634775,-9.551614115873118],[-77.792041242079051,-9.5514427970071054],[-77.79334329074922,-9.5511344246540535],[-77.794094262027286,-9.5510891336829271],[-77.79402856978227,-9.5519224967839893],[-77.793994312006618,-9.5528133734460656],[-77.79399431239068,-9.5536357129846916],[-77.793891517577734,-9.5548692271063747],[-77.793822982033277,-9.555760093062279],[-77.793788723839938,-9.5565824325571906],[-77.793822981976035,-9.5572677211198371],[-77.793994311790243,-9.5581243293901998],[-77.794302683127682,-9.5590837198116834],[-77.794508270919465,-9.5599745961419291],[-77.794953703890954,-9.5609339968917624],[-77.795330609923113,-9.5614136883256986],[-77.79567325896015,-9.561824862959293],[-77.796152950436152,-9.5624073571668333],[-77.796495599058773,-9.5629213157232584],[-77.796803969974192,-9.5632296973611322],[-77.797112352183916,-9.5635723357065956],[-77.797352206901877,-9.5639492427624351],[-77.797489257713693,-9.5643261504213903],[-77.797592053442386,-9.5647373247094372],[-77.797592053112879,-9.5650114393629213],[-77.797489257829483,-9.5654568708510901],[-77.797215144652128,-9.5665190663936333],[-77.797163748888593,-9.5670501640637653],[-77.797026697241904,-9.5677354420339853],[-77.796889635443435,-9.5686948430574219],[-77.796855368082106,-9.5697570392113143],[-77.79671831460341,-9.5706136370552031],[-77.796341408925414,-9.5717443572722338],[-77.795758913660848,-9.5729778705764641],[-77.795142161626089,-9.573937273082457],[-77.794491141812586,-9.5748966751025684],[-77.793942915283154,-9.5758218080124475],[-77.793223359311312,-9.5767811998387469],[-77.792606606937611,-9.5779119207335146],[-77.792298225648366,-9.5787000018243642],[-77.791784266617213,-9.5795566102267831],[-77.791133246677674,-9.5803789501411796],[-77.790482227393881,-9.5810984958077281],[-77.790002526332898,-9.5815096704472129],[-77.789385762643505,-9.5818180419589787],[-77.788974598821198,-9.5820578973236756],[-77.788494897906432,-9.5824005368650038],[-77.787621161300365,-9.582863107909473],[-77.787038667448641,-9.5832057482504336],[-77.786284853063634,-9.5837882419501454],[-77.785907946088315,-9.5841308810330812],[-77.785565307342935,-9.5846448490899814],[-77.785222658399192,-9.5854329207589135],[-77.784742967242806,-9.5865293749835647],[-77.784023410637189,-9.5878656831381033],[-77.783509451647035,-9.5888593521202221],[-77.783269597827896,-9.5895103715846339],[-77.783269598366914,-9.5900585994073566],[-77.783372390724821,-9.5905725573151912],[-77.78376643639578,-9.5915148303712456],[-77.784177601591153,-9.5921315829966041],[-77.784897147244081,-9.5930567157017936],[-77.785445384392617,-9.5935364159876126],[-77.785925074967153,-9.5939818499901754],[-77.786404775297797,-9.5944958168305412],[-77.786884475598342,-9.5953524250340507],[-77.787192857877983,-9.5963460846812065],[-77.787569764424745,-9.5973397443525279],[-77.787912402549793,-9.5980250324412353],[-77.788220784118209,-9.5987103203362576],[-77.78832357822165,-9.599361339612317],[-77.78827218243093,-9.5998239029517052],[-77.788135120412591,-9.6004749231158488],[-77.7882036553886,-9.6014685921090042],[-77.788272181764015,-9.6022566640906675],[-77.78840923284119,-9.6034901793443872],[-77.788512027414683,-9.6048950127057111],[-77.788512027353164,-9.6057516195571058],[-77.788477767763382,-9.606334104693552],[-77.788272182418382,-9.607087919125787],[-77.787758213230774,-9.6080130526878893],[-77.78751836668134,-9.6084242269856972],[-77.787209985741271,-9.6088696612386642],[-77.786970140051992,-9.6093150929245379],[-77.786798821322847,-9.6096577417026552],[-77.78673028597855,-9.610000381033668],[-77.786764553763291,-9.6103772889625247],[-77.786867347093647,-9.6107541952793856],[-77.786953001556327,-9.611422344879708],[-77.78688447570768,-9.6122789524418799],[-77.786747423904629,-9.6129642411065372],[-77.786370516619115,-9.6139921681977381],[-77.786096404091211,-9.614780240097561],[-77.785976471442723,-9.6155854511170507],[-77.785976470832679,-9.6165448515834431],[-77.786079265721426,-9.6172643982745534],[-77.786250584765895,-9.6179839537868244],[-77.786387647034715,-9.6186007059511009],[-77.786421914836936,-9.6190118810205831],[-77.786353378845874,-9.6197999533890677],[-77.786421915149987,-9.620656560851037],[-77.786593233800147,-9.6215474360306281],[-77.786730285960445,-9.6224383020408641],[-77.786730286039912,-9.62302079581365],[-77.786627491961596,-9.6237060752460035],[-77.786421915240552,-9.6242200428992852],[-77.786250585287192,-9.6247340023723975],[-77.786250585154875,-9.6252822379699232],[-77.786387646961941,-9.6256934029590049],[-77.786627491817157,-9.6260703095499878],[-77.787072934932169,-9.6266870634282036],[-77.787415574370414,-9.6273380831537487],[-77.787689686724931,-9.6282289590574912],[-77.787809609907228,-9.6289999023213717],[-77.787946671112152,-9.629856509298115],[-77.788152259326523,-9.630884436078988],[-77.788186517374029,-9.6321522087559064],[-77.788083723165954,-9.6331458778822352],[-77.788049465445425,-9.6337626296303132],[-77.787878145178965,-9.6340024860377298],[-77.787638289818304,-9.6341395381492347],[-77.786953001750916,-9.6344479190855044],[-77.786473310858526,-9.6348590843157336],[-77.785959343410966,-9.635544370677259],[-77.785616703279956,-9.6364009786452645],[-77.785342591324053,-9.6374631738032992],[-77.784828621924277,-9.6385253599317036],[-77.784040549420894,-9.6397588739270184],[-77.78350945222175,-9.640564084765451],[-77.78313254463734,-9.6411123119179649],[-77.782755639384348,-9.6418318581382412],[-77.782618577055914,-9.6425856721550645],[-77.782515783275045,-9.6434422800873083],[-77.782755638939406,-9.6444702058853498],[-77.783064018668426,-9.6454638663246044],[-77.783303863891447,-9.6462519478026589],[-77.78340665857769,-9.6470400300950576],[-77.783269598009142,-9.6475539877352574],[-77.782961224973249,-9.6480336888134275],[-77.782241670362652,-9.6491301423965563],[-77.781590649805437,-9.6502608630883913],[-77.781196613129922,-9.6510660740399867],[-77.780477068031161,-9.652402382325219],[-77.779551933359087,-9.6538414746068106],[-77.778866644811075,-9.6548008756138763],[-77.777667399133435,-9.6562399771902125],[-77.776776523917121,-9.6569937817287954],[-77.77602271884092,-9.6577818638120423],[-77.77547448270785,-9.6586384719646023],[-77.774823462937178,-9.659837719415858],[-77.774138185060607,-9.6610027072657036],[-77.773521421704075,-9.6620991597604249],[-77.772733349932537,-9.6635039948516592],[-77.772048061974886,-9.6646004469634246],[-77.771671156380421,-9.6656283752534797],[-77.771581219940046,-9.6660780684049818],[-77.77052385678482,-9.6660428210668687],[-77.769631564103776,-9.6658643588011497],[-77.768953418920134,-9.6656145171049168],[-77.768275263981039,-9.6652932868837578],[-77.767668507797097,-9.6649363719101853],[-77.767026047390814,-9.664757909763976],[-77.7665977443624,-9.6648292991495612],[-77.766205134133287,-9.6649720661314156],[-77.765883913013667,-9.6652219080711141],[-77.765526988212628,-9.6655788233450561],[-77.764955917041334,-9.6661498947619524],[-77.764313465777448,-9.6666852717810627],[-77.763849467660862,-9.6671135755951418],[-77.763456857915983,-9.6674705003961172],[-77.763171321666334,-9.66761326936318],[-77.762207641254506,-9.6681486461208976],[-77.761458116298783,-9.6686483288560581],[-77.760565815393704,-9.6691123267334991],[-77.760244584593323,-9.6693978629340318],[-77.759566439180375,-9.6699689351342428],[-77.758923988100065,-9.6707184596886133],[-77.758281527997681,-9.6714679928883545],[-77.757995992360478,-9.671789214339249],[-77.757460615355257,-9.6722532121875737],[-77.756746775168665,-9.6728956630597605],[-77.755979407569527,-9.6737701230738864],[-77.755515409994459,-9.6743768792996594],[-77.754980031632485,-9.6752691807498614],[-77.75476587509965,-9.6759116323584493],[-77.754551729442753,-9.6765897778133585],[-77.75448034020522,-9.6768396277075244],[-77.754373265921032,-9.6771608490372554],[-77.754266192437115,-9.6776248467736377],[-77.754301886916451,-9.6781602250080336],[-77.75415911887211,-9.6788740646178706],[-77.753837888077868,-9.6792666739652269],[-77.753659425579173,-9.6793737484028792],[-77.75333820522907,-9.6794094419993062],[-77.752909901849335,-9.6793380633389994],[-77.752338830217937,-9.6792309796585734],[-77.751482222369518,-9.6790168320240468],[-77.750447153024567,-9.678874065449973],[-77.749590554102255,-9.678838369807572],[-77.748805326101277,-9.6788026758585204],[-77.747877338940626,-9.6787312960938152],[-77.747199193729344,-9.6787669910222132],[-77.746556733589514,-9.6787669913784562],[-77.746021356402238,-9.678588527853984],[-77.745557366966793,-9.678302992661294],[-77.745164748253615,-9.6783029926822355],[-77.744772138698423,-9.678410065569329],[-77.744486602690571,-9.6785885275753181],[-77.744343835962553,-9.6788740650574088],[-77.744343836235217,-9.6793737479558857],[-77.744343835671188,-9.6799448191526221],[-77.74430815069249,-9.6805872803355282],[-77.744236760951978,-9.6810512690300907],[-77.743986919934059,-9.6817294142740611],[-77.743630005404142,-9.6823004850072838],[-77.743166006779234,-9.6829429456176541],[-77.742702008558837,-9.683514007727263],[-77.742273704692124,-9.6840493954309466],[-77.741738328201961,-9.6846561508880065],[-77.74131002433181,-9.6853699912284625],[-77.741060182312125,-9.685869673599985],[-77.740774647225166,-9.6867262818891984],[-77.740346343397647,-9.6874758155536611],[-77.739489735348755,-9.6880468875896391],[-77.738740209883389,-9.6884394969628165],[-77.738347600851611,-9.6885822649465503],[-77.738026370907846,-9.6886536440250897],[-77.737134068903643,-9.6885465714478496],[-77.736741459447202,-9.6885108768814145],[-77.736420229087912,-9.6885465710057854],[-77.736206082436112,-9.6886536437956892],[-77.735813471983761,-9.6888321072227583],[-77.735313780077092,-9.689010569024644],[-77.734849790556297,-9.6891890309469044],[-77.734421488279295,-9.6892604099889805],[-77.734028878328729,-9.6892247160691038],[-77.733564880426641,-9.6891176418197382],[-77.732708272405517,-9.6889391795534916],[-77.732279968309555,-9.6891176421067104],[-77.732101516054428,-9.6893317990627548],[-77.731994433052279,-9.6896173246537867],[-77.731851665085145,-9.6900456288779928],[-77.731351980713399,-9.6909736252170493],[-77.730887982560802,-9.6918302327682255],[-77.73034141099258,-9.6926197601008628],[-77.729413414827235,-9.6941188193109973],[-77.728842352745687,-9.6949397317701855],[-77.728199892954279,-9.6956892658842495],[-77.727593136311071,-9.6964031061855689],[-77.727129137808774,-9.697580933726778],[-77.726914981044544,-9.6985089313004877],[-77.726861443853807,-9.6993476872020015],[-77.727039907433294,-9.7002399876722603],[-77.727111295826958,-9.7009538281216461],[-77.727039906941272,-9.7014892049554007],[-77.726934155432289,-9.7021237147403259],[-77.726875948832799,-9.70191336171915],[-77.726748617069632,-9.7014532261038564],[-77.726391692993332,-9.7003467772125784],[-77.726284617879273,-9.6994544751207865],[-77.726106165627286,-9.6984907941558127],[-77.725820629549986,-9.6977769537185505],[-77.725463704758624,-9.6972415766016855],[-77.724821254108932,-9.6965277359153088],[-77.724000340810079,-9.6957068240312161],[-77.72296527078376,-9.6950286777683399],[-77.722108664077766,-9.694564680391986],[-77.721323445298069,-9.694243458939102],[-77.72039545810793,-9.6939936081105564],[-77.719788692094042,-9.6939222289759126],[-77.718860705221502,-9.6939222292405773],[-77.718182560119985,-9.6938151547807525],[-77.717290258400553,-9.6936723871377524],[-77.716433649755245,-9.6934582306193224],[-77.715505664127278,-9.6932797783232729],[-77.714863211654745,-9.6928871586166601],[-77.714220751857169,-9.6924231699820655],[-77.713613995898314,-9.6918164043146771],[-77.713292765229994,-9.6914594891018755],[-77.712971534618831,-9.6908884168441976],[-77.712757388243901,-9.690674260926059],[-77.712543231391408,-9.6905671872648345],[-77.712186315699043,-9.6904958076768164],[-77.711615243937885,-9.6905671870817898],[-77.710901404716779,-9.6910668790650352],[-77.709866344064807,-9.6916022578678973],[-77.709009736892256,-9.6918520986495995],[-77.708367275898382,-9.6919591716911064],[-77.707796204110281,-9.6918520986797017],[-77.707332215614869,-9.6918164040304635],[-77.707010984868191,-9.6918164040787538],[-77.706368534768174,-9.6918877926787683],[-77.70597592476318,-9.6920305606728192],[-77.705190696318837,-9.6923517809292488],[-77.704619625439221,-9.6926730120748665],[-77.703798710748629,-9.6932083885589897],[-77.703013493042064,-9.6936723870528407],[-77.702513808863273,-9.6940649971811439],[-77.702014117094564,-9.6944219116188535],[-77.70137166595363,-9.6950643717126059],[-77.700800595130133,-9.6957782131325541],[-77.700372291033673,-9.6965277356584938],[-77.700158134329001,-9.6968132734257217],[-77.699908293132793,-9.697134503147474],[-77.699747662994952,-9.6972951319613685],[-77.699694145184239,-9.6973486499935326],[-77.699301536248186,-9.6973843436886487],[-77.698730463683532,-9.6971701971943212],[-77.697963088042059,-9.6967240406236517],[-77.697070785722616,-9.6961886639026087],[-77.696606797281902,-9.6958317491567581],[-77.696249872191927,-9.6956889806977617],[-77.695892957791159,-9.6956175918348038],[-77.695500347770221,-9.6955462132219665],[-77.695179117590783,-9.6955105193095417],[-77.694786507697913,-9.6954748253821634],[-77.694322509938175,-9.6954748249766762],[-77.69410836344295,-9.6954748246661708],[-77.693822827181492,-9.6955105190464312],[-77.693572976578082,-9.6955105190171622],[-77.693216061391439,-9.6954034451526301],[-77.69282345197648,-9.69508221500387],[-77.692323759189705,-9.6944754576307179],[-77.691859771406399,-9.6939757656012144],[-77.691467160754542,-9.6937259252375654],[-77.690967469394536,-9.6934403882766063],[-77.690503479876384,-9.6931548528883962],[-77.690075175779498,-9.6929407052585255],[-77.689611178200124,-9.6924767071644311],[-77.689254262659063,-9.691869940880963],[-77.688718875642337,-9.6911204167618301],[-77.688183499405085,-9.6905493452273568],[-77.687612427039667,-9.6900139678396382],[-77.687112742919652,-9.6897641158645325],[-77.686291831027859,-9.6896927371068369],[-77.685399529290549,-9.6895499700317043],[-77.684721383115544,-9.6895142752460721],[-77.683900469633016,-9.6894785899067664],[-77.683150946421392,-9.6891216657643486],[-77.682686946754799,-9.6887647509575832],[-77.682330023107795,-9.6884078261699926],[-77.681758960951925,-9.687658300778315],[-77.681509108691074,-9.6871586083353449],[-77.681187888740482,-9.686373390271342],[-77.680866659007094,-9.6858023181778616],[-77.680652510788391,-9.6855524770007868],[-77.680295586649663,-9.6851598671048027],[-77.680045745169721,-9.6849457110508954],[-77.679724514966168,-9.6848386374175632],[-77.67927836890658,-9.6849992474281361],[-77.678957138405977,-9.685142015940496],[-77.678671603409029,-9.6853918572295719],[-77.678207613822593,-9.6856773928698239],[-77.677600848360228,-9.6858558551511162],[-77.676779933607264,-9.6859629279929003],[-77.67563779132071,-9.68614139093477],[-77.674781182781118,-9.6861413911089915],[-77.673888890739207,-9.6859272430904788],[-77.673424893431743,-9.6857487817186154],[-77.672711054053977,-9.6853204780621276],[-77.671890140125029,-9.6850706362458627],[-77.670855079712339,-9.6849992474404036],[-77.669391705212092,-9.6852847829628121],[-77.66814248904781,-9.6854989403992988],[-77.667000345038986,-9.6858558549900149],[-77.666179431593505,-9.6861413911945178],[-77.665501286568784,-9.6866410739918631],[-77.664894529929086,-9.6868552302743165],[-77.664216385083904,-9.6870336927551399],[-77.663680997816627,-9.6871050719340523],[-77.663002852431703,-9.6871407656321793],[-77.662538864250763,-9.6869623037134929],[-77.662021328648748,-9.686730304984442],[-77.661450257892454,-9.6863733896529443],[-77.661200416241542,-9.6858023182708379],[-77.660986260204609,-9.6850170998074834],[-77.66091487871708,-9.6841961856110839],[-77.66098625980068,-9.6835537260541695],[-77.660950574171679,-9.6830540425858924],[-77.66077211174219,-9.6824472764334928],[-77.660629344357602,-9.6818762052790852],[-77.660700722717507,-9.681162365400354],[-77.660879185122241,-9.6805199140433942],[-77.660986259558669,-9.6802700721945083],[-77.661450257561839,-9.6795205390977799],[-77.661807171577735,-9.6788066988757055],[-77.661949940973372,-9.6780928687179912],[-77.661878561117732,-9.6773076402966858],[-77.661735792723007,-9.6762011920052924],[-77.661593025164549,-9.6752018146894496],[-77.661557330920786,-9.674630752677297],[-77.661414563452766,-9.6741667552050483],[-77.661129027162602,-9.6737027571521317],[-77.660843491232939,-9.6734172221405252],[-77.660486575854932,-9.6730960011354181],[-77.660361651220882,-9.6727569282365344],[-77.660254577408324,-9.6720073936406159],[-77.660325965947791,-9.6712221752103478],[-77.660575807186888,-9.6700800317823727],[-77.661111184392823,-9.6690449620360965],[-77.661361025723224,-9.6687237406736521],[-77.661753635998494,-9.6681169744222792],[-77.662289012873316,-9.6677600596043192],[-77.662788705732353,-9.6675459029864932],[-77.663181315076869,-9.6673317562761589],[-77.663431155965512,-9.6670819035981363],[-77.663716692391034,-9.6666179163292263],[-77.663930848641371,-9.6661182230326705],[-77.664109302411788,-9.6652973101762392],[-77.664323457924112,-9.6645120917604928],[-77.66453760581571,-9.6639767140217376],[-77.664608994388857,-9.6634056415522309],[-77.664608993567001,-9.6626204226994208],[-77.664537605777895,-9.6618708888006335],[-77.664573299974009,-9.6611570489714023],[-77.664394837404501,-9.6606930512876641],[-77.663895154142978,-9.6602290627920642],[-77.66332408255181,-9.6599435273899132],[-77.663163472181566,-9.6596401493361643],[-77.66305638893644,-9.6591404557356473],[-77.662806548078336,-9.6584980054178935],[-77.662592400645138,-9.6581410795942997],[-77.662057024273537,-9.6577841651848164],[-77.661129026815985,-9.6574629346501801],[-77.660129651754772,-9.6571060199305503],[-77.659130285372058,-9.6568918635509284],[-77.65841644578218,-9.6565349490559065],[-77.657881069214312,-9.6562137183739889],[-77.657345691288597,-9.6558568026280334],[-77.656560463261087,-9.6553928052896616],[-77.656025085263153,-9.6548574269779781],[-77.655525402685498,-9.6545005118303564],[-77.655025709693859,-9.6542506623175317],[-77.654526026261934,-9.653929440998402],[-77.654026333577775,-9.6536082097353741],[-77.653633724561047,-9.6533226751458212],[-77.653312503985987,-9.6528229918513784],[-77.652741432612288,-9.652287613711513],[-77.652384507833972,-9.6519306903065534],[-77.652134665978494,-9.6516094592190687],[-77.651742055983291,-9.6513596182071968],[-77.651420826753167,-9.6510740819665646],[-77.651135290297191,-9.6507885459285152],[-77.651028217246633,-9.6505030110925283],[-77.651063910847967,-9.650181790245238],[-77.651242364005952,-9.6497534862975574],[-77.651420827041164,-9.6493965614166672],[-77.651492215408439,-9.6491467204056178],[-77.651349448060785,-9.6487898049039611],[-77.651063910754416,-9.6487184156520662],[-77.650778374618952,-9.6487898052317131],[-77.650457146193943,-9.6489325721107466],[-77.649993146660506,-9.6491824142880009],[-77.649493464389991,-9.6491824142161509],[-77.648886698282752,-9.6490753399965765],[-77.648208553258812,-9.6489325720032006],[-77.647459027549118,-9.6487184155558889],[-77.647066417620792,-9.6486470365926547],[-77.646673798628498,-9.6486113423833313],[-77.646281190580794,-9.6485399633350006],[-77.645888580832889,-9.6483615011048371],[-77.645603044649164,-9.6479688912512849],[-77.6450676678093,-9.6472907462952211],[-77.644496596424588,-9.6466482846338444],[-77.644157523211376,-9.6458809090080084],[-77.644050449066157,-9.6450956897135072],[-77.643943375917104,-9.6446673860512782],[-77.643515071717971,-9.644024935429556],[-77.643086767549647,-9.6432397065568534],[-77.64283692731837,-9.6427043302686499],[-77.642551391028718,-9.6424544893473954],[-77.642158772204297,-9.6422046471990228],[-77.641659089172421,-9.6418120366554962],[-77.641195090693316,-9.6414551124168675],[-77.640838176380441,-9.6409911136726798],[-77.6403027983268,-9.6402772839337043],[-77.639767420866534,-9.6394563613679871],[-77.639374812241272,-9.6390637521431177],[-77.639089274976598,-9.6388853002404407],[-77.638768045813279,-9.6386711422732585],[-77.638553889143495,-9.6384569962566182],[-77.638268352878981,-9.6379573032224624],[-77.637875743722816,-9.6373862316573859],[-77.63748313428529,-9.6368151692274235],[-77.637126219443942,-9.6364582447166818],[-77.636769293636576,-9.6362440968272125],[-77.636412378613855,-9.6360656347464069],[-77.636055454971299,-9.6358157931550839],[-77.635627161184132,-9.6355302573836106],[-77.635234540873299,-9.6352447219543258],[-77.634913319988286,-9.6348877968011148],[-77.634342249019568,-9.6340311987770324],[-77.633913944962643,-9.6333173601855044],[-77.633449946857539,-9.6329604346760753],[-77.632950264235305,-9.6327819818648486],[-77.632200730032565,-9.6324964461091156],[-77.631558278793193,-9.6319610689284598],[-77.631185813577488,-9.6313382390297182],[-77.631004583125957,-9.6307885952766679],[-77.630897975830393,-9.6301586219887394],[-77.630848615096269,-9.6298254271665922],[-77.630848614616269,-9.6297595360513615],[-77.630833291828878,-9.6293763517164521],[-77.630756653791622,-9.6287785832588124],[-77.630710669153274,-9.628364745928442],[-77.630695347097586,-9.6280275469564884],[-77.630664683821209,-9.6276443620379517],[-77.630634030181895,-9.6272765088181309],[-77.630572723427647,-9.6269546416412233],[-77.630526748275159,-9.6266940723735335],[-77.630388801294018,-9.6264181803453557],[-77.630189539446192,-9.6262189267202043],[-77.629867671425799,-9.6261422887923764],[-77.629484486973283,-9.6260656588147313],[-77.628902049386269,-9.6258970503260013],[-77.628426904039841,-9.6257897666205583],[-77.62789045298419,-9.6255905054146798],[-77.627629883287412,-9.6254525588312294],[-77.627399976585167,-9.6253605981156216],[-77.627280309586013,-9.625250910061709],[-77.627262031130371,-9.6252226517173352],[-77.627108753171939,-9.6249007847421879],[-77.627001470178556,-9.6245022687800983],[-77.62697080721631,-9.624149747804065],[-77.626970806779838,-9.6238278712355054],[-77.626924831763461,-9.6235673096595988],[-77.626740900167718,-9.6232301024379527],[-77.62654164790429,-9.6230615029354851],[-77.626081823940808,-9.6229235573335874],[-77.625576026292478,-9.6228775823642874],[-77.624978265599452,-9.6228009420503025],[-77.624273205575761,-9.6226629956401215],[-77.623230953904155,-9.622279811865841],[-77.622893754923112,-9.6220805587228107],[-77.622732260877271,-9.6219608357558535],[-77.622715147572592,-9.6219424966736735],[-77.623291244365092,-9.621747041273661],[-77.623482479905519,-9.6215543323302573],[-77.623750505890172,-9.6213227804372821],[-77.624019121995602,-9.621167733353035],[-77.624518101177202,-9.6208961779380289],[-77.624863213404382,-9.6206640457498995],[-77.625285107203041,-9.62039308019963],[-77.625591081165311,-9.6200847466844852],[-77.626011501019761,-9.6196225275663512],[-77.626278642844966,-9.6192762362931461],[-77.626584322195527,-9.6189296499781314],[-77.626967373247808,-9.6186207168786098],[-77.627350139030369,-9.6182735410246636],[-77.627732305665589,-9.6178498693303265],[-77.627960900271432,-9.6175038726670383],[-77.628112702578235,-9.6171967086592201],[-77.628221820896968,-9.6163543476887146],[-77.628332423294282,-9.6157032330860357],[-77.628481564031603,-9.6150518225603978],[-77.628516564294955,-9.6145925418447185],[-77.62866599939052,-9.6139793846704649],[-77.6289310580582,-9.6133653431802522],[-77.629235843698595,-9.6129040077212284],[-77.629541514443375,-9.6125574219118306],[-77.630079021660819,-9.6122855722201255],[-77.630577687736519,-9.6119757640034322],[-77.630961918021057,-9.611819833913076],[-77.632036334275071,-9.6111996280349956],[-77.63245733358788,-9.6108139050923498],[-77.632955400280551,-9.6104276010139689],[-77.633569394038119,-9.6100786648082561],[-77.634184273417617,-9.609844469005953],[-77.634645874708042,-9.6097261923781137],[-77.635145130323352,-9.6094928802591451],[-77.635528760553711,-9.6092604529633707],[-77.635952108741378,-9.6091807137645535],[-77.636452543565099,-9.6091003941919233],[-77.637030359333039,-9.609057738797647],[-77.637569340805669,-9.6089771236040296],[-77.638107724434363,-9.6088200144067812],[-77.638473560061485,-9.6087789647910746],[-77.639012532900523,-9.6086983512219764],[-77.63959064217039,-9.6086939384035865],[-77.640207585143415,-9.608727473192145],[-77.640670659774031,-9.6088004403393654],[-77.641171988664951,-9.6088348602534381],[-77.64163447507606,-9.6088313220816541],[-77.642059012316793,-9.6089045836006619],[-77.642483255334923,-9.6089395853815738],[-77.642828928012449,-9.6087839391328878],[-77.642981606999555,-9.6085915242466626],[-77.643286963431308,-9.6082066754380904],[-77.643629963586605,-9.6077067924225457],[-77.643936205174001,-9.6074366927711061],[-77.64431982661398,-9.6072042569923468],[-77.644626961112493,-9.6070488962726532],[-77.644933496552952,-9.6068170488627143],[-77.645317109072238,-9.6065846033592663],[-77.645507442030322,-9.6062771447456168],[-77.645542117608642,-9.6057796212243733],[-77.645384978651236,-9.605398309660572],[-77.645266387950542,-9.6050167138472968],[-77.645225766924597,-9.6047492693172032],[-77.645300180241449,-9.6044044410062295],[-77.645568178232679,-9.6041728804308963],[-77.645913841681093,-9.6040172336577356],[-77.646259810089461,-9.6038998320466202],[-77.646566936183575,-9.6037444805867995],[-77.646795500791256,-9.6033984752581976],[-77.646868716351079,-9.6029006553280674],[-77.646758189829711,-9.6026588887329112],[-77.647069158421289,-9.6027884556798853],[-77.64765165164242,-9.6028912492639282],[-77.648336939925443,-9.6029597758579239],[-77.648987959718809,-9.6030968373917265],[-77.650427062352733,-9.6033709503823452],[-77.651420720597585,-9.603576536643665],[-77.652739891307448,-9.6037649868980832],[-77.653562231225948,-9.6038335216642636],[-77.654487374669642,-9.6039363060112848],[-77.655275446773587,-9.6040391003363066],[-77.656166322069197,-9.6043817476683753],[-77.656885868273164,-9.6048271806356151],[-77.657399827149646,-9.6050327685827916],[-77.65818790767959,-9.6052383561463834],[-77.658667608661375,-9.6054439341550246],[-77.659044515569917,-9.6056495212951116],[-77.659284362141278,-9.605855107755227],[-77.659489949958541,-9.6061977481051137],[-77.659627010562986,-9.6065061286840319],[-77.659695536369654,-9.6067459752507887],[-77.659832589261057,-9.6069515621945936],[-77.660038174928957,-9.6072942100303322],[-77.660312288940048,-9.6076368488547654],[-77.660689196374719,-9.6080822827933581],[-77.660791989859476,-9.608322137019945],[-77.660929051424816,-9.6090759419386877],[-77.660997576630081,-9.6099668171909851],[-77.661134629009524,-9.6107891578961446],[-77.661408741583458,-9.6112688580029584],[-77.661888442568312,-9.6117142906381083],[-77.662505204998993,-9.6121597232212537],[-77.66319048338535,-9.6127422177200579],[-77.663807245874949,-9.6131533916635199],[-77.664252678006264,-9.6134275061268379],[-77.664800905043208,-9.6136330932775671],[-77.665520451370085,-9.613907207141823],[-77.666171472164947,-9.6142498463678852],[-77.666548378069976,-9.6145239591260712],[-77.66713087288673,-9.6150036598879609],[-77.667576304848595,-9.615277774109785],[-77.667918953732666,-9.615449092688559],[-77.668261594136496,-9.615517619013513],[-77.668638501013376,-9.6156546797675642],[-77.668912613556159,-9.6158602668647593],[-77.669220995034237,-9.6162714326367773],[-77.669632159571947,-9.6169909882822466],[-77.670146128902118,-9.6177105350032104],[-77.670574432984793,-9.6182416320789077],[-77.671156926198904,-9.6189611783846782],[-77.671705153363618,-9.619646465629808],[-77.672184854441142,-9.6202289508712315],[-77.672493224578616,-9.6204345376160525],[-77.672630286033723,-9.6204688059335375],[-77.672835873827452,-9.620468806253113],[-77.673109987169639,-9.620366012930619],[-77.673589679048803,-9.620057632006743],[-77.674514821931666,-9.6193038183991764],[-77.675063047627106,-9.6184814780684036],[-77.675439954637255,-9.6179675187884364],[-77.67605670818125,-9.6174192916663852],[-77.676570675820855,-9.6170766434255484],[-77.67735874835455,-9.6166654794413375],[-77.677872717455131,-9.6163913651215083],[-77.678489468911067,-9.6159116642908931],[-77.678969168975073,-9.6151921091262462],[-77.679277550123473,-9.6145068302234868],[-77.679517396235866,-9.6137872741717771],[-77.67979150945186,-9.6128621405862376],[-77.680236942715666,-9.6118684820867202],[-77.680648116993865,-9.6112517289517321],[-77.681367664163446,-9.61025805971755],[-77.682190002829628,-9.6095385139881522],[-77.682943816832093,-9.6089560188836245],[-77.683834692090514,-9.6085791123804682],[-77.684451445395993,-9.6083049987525495],[-77.68503394035568,-9.6079623598241302],[-77.685513726090704,-9.6075676199158799],[-77.685719312604519,-9.6074305683978647],[-77.685959158869608,-9.6073277737089295],[-77.686712972081594,-9.6069851261348518],[-77.687638106134543,-9.6066767535872852],[-77.688494714168698,-9.6065054347087013],[-77.689248528319922,-9.6063341049364119],[-77.690584836152354,-9.6062655792133018],[-77.6917840833909,-9.6062998468051912],[-77.69260642265435,-9.6062655787313673],[-77.693325979187577,-9.6061285272044028],[-77.694216844057181,-9.6058544140486202],[-77.695107709736547,-9.6055460326860445],[-77.695964318301151,-9.6051691256635223],[-77.696752399158427,-9.6048264873757638],[-77.697471945658918,-9.6045866316797905],[-77.698602665997086,-9.6043467860475289],[-77.699801912825492,-9.6041411985948901],[-77.700298743179161,-9.6041240696836656],[-77.701635051079464,-9.6041583293981567],[-77.702354597310261,-9.6041240703226638],[-77.702937091763999,-9.6040212756401822],[-77.703965019327015,-9.6037814214275343],[-77.704753100643472,-9.603473050096742],[-77.705815285811127,-9.6030961429280826],[-77.706637634708926,-9.6028220298196931],[-77.707151593739027,-9.6026849681230182],[-77.708076728400243,-9.6026849682451267],[-77.708487901847533,-9.6025479064126351],[-77.708830541601003,-9.6023080610315876],[-77.709327372337157,-9.6017769630799297],[-77.709875597829168,-9.6012287371367666],[-77.710595153962629,-9.6006462422203889],[-77.711383225818835,-9.6001322841028696],[-77.712376895429145,-9.5995497903121443],[-77.713130699601166,-9.5992071498685778],[-77.714329955590728,-9.598864501920426],[-77.715460676683335,-9.5985903876857428],[-77.716317274616941,-9.5983505433397305],[-77.716968295081728,-9.5979393676822635],[-77.717345203140937,-9.5974596668877101],[-77.717756376730378,-9.5967401207697574],[-77.718064757990533,-9.5961918954014553],[-77.718475922663487,-9.5956779360151057],[-77.71898989220341,-9.5952324942641187],[-77.719675169904377,-9.5946500077363286],[-77.720257664087768,-9.594033246804937],[-77.720668838714218,-9.5933479582351886],[-77.72111427203258,-9.5926284120839824],[-77.721439781704021,-9.5919945207127295],[-77.722022276091721,-9.5911379232883043],[-77.722604771088172,-9.590178520823601],[-77.723221522790581,-9.5893904403584571],[-77.723735481990758,-9.5889107392133184],[-77.724215182665219,-9.5884310478671857],[-77.724694882635035,-9.5878828206847189],[-77.725345903064664,-9.5871632648814149],[-77.725757078899989,-9.586786358894539],[-77.726442356787189,-9.5863066591484341],[-77.726819262769965,-9.585895492942857],[-77.727196170954699,-9.5855871120273122],[-77.727744397365726,-9.5853472662502917],[-77.728772324761664,-9.5849703602349994],[-77.729594674052251,-9.5845934533805153],[-77.730314220230682,-9.5841480095476133],[-77.731205085689794,-9.5833256698070777],[-77.731547734938346,-9.5829145052094056],[-77.731856105925132,-9.5821949490927363],[-77.731993167398073,-9.5814411356457949],[-77.732061693751291,-9.5806873312887237],[-77.732267280635725,-9.5798992491891823],[-77.732524264855201,-9.5792996264390258],[-77.732901171642709,-9.5784430177019662],[-77.733415131432636,-9.5776206779656867],[-77.733894832367341,-9.5769011321070554],[-77.734648646195126,-9.576044525391687],[-77.735265398293336,-9.575393503687728],[-77.735779366317928,-9.574982330377928],[-77.736533181386847,-9.5743998354031898],[-77.737218469236581,-9.5739201437162453],[-77.73804080887092,-9.5736117630179542],[-77.739377107349696,-9.5730292691961232],[-77.739993868826218,-9.5725838362010229],[-77.74071341567128,-9.5720698670580813],[-77.741313038850009,-9.5717786249161527],[-77.742272439771725,-9.5712646572003131],[-77.743197573263274,-9.5707164297061169],[-77.744054180757999,-9.5702709972538127],[-77.744670932856835,-9.569996883890628],[-77.745972974840129,-9.569654244071252],[-77.746726787813571,-9.5694143903257185],[-77.747103694853024,-9.5691402757469621],[-77.747446343935778,-9.5687976367158747],[-77.748097364108503,-9.5680780909815173],[-77.748816910871355,-9.5673928026206454],[-77.749776311557383,-9.5668788339519359],[-77.750907022839883,-9.5665361949304302],[-77.751797898828599,-9.5663648747765997],[-77.752928619430861,-9.5661592882565891],[-77.753888019938245,-9.5659194431947281],[-77.754658964320626,-9.5655939321868342],[-77.755858211094747,-9.5651484898926995],[-77.75695466304299,-9.5647715832199918],[-77.758119651842449,-9.5644974696915313],[-77.759284631035499,-9.5641548308518427],[-77.76024403273766,-9.563846449865542],[-77.761340486189113,-9.5633667579628394],[-77.761957247863307,-9.5629213162173556],[-77.762642525773899,-9.5625101506017955],[-77.763670454005108,-9.5620304501724789],[-77.764766916201836,-9.5613794288504792],[-77.765520720750374,-9.560899728713725],[-77.766206008946796,-9.5603857604426921],[-77.766754236181185,-9.5598718018291553],[-77.767473791237961,-9.5591865136776946],[-77.768193337064105,-9.5587068128591959],[-77.769255523364492,-9.5581243286368274],[-77.770180666360275,-9.5576103595872066],[-77.771140056665104,-9.5571649278893265],[-77.772133726317236,-9.556788020236743],[-77.772733349835363,-9.556531035726664],[-77.773692742216809,-9.5560856040816677],[-77.774446555793972,-9.5556744283850463],[-77.775029049765408,-9.5552632637414696],[-77.775543017985157,-9.5546122428803404],[-77.775817131582755,-9.5540297489451849],[-77.776091244963055,-9.5532074086732059],[-77.776262565016552,-9.5525906469563679],[-77.776570946387736,-9.5520766877974506],[-77.776724861279774,-9.5519667417337821]]]},"properties":{"OBJECTID":913,"CODIGO":"1375966","NIVEL":7,"NIVEL7":"1375966","NOMB_UH_N7":"Vado","Nombre_UH":"Cuenca Vado","AREA_KM2":163.73079999999999,"AREA_FINAL":162.86179999999999}}]}