{"type":"FeatureCollection","crs":{"type":"name","properties":{"name":"EPSG:4326"}},"features":[{"type":"Feature","id":917,"geometry":{"type":"Polygon","coordinates":[[[-77.646758189829711,-9.6026588887329112],[-77.64671188097239,-9.6025575979194446],[-77.646478570129403,-9.6022916255943098],[-77.646169057243739,-9.6021409929052339],[-77.64589779663639,-9.6019518113196032],[-77.645587703728339,-9.6017246723695528],[-77.645315845174366,-9.6014589946213444],[-77.645044290423343,-9.6012315710586229],[-77.644772725094086,-9.6010041472658063],[-77.644462337701711,-9.6007387549798455],[-77.644113991815473,-9.6005501643643623],[-77.643726528198968,-9.6002853711594529],[-77.643454078701211,-9.5999431982555521],[-77.643372246716851,-9.5993318091336803],[-77.643406639001924,-9.5987960330271171],[-77.643248026023656,-9.5982234773164272],[-77.643206519717396,-9.5978412823710055],[-77.643240017435872,-9.5971907658517797],[-77.643352674419688,-9.5968073923370714],[-77.643619473000243,-9.5964228467468189],[-77.643771256884833,-9.5961156836105985],[-77.643960990233239,-9.5957317204026111],[-77.644266926605539,-9.5954233758793137],[-77.644572864267673,-9.5951150339257385],[-77.644801124695476,-9.594730774428994],[-77.64495113121005,-9.5941941225489451],[-77.645006559820786,-9.593887691162962],[-77.645311908435858,-9.5935028425940292],[-77.645580486158607,-9.5933477870515027],[-77.64565667681137,-9.5932324577312205],[-77.645537495684536,-9.5927743570336883],[-77.645381565441184,-9.5925460383154277],[-77.645225329670211,-9.5922794767033448],[-77.645145285696131,-9.591897575823964],[-77.644949922850373,-9.591554812729294],[-77.644678377011587,-9.5913273802579866],[-77.644445959966916,-9.5911761560416515],[-77.644059978716825,-9.5911025991440937],[-77.643751380049025,-9.591066705092878],[-77.64351925715998,-9.5909537248110084],[-77.643209468314936,-9.5907648387832758],[-77.642785254005233,-9.5907298200165112],[-77.642438106594554,-9.5906942197967062],[-77.64201477655061,-9.5907739505692913],[-77.641552614661336,-9.5908157319204435],[-77.641051619130039,-9.5908195546358499],[-77.640549434289298,-9.5906703767239758],[-77.640200812545771,-9.5904435329608617],[-77.639889835642506,-9.5901016451594128],[-77.63961652119994,-9.5896447132291822],[-77.639266415899399,-9.5892266240674218],[-77.639111379086231,-9.5891130453671369],[-77.638685681264349,-9.5888867912695339],[-77.638299701304092,-9.5888132241998854],[-77.637836948660407,-9.5887785003043877],[-77.637258287345588,-9.5887064076839437],[-77.6368331791912,-9.5885566388673436],[-77.636407186336868,-9.5882921219945523],[-77.636019437376859,-9.5879890679696889],[-77.635671119693868,-9.5878004575626807],[-77.635168640863114,-9.5876130259578378],[-77.634743837064505,-9.5875015006808901],[-77.63435786574135,-9.5874279348275184],[-77.633894219079352,-9.587278461068772],[-77.633507364086014,-9.5870901464405076],[-77.633159341564991,-9.5869397878558011],[-77.632695106344386,-9.5867138094293818],[-77.632307661273785,-9.5864489885484669],[-77.631920510883305,-9.5862224202739359],[-77.631533655931875,-9.586034104636262],[-77.631070017880702,-9.5858846216763176],[-77.630605792222411,-9.5856586432372808],[-77.630063596148048,-9.5853184957969866],[-77.629637021591265,-9.5849774732564601],[-77.629209869390422,-9.58455994601273],[-77.628821835146923,-9.5842186277147796],[-77.628473517604249,-9.5840300179140119],[-77.628145059565014,-9.5839177518686949],[-77.62752639543227,-9.5836546901972],[-77.627177192909144,-9.5833513214206505],[-77.626674133948057,-9.5830873749263876],[-77.62624845513669,-9.5828610912425152],[-77.625668034341459,-9.582559481695375],[-77.62528058910479,-9.5822946520432204],[-77.624931102028953,-9.5819530401549162],[-77.624581319752991,-9.5815731752033688],[-77.624232127169336,-9.5812698057260768],[-77.623960600814002,-9.5810423527810933],[-77.623649947648815,-9.5807386897507119],[-77.623416074193926,-9.5803961930871484],[-77.623374892817637,-9.5800522423382208],[-77.623526686816191,-9.5797450867574927],[-77.623794399065417,-9.5794752914105654],[-77.623985024631878,-9.5792060957450929],[-77.624213019592958,-9.5787836025890272],[-77.624287453257097,-9.5784387759993468],[-77.624399537660679,-9.5779789064340317],[-77.62447249614975,-9.5774428343787115],[-77.624661069200997,-9.5769058781673486],[-77.624889054252677,-9.5764833861158785],[-77.625078511063194,-9.5760611866281362],[-77.625190597226009,-9.5756013271621452],[-77.625379463675003,-9.5751026226932012],[-77.625452716885221,-9.5746047943984856],[-77.625525084731819,-9.5739922266748518],[-77.625596579086093,-9.5732649113089696],[-77.625651437065628,-9.5728819730266466],[-77.625762648107084,-9.5723073643171563],[-77.62583707136676,-9.5719625372409567],[-77.625910618361516,-9.5715029616401353],[-77.6259067952424,-9.5710057232651362],[-77.626017712175695,-9.570392860378174],[-77.626168031235025,-9.5698944508703505],[-77.626356897960534,-9.5693957487347756],[-77.626545756166848,-9.5688970539212921],[-77.626773741336564,-9.5684745606611461],[-77.62700261140715,-9.568166817595527],[-77.62727030454505,-9.5678970316678118],[-77.627537998095576,-9.5676272356971754],[-77.627728919995334,-9.5673962837204485],[-77.628035447217968,-9.5671644563525717],[-77.628380804677832,-9.566970585823233],[-77.62853376886423,-9.5668164240930231],[-77.628454639249043,-9.5665492632411038],[-77.628183416549433,-9.5663600535906639],[-77.627873361838638,-9.5661328956014238],[-77.627332982382299,-9.5660222357250042],[-77.626869373278893,-9.5658727347068293],[-77.626482536559465,-9.5656844000531489],[-77.62609630041716,-9.5655725706983521],[-77.62559444830282,-9.5654616171587108],[-77.625207326997796,-9.565235029962988],[-77.624819320967177,-9.5648937026188285],[-77.624509570054045,-9.5647047877428157],[-77.624160986719218,-9.5644779157476414],[-77.62384976198058,-9.5640977462122549],[-77.623499712776052,-9.5636796283165726],[-77.623111412256847,-9.5633000491372524],[-77.622705031046493,-9.5630736053650764],[-77.622357331873957,-9.5629614814511754],[-77.622046696895509,-9.5626578083381997],[-77.62185020225229,-9.5621620239391323],[-77.621730783584141,-9.5616656501497896],[-77.621687850854286,-9.5610922008107089],[-77.621606685437982,-9.5605572903772114],[-77.621527269631883,-9.5602518760668538],[-77.621369607093186,-9.5597940507748334],[-77.621096636322946,-9.5593753431064634],[-77.620707763555629,-9.5589192582079434],[-77.620397432666067,-9.558653837560378],[-77.619856766646237,-9.5585049067835204],[-77.619431411560242,-9.5583168578315529],[-77.619006932127348,-9.5582435484432846],[-77.618389200329275,-9.5580951969494308],[-77.617692337259101,-9.5576796853137473],[-77.61738259618204,-9.5574907612020681],[-77.617186404971719,-9.5570332106880542],[-77.61710495390362,-9.5564600559009492],[-77.617023493281664,-9.5558868920450486],[-77.617058522025047,-9.5554276022898712],[-77.617131499067355,-9.5548915311617133],[-77.617243593668789,-9.554431660141022],[-77.617278328335203,-9.5539341257771255],[-77.617311891826759,-9.553283591013459],[-77.61746048072861,-9.5525556954083886],[-77.617610818845662,-9.5520572860594726],[-77.617799106417522,-9.5514820963104619],[-77.617911201091388,-9.5510222246215477],[-77.618230852594365,-9.5499870218498923],[-77.618459132877163,-9.5496027816583986],[-77.618648884161075,-9.5492188370420834],[-77.618953357194769,-9.5487192688528761],[-77.619180761661625,-9.5482202901503541],[-77.619292562125196,-9.547722175891213],[-77.619326707249925,-9.5471481366203061],[-77.619476750754416,-9.5466114839504463],[-77.619550316844297,-9.546151909127552],[-77.61958533563363,-9.5456926282613601],[-77.61958037186281,-9.5450423881406881],[-77.619535985186232,-9.5442776835677989],[-77.619528974325945,-9.5433596929655042],[-77.619601656678597,-9.5427853681392083],[-77.619751700581688,-9.5422487167541927],[-77.61994114786998,-9.5418265191624005],[-77.620207672085073,-9.5414037511464826],[-77.620473604653284,-9.5409044767442044],[-77.620777487636005,-9.5403284111712914],[-77.620967230928159,-9.5399444671979605],[-77.621309650847721,-9.5393681059438755],[-77.621613819435908,-9.5388302948940691],[-77.621802389863518,-9.538293347304311],[-77.622029786859898,-9.5377943676286563],[-77.622334838794245,-9.537371295639252],[-77.62264017620744,-9.5369864853470414],[-77.623022580669755,-9.5366010852803047],[-77.62332850796129,-9.5362927610762647],[-77.623787969411211,-9.5359067898866314],[-77.624093012253525,-9.5354837182912426],[-77.624435718088037,-9.5349456099596459],[-77.624739001202713,-9.5342930495674576],[-77.625081117248044,-9.5336784467797155],[-77.625385274569538,-9.5331406343263971],[-77.625575008396964,-9.532756689259493],[-77.625746651439982,-9.5325258790349938],[-77.626167869807702,-9.5321784461446324],[-77.626435258816429,-9.5318704168986006],[-77.626895006451136,-9.5315226803335094],[-77.627355055975215,-9.5312132049211282],[-77.627815391832357,-9.5309419636318911],[-77.62819836800881,-9.5306330698194284],[-77.628580172683499,-9.5301711638704081],[-77.62899992580644,-9.5296324773145695],[-77.629382607351957,-9.5292853303531828],[-77.629727347095383,-9.5290149626807974],[-77.630032959800886,-9.5286683961377943],[-77.630339164320787,-9.5283983253437281],[-77.630684779741884,-9.5282427082234324],[-77.630914505995193,-9.5280497220645213],[-77.63106657589141,-9.5277808119696559],[-77.631256307559909,-9.5273968670628122],[-77.631330731145184,-9.527052040287721],[-77.631518398686978,-9.5264003437950571],[-77.631629306969302,-9.5257874906585389],[-77.631779036392402,-9.5252125864398902],[-77.631969054116951,-9.5248668851253395],[-77.632274666928879,-9.5245203181042406],[-77.63246410581803,-9.5240981190832983],[-77.632653534356621,-9.5236759219584481],[-77.632842666702672,-9.5232154805952387],[-77.633147396071408,-9.5227541643706761],[-77.633413310966745,-9.5222548902752795],[-77.633641858305936,-9.5219088942285985],[-77.633830697441553,-9.5214101996122711],[-77.633923503812284,-9.520950481421421],[-77.634035875351628,-9.5205288736744151],[-77.634148825836718,-9.5201837617174867],[-77.634300306435435,-9.5198383551096377],[-77.634452375027081,-9.5195694441881695],[-77.634450615757629,-9.5193399462752097],[-77.634333564620732,-9.5191495756284006],[-77.634101205280061,-9.5189983249871908],[-77.633791786636365,-9.5188476533684128],[-77.633482369193516,-9.5186969913321438],[-77.633249723728184,-9.5185074865822195],[-77.632785013182342,-9.5182049830920263],[-77.632436770723842,-9.518016353755872],[-77.632127354340255,-9.5178656829187815],[-77.631818525763791,-9.5177915166143006],[-77.631471464404697,-9.5177558786507586],[-77.631161751124509,-9.5175669552460409],[-77.630967339372702,-9.5173389116611204],[-77.630887647277305,-9.5169952557973829],[-77.630922077336663,-9.5164594793173301],[-77.631034448233081,-9.5160378610363505],[-77.631107710983542,-9.5155400419129919],[-77.631258020586444,-9.5150416327350378],[-77.631293914202502,-9.5146971006575924],[-77.631329523313809,-9.5143143169611992],[-77.631210123788463,-9.5138179525809132],[-77.631014550614054,-9.5134369092825111],[-77.630857506714705,-9.513055579804174],[-77.630661926420728,-9.512674545167469],[-77.63050664141609,-9.5125227040930298],[-77.630235171921555,-9.5122952408905803],[-77.62973253092332,-9.5120695193226936],[-77.629384004055566,-9.5118426367285789],[-77.629073721150363,-9.5115772171600419],[-77.628569026431364,-9.5110837436227058],[-77.628297272415537,-9.5108180292434046],[-77.627910511278074,-9.5106296854469026],[-77.627601103358145,-9.5104790127222678],[-77.627099631725486,-9.5104062839620216],[-77.626635815265487,-9.5102185201677401],[-77.626210524933541,-9.5100304612615822],[-77.625745833321503,-9.5097279389592302],[-77.625397316229098,-9.5095010473474026],[-77.62516351033149,-9.5091585398339724],[-77.624967071594568,-9.5086627478539096],[-77.624808278433974,-9.5080519197017903],[-77.624765080030159,-9.5074402178676944],[-77.624798654012224,-9.5067896831114727],[-77.624716345810569,-9.5061017798373069],[-77.624479040110401,-9.5053002783757368],[-77.624359953551121,-9.5048421479257694],[-77.624354123958767,-9.5040771588208131],[-77.624464459716037,-9.5033878004006311],[-77.62453773105068,-9.5028899823328619],[-77.624727454782558,-9.5025060359814528],[-77.624917472554557,-9.5021603441147491],[-77.625183968426015,-9.5017375759583604],[-77.62537312056952,-9.5012771349802652],[-77.625523734785119,-9.5008169790926864],[-77.625713172450148,-9.500394789979369],[-77.625904066189236,-9.5001638470704446],[-77.62597965821125,-9.4999720218709918],[-77.626050799010414,-9.4996299819774936],[-77.626126401827477,-9.4994381567126283],[-77.626547296443945,-9.4990524712116144],[-77.626699956164444,-9.4988600658704119],[-77.626775843894251,-9.4987064941970196],[-77.626927628204911,-9.4983993390377037],[-77.627040874195032,-9.4980924708468777],[-77.627000890366489,-9.497901520717738],[-77.626729144024694,-9.4976357964286482],[-77.62657445043763,-9.4975604601215426],[-77.626304170068067,-9.49748598955623],[-77.626149760869211,-9.497448896703391],[-77.625995655968879,-9.4974500482174786],[-77.62572565999325,-9.4974138307847777],[-77.625455665769778,-9.4973776040788778],[-77.624912774706758,-9.4969226598923804],[-77.624294281333107,-9.4966595421760527],[-77.624061949784746,-9.4965082802283209],[-77.623905209648839,-9.4961651941132068],[-77.623749344650278,-9.4959368561248958],[-77.623129398451141,-9.4954824844390515],[-77.622935013681456,-9.4952544321728602],[-77.622663564352777,-9.4950269587563021],[-77.622353593878429,-9.4947997730640008],[-77.62215979128969,-9.4946482266180006],[-77.622080983755581,-9.494419298617105],[-77.621964238014613,-9.4942671722715808],[-77.622077493063301,-9.4939603038620906],[-77.62242192079664,-9.4936517144028016],[-77.622689576222612,-9.4933819365905201],[-77.622880184231846,-9.4931127501643218],[-77.623339891961209,-9.4927650333277249],[-77.623992539426936,-9.4924541215696028],[-77.624490491265519,-9.4920678754092407],[-77.624718456760249,-9.4916453921465358],[-77.624869367062814,-9.4912234889983278],[-77.625328494775815,-9.490799275202626],[-77.625672037733608,-9.4903759260689],[-77.626015580882282,-9.4899525867480943],[-77.626280611134376,-9.4893385642434271],[-77.626815626901106,-9.4887607766880642],[-77.627156831319027,-9.4880314347818366],[-77.627154795068279,-9.4877636851311351],[-77.627036003595734,-9.4873438072110652],[-77.626724294364763,-9.486887131661927],[-77.626490222193013,-9.4865063735616051],[-77.626099703652017,-9.4858207719425245],[-77.625942395338114,-9.4854011902685631],[-77.625786244868095,-9.4851345994091361],[-77.625629230356623,-9.4847532610535161],[-77.62551189367889,-9.4845246282101634],[-77.625432800867941,-9.4842574580172769],[-77.625468420058112,-9.4838746734357748],[-77.62565872292069,-9.4835672338139325],[-77.62604108914482,-9.4831818525503806],[-77.62646255499854,-9.4828726730036053],[-77.62669109077234,-9.4825266950620328],[-77.627227257648045,-9.4821019005539746],[-77.627494039042034,-9.4817173850596905],[-77.627684626780621,-9.4814481977933269],[-77.627950819188413,-9.480987176958493],[-77.628294645796061,-9.4806020811657401],[-77.628753175726956,-9.4801013713827977],[-77.628942308573642,-9.479640929826294],[-77.629132031946469,-9.4792569853295987],[-77.629360560436169,-9.4789110078761247],[-77.629627921182333,-9.4786029881627165],[-77.629933209825637,-9.4782181766875819],[-77.630238214645686,-9.4777951233200142],[-77.630774666883241,-9.4774085816810878],[-77.631194659193099,-9.4769081574312999],[-77.631615238874573,-9.4764842290065321],[-77.632036400667047,-9.4761367963754868],[-77.632302876732595,-9.4757140282097296],[-77.632531404642535,-9.4753680491817107],[-77.632837864089936,-9.4751362413033497],[-77.633145768675234,-9.4750956768871148],[-77.633493383390601,-9.4752078098396453],[-77.633802753829286,-9.4753584909275634],[-77.633881266017582,-9.475549155897216],[-77.633998011973915,-9.4757012922176216],[-77.634577063227994,-9.4758499381413017],[-77.634886432716741,-9.4760006188985209],[-77.635233752096184,-9.4760745090623324],[-77.635655492599454,-9.4758035717080933],[-77.636192516250205,-9.4754935272235699],[-77.63684511522105,-9.4751825968686614],[-77.637305671310969,-9.4749496277664207],[-77.63795855458774,-9.4746769509817703],[-77.638188243316577,-9.4744839648984218],[-77.63849411338461,-9.4741756513303219],[-77.63887848606349,-9.4740580009257371],[-77.639378739345915,-9.4739777290068972],[-77.639572827934998,-9.4741675275752648],[-77.639689575195391,-9.4743196551277808],[-77.639807481174017,-9.4746247738034768],[-77.639963344948626,-9.4748531018686872],[-77.640196543448454,-9.4751191032638502],[-77.640854107343316,-9.4754584116920277],[-77.641202595222438,-9.4756852947991224],[-77.641319920742248,-9.4759139169776851],[-77.641359914375997,-9.476104867775744],[-77.641554297882763,-9.4763329096113562],[-77.641709572010583,-9.4764847418777229],[-77.642135109163291,-9.4767110442959108],[-77.642443603603041,-9.4767469660445904],[-77.642752393597448,-9.4768211423922519],[-77.642945607964208,-9.4768961833446568],[-77.643100588170228,-9.4770097616762961],[-77.643235433268927,-9.4770087449540021],[-77.643506569613407,-9.4771979542943061],[-77.643738312272902,-9.4772727102264707],[-77.644085630656633,-9.4773465898425258],[-77.644740559352613,-9.4773416448391679],[-77.645202284715154,-9.4772616582365607],[-77.645626355688336,-9.4772967058336892],[-77.646475089371378,-9.4774432972125329],[-77.64728383700394,-9.4773989379991139],[-77.648245217164259,-9.4771621552674983],[-77.648627536167552,-9.4767767553246642],[-77.64905014288604,-9.4766205577602278],[-77.64935628822343,-9.4763504870982231],[-77.649778305839988,-9.4761177840220103],[-77.650430590318209,-9.4757685911473999],[-77.650812908750595,-9.4753831907521047],[-77.651386673442829,-9.4748433336398463],[-77.65188368258454,-9.4743423102956434],[-77.652150415842385,-9.4739577850332086],[-77.652494205799982,-9.4735726700324498],[-77.652799762551496,-9.4732261030014158],[-77.65318177719459,-9.4728024496108141],[-77.653832882889091,-9.4723002563158136],[-77.654137840314348,-9.4718771923549578],[-77.654482210284186,-9.4715685739277315],[-77.6546339658546,-9.4712614189426034],[-77.65463102660641,-9.4708789303398735],[-77.654436339396952,-9.4706126526595931],[-77.654165496659758,-9.4704616956963736],[-77.654048456852891,-9.4702713269492538],[-77.653969639304535,-9.4700424191313513],[-77.653966995006598,-9.4696981821608244],[-77.654270782816283,-9.4691221256732341],[-77.654384589947384,-9.4688917538541304],[-77.654419884558877,-9.4684707251506399],[-77.654417535918114,-9.4681647410202139],[-77.654530467780916,-9.4678196290108811],[-77.654796316649438,-9.4673203554542837],[-77.654813522193919,-9.4670524620386143],[-77.654892567080637,-9.4668108846297567],[-77.655116538394566,-9.4670527380218843],[-77.65549344506789,-9.4674639031058465],[-77.655904621386867,-9.4677722836238072],[-77.656384312376616,-9.4680121387485112],[-77.656966804632248,-9.4681834577542716],[-77.657652093975443,-9.4681491910685587],[-77.658063268588748,-9.4682177168091322],[-77.658440166390292,-9.4683890459272355],[-77.658919867068477,-9.4686631588185168],[-77.659605154239912,-9.4691428507531441],[-77.660187649130322,-9.469485498680287],[-77.660872926775127,-9.4697938710919551],[-77.66135262797971,-9.4699309317487259],[-77.661969390206124,-9.4701707774138981],[-77.662414822722909,-9.4704106330403928],[-77.662860256250951,-9.4707532718712546],[-77.663305688270214,-9.4712672402150115],[-77.663853914815903,-9.4719867863675944],[-77.664779058377931,-9.4730832402326648],[-77.665224491547093,-9.4738713209953236],[-77.665430078852665,-9.4744538157629794],[-77.66573844999661,-9.4755502688001254],[-77.666081098674198,-9.4764068757822724],[-77.666526532032918,-9.4772977427774148],[-77.667109026146647,-9.4781543501498184],[-77.667640113848819,-9.4787197061618365],[-77.668428196078281,-9.4794049942900909],[-77.669250535641936,-9.4799532201563412],[-77.669935824072027,-9.4804329196947208],[-77.670312730799353,-9.4807755600099295],[-77.670552575548967,-9.4812552602034614],[-77.670655370065177,-9.4817006939915967],[-77.670655369984104,-9.4822831879741489],[-77.670586843660075,-9.4833796413705436],[-77.670621111546851,-9.4844761037344831],[-77.67082668975867,-9.485675351013839],[-77.670963751192957,-9.4865319582387748],[-77.671066544324489,-9.4874913498123998],[-77.671066544017492,-9.488656338898716],[-77.671135071370415,-9.4895814725916772],[-77.671272132001633,-9.4902324926771868],[-77.671546244656312,-9.4906436668581495],[-77.671991678307137,-9.4910548329120736],[-77.672437110562939,-9.4913974811753619],[-77.672985338266514,-9.4917401208996335],[-77.673567832295404,-9.4922198212870672],[-77.673979006789494,-9.4926309861971525],[-77.67445869754448,-9.493282005796285],[-77.674801346751906,-9.494035820985264],[-77.675418098842499,-9.4951322830450398],[-77.676103386815683,-9.4960916753873441],[-77.676497422835951,-9.4965199783621301],[-77.676977123217725,-9.4969311529305642],[-77.677456824385629,-9.4971024725940065],[-77.678039318721019,-9.4969996800861392],[-77.678758864720095,-9.4967598341478769],[-77.679546936948626,-9.4966570396154193],[-77.680300750763251,-9.4966227723456562],[-77.680883244765795,-9.4966912978865228],[-77.681876904897692,-9.4969654211101791],[-77.682870573624811,-9.4973423187187667],[-77.683932759821175,-9.497753492893823],[-77.685200542283368,-9.4982674621387595],[-77.686296995033601,-9.4986101010893158],[-77.687187869895439,-9.4987814214057291],[-77.688181530049349,-9.4988842140285588],[-77.688746884881411,-9.4988670850231589],[-77.68932937993479,-9.4987300243116035],[-77.689911874221266,-9.4984559099992918],[-77.690665687748137,-9.4981475286226207],[-77.69172788300537,-9.4978734156638218],[-77.692995656335412,-9.4977020966306362],[-77.694366223221465,-9.4974965086387346],[-77.695462685046763,-9.4972909307988083],[-77.696216489928247,-9.4972909308516424],[-77.697278683563852,-9.4973594567461426],[-77.698203817577934,-9.4973251893426447],[-77.699094693060218,-9.4970168076651706],[-77.699608651743446,-9.4967084369139769],[-77.700602311252368,-9.4961944691975333],[-77.701253340659818,-9.4960231491109166],[-77.701733032351484,-9.4960231490799831],[-77.702349794963141,-9.496228737039651],[-77.702863753562056,-9.4965371168341903],[-77.703240660102892,-9.496879756564228],[-77.703668964060284,-9.4973765859162587],[-77.704148665376124,-9.49795908111793],[-77.704731158985226,-9.4984387807334922],[-77.705313653091935,-9.4988156885627877],[-77.705793345213905,-9.4989870081206522],[-77.706273044812818,-9.4991925947738469],[-77.707026859192538,-9.4992268526082846],[-77.707575085991436,-9.4992953894270773],[-77.707917735387255,-9.4994667093837801],[-77.708191847773236,-9.499706553771933],[-77.708500218654549,-9.5003575736665695],[-77.708842867561984,-9.501111388309246],[-77.709151240128392,-9.5018309353978356],[-77.70945962065629,-9.5021735841781574],[-77.709596682209238,-9.502242109410064],[-77.709905054426159,-9.5021735841915387],[-77.710898723013827,-9.5017281497734771],[-77.711823855898956,-9.5013169762908056],[-77.712440608786352,-9.5011456563168171],[-77.71312589741251,-9.5012484503274486],[-77.715147484328767,-9.5020365206897495],[-77.717271864331437,-9.5024134292232638],[-77.718145609884004,-9.5024305576445833],[-77.718967949730057,-9.5022935061750964],[-77.719481908863671,-9.5020536611756601],[-77.719858816150563,-9.5017110119767079],[-77.72009866954582,-9.5013683725620783],[-77.720372783910861,-9.5011970526125378],[-77.720681156323209,-9.5011627853273151],[-77.720955278382903,-9.5011970530863703],[-77.721229392297317,-9.5012998458148594],[-77.721743350846111,-9.5016082181451846],[-77.722360103104037,-9.5019165988826746],[-77.723490824316158,-9.5023962997667635],[-77.724415957696039,-9.5027046812422373],[-77.72511837499097,-9.5028588623864021],[-77.726112044223783,-9.5031329750025915],[-77.727139971325357,-9.5033043038759004],[-77.7277909905619,-9.5033043044487346],[-77.728510536975818,-9.5034413555711197],[-77.729093031859463,-9.5036812108299955],[-77.729435671192419,-9.5039210573464317],[-77.729709784017885,-9.5042294368985925],[-77.730429340262987,-9.5049832518688291],[-77.73104609185242,-9.5054629524440735],[-77.732074019954354,-9.5062167556742541],[-77.732622246794278,-9.5064566118497051],[-77.733650174031425,-9.5070733642716085],[-77.734129874180383,-9.5074845386609415],[-77.734849420297834,-9.5081355592694585],[-77.735226326691674,-9.5085467243342183],[-77.735723156565797,-9.5092834087450377],[-77.736374178334216,-9.5102428106153791],[-77.737093733386772,-9.5110994190240081],[-77.737641960222575,-9.5116476443573656],[-77.738087392699725,-9.5120245517033055],[-77.738155918090072,-9.5121616027202496],[-77.738190185856297,-9.5123671909999263],[-77.738190186351275,-9.5125727789029568],[-77.738087393143616,-9.5134636436572269],[-77.73812166025219,-9.5145258388405747],[-77.738258713107768,-9.5153824470052015],[-77.738498566955869,-9.5161362598953225],[-77.738841206576964,-9.5167530138796526],[-77.739149587306855,-9.5176438878272993],[-77.739355165297681,-9.5188773939480384],[-77.739492227047123,-9.5198025268787934],[-77.739697814427302,-9.5208647221819653],[-77.7399034015734,-9.5213786910473477],[-77.740348833991476,-9.5220982366921429],[-77.740897061324745,-9.5227835246215573],[-77.741376761807118,-9.5232632160929249],[-77.741907858723891,-9.5236229939387869],[-77.742867251213724,-9.5243425403082718],[-77.743621064586662,-9.5251306223550678],[-77.744923105314768,-9.5265011878567343],[-77.745779713407629,-9.5274263205844942],[-77.746636320606129,-9.5284885171302243],[-77.747390134038369,-9.5292765977404432],[-77.748212474221532,-9.529996144596085],[-77.748606511189124,-9.5303216539153777],[-77.749257531181499,-9.5308698806472325],[-77.749874293277742,-9.5315209006227715],[-77.750285457813249,-9.5323775091863574],[-77.750593838878899,-9.5333369100456977],[-77.750730901044818,-9.5346732093395676],[-77.750833694424358,-9.5360780431072065],[-77.751005014223551,-9.5372087644408072],[-77.751553240760785,-9.538682124160724],[-77.752512641874674,-9.5401212272798652],[-77.75381468193919,-9.5412862059725239],[-77.754979660760625,-9.5418344409743163],[-77.755767743212616,-9.5419372263657642],[-77.756795670395135,-9.5419372262686224],[-77.757480948040765,-9.5418344407595654],[-77.75802918469499,-9.5415945866436385],[-77.758474616901054,-9.5413547409912276],[-77.758885782606697,-9.5409778342934359],[-77.759296957312912,-9.5406351855883571],[-77.760050772062698,-9.5404296079148097],[-77.760701791808174,-9.5403610715516454],[-77.761524131866821,-9.5402582778221809],[-77.76303175896085,-9.540189751601206],[-77.764093954856719,-9.5400869593251745],[-77.764916294660992,-9.5399841652378399],[-77.765635839795252,-9.53981284513487],[-77.766389654701428,-9.5394359393278592],[-77.767143468382756,-9.539230350833213],[-77.768411240668073,-9.5391960931189175],[-77.770090188932841,-9.5394016801934391],[-77.770826874188728,-9.5394188090835694],[-77.771786275317567,-9.539453076867062],[-77.772711409137642,-9.5396243955685822],[-77.773568016436457,-9.5398985092586717],[-77.774219036411083,-9.5402411490437622],[-77.774767263106085,-9.5406523240413517],[-77.775384016153041,-9.5411320244004543],[-77.776000777658638,-9.5415089323944766],[-77.776549004228755,-9.5416802506823704],[-77.777097230333553,-9.5417830450891934],[-77.777542664364972,-9.5419886230654747],[-77.778022365016994,-9.5424683233334626],[-77.77863911712646,-9.5430165502319557],[-77.77939634521708,-9.543312671130801],[-77.779153084768652,-9.5439416830216164],[-77.779050292036729,-9.5451066718363489],[-77.7788789721629,-9.5461345990563995],[-77.778536323384316,-9.5477107530966645],[-77.778159416268636,-9.5486016282152697],[-77.777885303219364,-9.5492869069446904],[-77.77740561082058,-9.5499036683144496],[-77.777062962776824,-9.5504176273744523],[-77.776788849676421,-9.5511029152226996],[-77.776724861279774,-9.5519667417337821],[-77.776570946387736,-9.5520766877974506],[-77.776262565016552,-9.5525906469563679],[-77.776091244963055,-9.5532074086732059],[-77.775817131582755,-9.5540297489451849],[-77.775543017985157,-9.5546122428803404],[-77.775029049765408,-9.5552632637414696],[-77.774446555793972,-9.5556744283850463],[-77.773692742216809,-9.5560856040816677],[-77.772733349835363,-9.556531035726664],[-77.772133726317236,-9.556788020236743],[-77.771140056665104,-9.5571649278893265],[-77.770180666360275,-9.5576103595872066],[-77.769255523364492,-9.5581243286368274],[-77.768193337064105,-9.5587068128591959],[-77.767473791237961,-9.5591865136776946],[-77.766754236181185,-9.5598718018291553],[-77.766206008946796,-9.5603857604426921],[-77.765520720750374,-9.560899728713725],[-77.764766916201836,-9.5613794288504792],[-77.763670454005108,-9.5620304501724789],[-77.762642525773899,-9.5625101506017955],[-77.761957247863307,-9.5629213162173556],[-77.761340486189113,-9.5633667579628394],[-77.76024403273766,-9.563846449865542],[-77.759284631035499,-9.5641548308518427],[-77.758119651842449,-9.5644974696915313],[-77.75695466304299,-9.5647715832199918],[-77.755858211094747,-9.5651484898926995],[-77.754658964320626,-9.5655939321868342],[-77.753888019938245,-9.5659194431947281],[-77.752928619430861,-9.5661592882565891],[-77.751797898828599,-9.5663648747765997],[-77.750907022839883,-9.5665361949304302],[-77.749776311557383,-9.5668788339519359],[-77.748816910871355,-9.5673928026206454],[-77.748097364108503,-9.5680780909815173],[-77.747446343935778,-9.5687976367158747],[-77.747103694853024,-9.5691402757469621],[-77.746726787813571,-9.5694143903257185],[-77.745972974840129,-9.569654244071252],[-77.744670932856835,-9.569996883890628],[-77.744054180757999,-9.5702709972538127],[-77.743197573263274,-9.5707164297061169],[-77.742272439771725,-9.5712646572003131],[-77.741313038850009,-9.5717786249161527],[-77.74071341567128,-9.5720698670580813],[-77.739993868826218,-9.5725838362010229],[-77.739377107349696,-9.5730292691961232],[-77.73804080887092,-9.5736117630179542],[-77.737218469236581,-9.5739201437162453],[-77.736533181386847,-9.5743998354031898],[-77.735779366317928,-9.574982330377928],[-77.735265398293336,-9.575393503687728],[-77.734648646195126,-9.576044525391687],[-77.733894832367341,-9.5769011321070554],[-77.733415131432636,-9.5776206779656867],[-77.732901171642709,-9.5784430177019662],[-77.732524264855201,-9.5792996264390258],[-77.732267280635725,-9.5798992491891823],[-77.732061693751291,-9.5806873312887237],[-77.731993167398073,-9.5814411356457949],[-77.731856105925132,-9.5821949490927363],[-77.731547734938346,-9.5829145052094056],[-77.731205085689794,-9.5833256698070777],[-77.730314220230682,-9.5841480095476133],[-77.729594674052251,-9.5845934533805153],[-77.728772324761664,-9.5849703602349994],[-77.727744397365726,-9.5853472662502917],[-77.727196170954699,-9.5855871120273122],[-77.726819262769965,-9.585895492942857],[-77.726442356787189,-9.5863066591484341],[-77.725757078899989,-9.586786358894539],[-77.725345903064664,-9.5871632648814149],[-77.724694882635035,-9.5878828206847189],[-77.724215182665219,-9.5884310478671857],[-77.723735481990758,-9.5889107392133184],[-77.723221522790581,-9.5893904403584571],[-77.722604771088172,-9.590178520823601],[-77.722022276091721,-9.5911379232883043],[-77.721439781704021,-9.5919945207127295],[-77.72111427203258,-9.5926284120839824],[-77.720668838714218,-9.5933479582351886],[-77.720257664087768,-9.594033246804937],[-77.719675169904377,-9.5946500077363286],[-77.71898989220341,-9.5952324942641187],[-77.718475922663487,-9.5956779360151057],[-77.718064757990533,-9.5961918954014553],[-77.717756376730378,-9.5967401207697574],[-77.717345203140937,-9.5974596668877101],[-77.716968295081728,-9.5979393676822635],[-77.716317274616941,-9.5983505433397305],[-77.715460676683335,-9.5985903876857428],[-77.714329955590728,-9.598864501920426],[-77.713130699601166,-9.5992071498685778],[-77.712376895429145,-9.5995497903121443],[-77.711383225818835,-9.6001322841028696],[-77.710595153962629,-9.6006462422203889],[-77.709875597829168,-9.6012287371367666],[-77.709327372337157,-9.6017769630799297],[-77.708830541601003,-9.6023080610315876],[-77.708487901847533,-9.6025479064126351],[-77.708076728400243,-9.6026849682451267],[-77.707151593739027,-9.6026849681230182],[-77.706637634708926,-9.6028220298196931],[-77.705815285811127,-9.6030961429280826],[-77.704753100643472,-9.603473050096742],[-77.703965019327015,-9.6037814214275343],[-77.702937091763999,-9.6040212756401822],[-77.702354597310261,-9.6041240703226638],[-77.701635051079464,-9.6041583293981567],[-77.700298743179161,-9.6041240696836656],[-77.699801912825492,-9.6041411985948901],[-77.698602665997086,-9.6043467860475289],[-77.697471945658918,-9.6045866316797905],[-77.696752399158427,-9.6048264873757638],[-77.695964318301151,-9.6051691256635223],[-77.695107709736547,-9.6055460326860445],[-77.694216844057181,-9.6058544140486202],[-77.693325979187577,-9.6061285272044028],[-77.69260642265435,-9.6062655787313673],[-77.6917840833909,-9.6062998468051912],[-77.690584836152354,-9.6062655792133018],[-77.689248528319922,-9.6063341049364119],[-77.688494714168698,-9.6065054347087013],[-77.687638106134543,-9.6066767535872852],[-77.686712972081594,-9.6069851261348518],[-77.685959158869608,-9.6073277737089295],[-77.685719312604519,-9.6074305683978647],[-77.685513726090704,-9.6075676199158799],[-77.68503394035568,-9.6079623598241302],[-77.684451445395993,-9.6083049987525495],[-77.683834692090514,-9.6085791123804682],[-77.682943816832093,-9.6089560188836245],[-77.682190002829628,-9.6095385139881522],[-77.681367664163446,-9.61025805971755],[-77.680648116993865,-9.6112517289517321],[-77.680236942715666,-9.6118684820867202],[-77.67979150945186,-9.6128621405862376],[-77.679517396235866,-9.6137872741717771],[-77.679277550123473,-9.6145068302234868],[-77.678969168975073,-9.6151921091262462],[-77.678489468911067,-9.6159116642908931],[-77.677872717455131,-9.6163913651215083],[-77.67735874835455,-9.6166654794413375],[-77.676570675820855,-9.6170766434255484],[-77.67605670818125,-9.6174192916663852],[-77.675439954637255,-9.6179675187884364],[-77.675063047627106,-9.6184814780684036],[-77.674514821931666,-9.6193038183991764],[-77.673589679048803,-9.620057632006743],[-77.673109987169639,-9.620366012930619],[-77.672835873827452,-9.620468806253113],[-77.672630286033723,-9.6204688059335375],[-77.672493224578616,-9.6204345376160525],[-77.672184854441142,-9.6202289508712315],[-77.671705153363618,-9.619646465629808],[-77.671156926198904,-9.6189611783846782],[-77.670574432984793,-9.6182416320789077],[-77.670146128902118,-9.6177105350032104],[-77.669632159571947,-9.6169909882822466],[-77.669220995034237,-9.6162714326367773],[-77.668912613556159,-9.6158602668647593],[-77.668638501013376,-9.6156546797675642],[-77.668261594136496,-9.615517619013513],[-77.667918953732666,-9.615449092688559],[-77.667576304848595,-9.615277774109785],[-77.66713087288673,-9.6150036598879609],[-77.666548378069976,-9.6145239591260712],[-77.666171472164947,-9.6142498463678852],[-77.665520451370085,-9.613907207141823],[-77.664800905043208,-9.6136330932775671],[-77.664252678006264,-9.6134275061268379],[-77.663807245874949,-9.6131533916635199],[-77.66319048338535,-9.6127422177200579],[-77.662505204998993,-9.6121597232212537],[-77.661888442568312,-9.6117142906381083],[-77.661408741583458,-9.6112688580029584],[-77.661134629009524,-9.6107891578961446],[-77.660997576630081,-9.6099668171909851],[-77.660929051424816,-9.6090759419386877],[-77.660791989859476,-9.608322137019945],[-77.660689196374719,-9.6080822827933581],[-77.660312288940048,-9.6076368488547654],[-77.660038174928957,-9.6072942100303322],[-77.659832589261057,-9.6069515621945936],[-77.659695536369654,-9.6067459752507887],[-77.659627010562986,-9.6065061286840319],[-77.659489949958541,-9.6061977481051137],[-77.659284362141278,-9.605855107755227],[-77.659044515569917,-9.6056495212951116],[-77.658667608661375,-9.6054439341550246],[-77.65818790767959,-9.6052383561463834],[-77.657399827149646,-9.6050327685827916],[-77.656885868273164,-9.6048271806356151],[-77.656166322069197,-9.6043817476683753],[-77.655275446773587,-9.6040391003363066],[-77.654487374669642,-9.6039363060112848],[-77.653562231225948,-9.6038335216642636],[-77.652739891307448,-9.6037649868980832],[-77.651420720597585,-9.603576536643665],[-77.650427062352733,-9.6033709503823452],[-77.648987959718809,-9.6030968373917265],[-77.648336939925443,-9.6029597758579239],[-77.64765165164242,-9.6028912492639282],[-77.647069158421289,-9.6027884556798853],[-77.646758189829711,-9.6026588887329112]]]},"properties":{"OBJECTID":917,"CODIGO":"1375968","NIVEL":7,"NIVEL7":"1375968","NOMB_UH_N7":"Pira","Nombre_UH":"Cuenca Pira","AREA_KM2":164.74979999999999,"AREA_FINAL":163.87540000000001}}]}