{"type":"FeatureCollection","crs":{"type":"name","properties":{"name":"EPSG:4326"}},"features":[{"type":"Feature","id":916,"geometry":{"type":"Polygon","coordinates":[[[-77.77939634521708,-9.543312671130801],[-77.779780984393994,-9.5419070567957682],[-77.780260684688699,-9.5407077999357721],[-77.780706117578504,-9.5399882553442037],[-77.781220087101175,-9.5392344401071707],[-77.781802579995542,-9.5387204816920832],[-77.782453601403333,-9.5380694610165673],[-77.783070353966508,-9.5374527004009444],[-77.783344466803484,-9.5370072660252223],[-77.783481528298751,-9.5363905144355368],[-77.783584322316315,-9.5353625864400957],[-77.783721374397302,-9.5339920105576965],[-77.783687115621774,-9.5327927643885708],[-77.783892693838169,-9.5317305777763117],[-77.78406401258745,-9.5307369094242578],[-77.784166806981048,-9.5299830963867986],[-77.784201075294106,-9.5291607556611329],[-77.784372393756556,-9.5279272408161457],[-77.784646506938969,-9.5274818087035307],[-77.785366063211171,-9.5267622615722871],[-77.786325454746617,-9.5261454996788064],[-77.787319124297937,-9.5257685927971192],[-77.788004401710722,-9.5255287471574341],[-77.788364180086688,-9.5253402991202414],[-77.788912406586149,-9.5247235368938465],[-77.789255045627371,-9.523901196817901],[-77.789666220624824,-9.5231473825967221],[-77.790111654232163,-9.522633423643013],[-77.790522828235339,-9.5222222500399329],[-77.790899734916167,-9.5219138681639386],[-77.791310901228016,-9.5216397547189615],[-77.791961920547209,-9.5212628479605144],[-77.792647209441228,-9.5208859414437725],[-77.793366755197155,-9.5206118271760349],[-77.794017776296855,-9.5203377142437446],[-77.794527540085653,-9.5202259042057591],[-77.794642489223591,-9.5206282247649892],[-77.794813808258979,-9.5212792447610326],[-77.794813807722107,-9.5217246771595683],[-77.794711013761244,-9.5222043778650107],[-77.794471168687863,-9.5227868733616088],[-77.794094261625091,-9.5234721609884456],[-77.793888673795081,-9.5240546448752426],[-77.793648829252064,-9.5248769946040639],[-77.793306180015648,-9.5254252212383417],[-77.793066334200049,-9.5258363857056807],[-77.792792220603346,-9.5265559417987458],[-77.792638030805406,-9.5271898238692856],[-77.792398186073441,-9.5279093801344956],[-77.792158329715392,-9.5286289257425985],[-77.792158330378754,-9.5292456785765083],[-77.792363917863725,-9.5298624413048127],[-77.792603762695208,-9.5304449246030263],[-77.792809350095979,-9.5310274201790151],[-77.792877876428676,-9.531781232732639],[-77.792775082344221,-9.532603573284117],[-77.792603763058992,-9.5333916549547482],[-77.7923981861247,-9.5340769338790707],[-77.792226855967897,-9.5345909023519333],[-77.792089803841066,-9.535550302836695],[-77.792089804439044,-9.5364069107084983],[-77.792089804389363,-9.5370921890366951],[-77.79214120130078,-9.5376232870058217],[-77.792278252771382,-9.5384798947699601],[-77.792518108328011,-9.5390966471368763],[-77.792895014919011,-9.5398847280905201],[-77.793306179681338,-9.5405357475650767],[-77.793717355348306,-9.5411867687225467],[-77.794094262245181,-9.5416322020378406],[-77.794505426573593,-9.5422489542650482],[-77.794779550161579,-9.5428314487889967],[-77.794848075419438,-9.5433111504254953],[-77.794813807772798,-9.5441677576824251],[-77.794642488955688,-9.5449900966875028],[-77.794642489197372,-9.5458809724133236],[-77.794779549715045,-9.5468403652854263],[-77.79491660195599,-9.5478340342055752],[-77.794916602237194,-9.5487248987810904],[-77.794745282259612,-9.5494101872890447],[-77.794608221423147,-9.5500954651903651],[-77.794436900945215,-9.5505751656477962],[-77.794094262027286,-9.5510891336829271],[-77.79334329074922,-9.5511344246540535],[-77.792041242079051,-9.5514427970071054],[-77.790704942634775,-9.551614115873118],[-77.789848335061919,-9.5516483835827941],[-77.788786139636557,-9.5515798576644073],[-77.787518366837318,-9.5512372094110933],[-77.786593233993244,-9.5508945701991745],[-77.785565307110843,-9.5506889833495432],[-77.784845759901089,-9.5506889826720318],[-77.783749297797414,-9.5509288381603099],[-77.782755639163298,-9.5512714771616398],[-77.782087489339773,-9.5515969880893898],[-77.781025293823149,-9.552076688402499],[-77.780614119245783,-9.552213740201605],[-77.779791779089052,-9.5522137400490781],[-77.778524006190622,-9.5520081621751416],[-77.777564605216824,-9.5518025743623696],[-77.77711917176201,-9.5518025739460501],[-77.776810792411951,-9.5519053690841673],[-77.776724861279774,-9.5519667417337821],[-77.776788849676421,-9.5511029152226996],[-77.777062962776824,-9.5504176273744523],[-77.77740561082058,-9.5499036683144496],[-77.777885303219364,-9.5492869069446904],[-77.778159416268636,-9.5486016282152697],[-77.778536323384316,-9.5477107530966645],[-77.7788789721629,-9.5461345990563995],[-77.779050292036729,-9.5451066718363489],[-77.779153084768652,-9.5439416830216164],[-77.77939634521708,-9.543312671130801]]]},"properties":{"OBJECTID":916,"CODIGO":"1375967","NIVEL":7,"NIVEL7":"1375967","NOMB_UH_N7":"Medio Alto Casma","Nombre_UH":"Medio Alto Casma","AREA_KM2":3.9700000000000002,"AREA_FINAL":3.9489000000000001}}]}