{"type":"FeatureCollection","crs":{"type":"name","properties":{"name":"EPSG:4326"}},"features":[{"type":"Feature","id":931,"geometry":{"type":"Polygon","coordinates":[[[-78.142525993906602,-9.2687765987241661],[-78.142723906319048,-9.2686686404040088],[-78.142985645607837,-9.2684544842020316],[-78.143199802891999,-9.2680975675887538],[-78.1432949789356,-9.2678358293731584],[-78.143437745574886,-9.267574089402574],[-78.143580513925087,-9.2674313221032136],[-78.143866050254914,-9.2671933678338565],[-78.144175382930271,-9.2669554247187165],[-78.144413325794247,-9.2665509182595773],[-78.144579890378353,-9.2661940016837345],[-78.144675065796108,-9.265813281080856],[-78.144865425791579,-9.265099451860948],[-78.14529373002047,-9.2644094081820789],[-78.145555469663066,-9.26400489055351],[-78.145793413310813,-9.2635528003485774],[-78.146007570249083,-9.2631720792569894],[-78.146197919874496,-9.2628389607747401],[-78.146328789773818,-9.2625177300222941],[-78.146447770558382,-9.2620894271291885],[-78.146685715244701,-9.261684919154213],[-78.146899862058092,-9.2616373260654559],[-78.147827858228752,-9.2614707723503447],[-78.148351337825517,-9.2612090317413855],[-78.149041381185924,-9.2608521067001011],[-78.149588655559739,-9.2605903678126431],[-78.150016960141258,-9.260162064398088],[-78.150683207898567,-9.2596861778802637],[-78.15111151110689,-9.2594006412888064],[-78.151301871350555,-9.2590675131211828],[-78.151444638789783,-9.2586868019538251],[-78.151611193672267,-9.2581157301033628],[-78.151849146943235,-9.2574970659022497],[-78.152158470311349,-9.256664254155039],[-78.152681958275707,-9.255736268133619],[-78.153157845341838,-9.2549748356069479],[-78.153574251196318,-9.2543680793379632],[-78.153812194577313,-9.2536780358519373],[-78.153978758342078,-9.2531069638091452],[-78.154192915175372,-9.2520124130135439],[-78.154549830264273,-9.2512033970542085],[-78.154882959134127,-9.2508464726913378],[-78.155263670408729,-9.2507275013029346],[-78.155787149428264,-9.2507037048808023],[-78.156453395945078,-9.2507512972519432],[-78.15685791324421,-9.2507988898473936],[-78.157381391675827,-9.250822677242029],[-78.157928669194163,-9.2508226773872817],[-78.158618711692867,-9.250727500789715],[-78.15921357860762,-9.2504657621709541],[-78.159689466106315,-9.2501564299052195],[-78.160022595232348,-9.2498708939801588],[-78.160403305793764,-9.2494663874323315],[-78.16087920243001,-9.2490142872268351],[-78.161259913979208,-9.2487525464461342],[-78.161664421726115,-9.2483004558074118],[-78.161973752891015,-9.2478959478104468],[-78.162164103775865,-9.2475866161523115],[-78.162616204032574,-9.2472534879969963],[-78.162901739590964,-9.2471583125862171],[-78.163115887352774,-9.2471583127409787],[-78.163377635683503,-9.2472058959342771],[-78.163913013634016,-9.2473605622204662],[-78.164388900892035,-9.247503329412881],[-78.165055148243638,-9.2475985138940526],[-78.165626218688246,-9.2476936902778277],[-78.16612591198087,-9.2478126616654901],[-78.166887334728912,-9.2480506052952425],[-78.167244259309868,-9.2480981979611183],[-78.16764876691569,-9.2480506048010245],[-78.168077070685001,-9.2479792252933226],[-78.168552957895187,-9.2480030223929468],[-78.169124028635011,-9.2480744020900971],[-78.169742693125471,-9.2481219939130437],[-78.170147201363818,-9.2482171692556303],[-78.170385145054084,-9.2483123450446083],[-78.170670679841265,-9.2483837327537906],[-78.170884827728457,-9.2483837334206118],[-78.171098984110046,-9.2483599370422311],[-78.171503490814843,-9.2482647621824619],[-78.172122155243997,-9.2480506054271672],[-78.172621839027073,-9.2479554290624968],[-78.173383260960634,-9.2477412832919228],[-78.174025721687286,-9.2474081542618158],[-78.174691969441952,-9.2470512392490978],[-78.175286837249672,-9.2468370822060191],[-78.17573892667474,-9.2468132859378986],[-78.176168021199459,-9.2468372899016309],[-78.176170712619978,-9.246838156584527],[-78.17657173892691,-9.2469560538752926],[-78.176738303738901,-9.2470274421789984],[-78.176843711673186,-9.2471027311891785],[-78.176904867618788,-9.2471464147893148],[-78.177119024442604,-9.2471702112987924],[-78.177452143363752,-9.2472891824193155],[-78.177809067932571,-9.2474081543867896],[-78.178284954097123,-9.2475985144364312],[-78.178689461873816,-9.2479078369737842],[-78.178951201421711,-9.2483123453421214],[-78.1791415624254,-9.2487406481133156],[-78.179284329656596,-9.249216545219122],[-78.179379505306471,-9.24959725588635],[-78.179546069636558,-9.2499303847090744],[-78.179974373608019,-9.250572835202842],[-78.180236112835431,-9.251048732280438],[-78.180640619763281,-9.251643590396224],[-78.180949952902282,-9.2521432823168386],[-78.181330663830963,-9.2524526146074493],[-78.181949327675895,-9.252714355213433],[-78.182686954782071,-9.2530236857964905],[-78.183710126987236,-9.2532378342597177],[-78.184685706025775,-9.2536423421159633],[-78.185637489366741,-9.2539992646231823],[-78.186303736217297,-9.2541896166159532],[-78.186660659963025,-9.2544275598124894],[-78.186779631734296,-9.2546655131769437],[-78.187326908383341,-9.2553793515710652],[-78.188254894772427,-9.2567594386389533],[-78.188659401584047,-9.2572353258251123],[-78.188921142103695,-9.2577112226859644],[-78.189135299384404,-9.2585440342127097],[-78.18928996482046,-9.2592459763818855],[-78.189432731617387,-9.2598170472712429],[-78.189789646667364,-9.2608640052392452],[-78.190051386960505,-9.2617444090233843],[-78.190146571841893,-9.2626961920452828],[-78.190122775814459,-9.2634814110665165],[-78.19012277588233,-9.2646235546597424],[-78.190122776318148,-9.2655515422812513],[-78.19017035933544,-9.2661940021398639],[-78.190265544365047,-9.2665985096622805],[-78.19055107995662,-9.2671695823926257],[-78.190907994070827,-9.2679310049761092],[-78.191122152162109,-9.2685734548024108],[-78.191455271318404,-9.2691445266575965],[-78.19190737137653,-9.2695252480290069],[-78.192169110170624,-9.2699297551212609],[-78.192169109947287,-9.2704294379836369],[-78.192073933914443,-9.2708339458959426],[-78.192050137745639,-9.2712860461648336],[-78.192192905917452,-9.2717381461888131],[-78.192549820759112,-9.2724281897203031],[-78.192978125000266,-9.2731658161657631],[-78.193287458128239,-9.2735941195582168],[-78.193596788888016,-9.2741651913507237],[-78.193858529080515,-9.2745459026489421],[-78.194239241209431,-9.2751407712527154],[-78.1946913412052,-9.2755690735728393],[-78.194905487011525,-9.2759022034095882],[-78.195214820031396,-9.2763305071403845],[-78.195595530987902,-9.2764494780768221],[-78.196261786803177,-9.2765446538480827],[-78.197094599204931,-9.2768301904350494],[-78.197713253407898,-9.2772109011233432],[-78.19914093267748,-9.2773774645932523],[-78.200140308015548,-9.2771871052920361],[-78.200663788322103,-9.2770681331412597],[-78.201330034643689,-9.2765684509526398],[-78.201924903158314,-9.2760925543174686],[-78.202329410184518,-9.275759435198939],[-78.202472179123689,-9.2754263072886118],[-78.202472178971519,-9.2749028268685247],[-78.202638743299502,-9.2743555519844776],[-78.202876686060662,-9.2740224232439346],[-78.20320980498127,-9.2739034520995176],[-78.203828469335562,-9.2735941199385756],[-78.204256771815992,-9.2733561771652173],[-78.204756456115902,-9.2732134080490631],[-78.205375119870524,-9.2732134083965772],[-78.2061841362422,-9.2733561767317987],[-78.207219205063097,-9.2733918706611931],[-78.20781406295778,-9.2733680746758456],[-78.208504106815838,-9.2734156667862226],[-78.209289335105112,-9.2735584350506315],[-78.209479687062995,-9.2736536099135076],[-78.210145942917435,-9.2740105247300981],[-78.210883570035065,-9.2742960619795642],[-78.21143084539591,-9.2745102180627566],[-78.212501609157215,-9.2749623082157555],[-78.213477178976959,-9.2755571763581326],[-78.214500350891612,-9.2763661907714301],[-78.215475929782883,-9.2767706987014495],[-78.216047001745821,-9.2770800323168636],[-78.21635633413814,-9.2774369557336573],[-78.216546685280534,-9.2778890463737582],[-78.216618073178509,-9.2784601182313562],[-78.216737046300125,-9.2790073938886692],[-78.217070172886267,-9.2798402054301832],[-78.217331913288433,-9.2802923050100663],[-78.217724522939633,-9.2807087113017168],[-78.218152827194345,-9.2810656246787442],[-78.218676305620832,-9.2813035787843088],[-78.219104609640112,-9.2816129106944878],[-78.21943773834964,-9.2818984368877633],[-78.219818449199039,-9.2823267406794958],[-78.220270549291129,-9.282778840683422],[-78.220675056765273,-9.2832547374175274],[-78.22107956392918,-9.2838971887948318],[-78.221484072164117,-9.2844682602474435],[-78.221840986621871,-9.285182099005457],[-78.222102725635452,-9.285776968440997],[-78.222340680374657,-9.2861100855922825],[-78.222935538248123,-9.2864907982300018],[-78.223554201786982,-9.2867763340930196],[-78.224172856913697,-9.2869666942241071],[-78.224839113640613,-9.2870618687027129],[-78.225338796338107,-9.2870618687109125],[-78.226147811672547,-9.2870380734056592],[-78.226956827177702,-9.2871094630829951],[-78.227884824198725,-9.2872998230194064],[-78.228670043372503,-9.287490172792646],[-78.229193522037676,-9.2877281166770373],[-78.229824084003965,-9.2880731440658089],[-78.230133407157666,-9.2883110872991725],[-78.230680692271278,-9.2887393898391029],[-78.231370735032939,-9.289143898341802],[-78.23189421532328,-9.2893818512478177],[-78.232417694028541,-9.2894770268809879],[-78.232941172835666,-9.2894770271414728],[-78.233369476670404,-9.2894056382670556],[-78.23377398439456,-9.2892866659782172],[-78.234202287874638,-9.2891676935530736],[-78.234916126621698,-9.2891201021502603],[-78.235653763990783,-9.2892628688556727],[-78.236129650417098,-9.2893104622052185],[-78.237057647262333,-9.289120101655076],[-78.237723893430527,-9.2891201016589999],[-78.238318753318055,-9.2892152872035112],[-78.238723269049473,-9.2894532312531926],[-78.239139674651426,-9.2897744595594105],[-78.239496590041028,-9.2901075792609564],[-78.239782126101161,-9.290321735970279],[-78.240281808772409,-9.2906310681521305],[-78.240876676680614,-9.2907738360544538],[-78.241471544897948,-9.2908690123156497],[-78.242018820921174,-9.2909165949779791],[-78.242328152162855,-9.2910355758204481],[-78.242661271401133,-9.2913448978547049],[-78.242994400377285,-9.2916066469411387],[-78.243208547144008,-9.2918921739866658],[-78.243660647264946,-9.2924632448250488],[-78.244017561713818,-9.292772577801804],[-78.244303097879651,-9.2929153445995745],[-78.24485037370097,-9.2929867340323753],[-78.245278676888731,-9.2929867337110643],[-78.245730778397672,-9.2932008821880121],[-78.246492208786051,-9.2935340104468303],[-78.247087067981624,-9.2938909242521568],[-78.247586760951549,-9.2941050816679365],[-78.248086444241977,-9.2943192283301173],[-78.248586125735088,-9.2945571718876234],[-78.248824080320404,-9.2948427068897512],[-78.248895458645649,-9.2950330676107598],[-78.249014429991547,-9.295366187859619],[-78.249276179403068,-9.2958896755731786],[-78.249704473366947,-9.2963179797310538],[-78.250323138204735,-9.2968176627050312],[-78.250918005886732,-9.2972935590984545],[-78.25122732916978,-9.2975552976490921],[-78.251703225242053,-9.2977218541584978],[-78.252131528841858,-9.2979122144381119],[-78.252440860425068,-9.2982691376375595],[-78.252726396704759,-9.298840200137283],[-78.253035719772427,-9.2993874758711215],[-78.25346402262079,-9.2998395764057449],[-78.254320631066705,-9.3002202869374742],[-78.254891703201793,-9.3003154716394043],[-78.255653133975983,-9.3003868515753485],[-78.256509732444954,-9.300482036818245],[-78.256914239619576,-9.300529619731714],[-78.257247369345038,-9.3004344447328453],[-78.257628080027345,-9.3003630549506919],[-78.258199151915989,-9.3004820369363088],[-78.258508483642885,-9.300672387164246],[-78.258865397953713,-9.3010293120569703],[-78.259079555645656,-9.3014100241400879],[-78.259246118795474,-9.3018621239152388],[-78.259531656130619,-9.3024093994341808],[-78.259959959912749,-9.3026711376738671],[-78.260697585241033,-9.3030042566053304],[-78.261625581941232,-9.3034325607235075],[-78.262376827998949,-9.3038894551294575],[-78.262433798993655,-9.3039106069970376],[-78.264459265128053,-9.3046629277937694],[-78.26576822977141,-9.305019918195363],[-78.266217933265324,-9.3050506008116596],[-78.266601202815451,-9.3049009176702953],[-78.2671961848027,-9.3044249371613112],[-78.267850666920069,-9.3039489461366855],[-78.268254860557747,-9.3037468578043132],[-78.268526016354997,-9.3036467181468119],[-78.26878775608418,-9.3036943009325803],[-78.269278622019328,-9.3039489462927438],[-78.270230595906654,-9.3046629277712736],[-78.271718060339566,-9.3055554006910768],[-78.273146014795671,-9.3063288826572084],[-78.274157489417547,-9.3065668746865313],[-78.275406953393414,-9.3071023558455082],[-78.276715918195933,-9.3072808561483811],[-78.277965381736422,-9.3072808563519125],[-78.278710104134731,-9.3071921101013366],[-78.279209796613543,-9.3072159056991666],[-78.279928820012884,-9.3075783475903293],[-78.280999792693635,-9.3079948293734454],[-78.281951766685836,-9.3082923202192713],[-78.282427747784041,-9.3084708214057574],[-78.283260731184839,-9.3092442938880957],[-78.284539935292628,-9.3105830089101946],[-78.28489653686654,-9.3110188540489602],[-78.28522982712272,-9.3113561667930949],[-78.285824695395647,-9.3116892962881135],[-78.287336364725491,-9.3126059553742326],[-78.288228838150744,-9.313319928015833],[-78.289002311206318,-9.3139744103785524],[-78.289954283677645,-9.3146288921652793],[-78.290965757949991,-9.3154618664288762],[-78.291620240123578,-9.3163543476283444],[-78.292155721736194,-9.3173063206757281],[-78.292869703658837,-9.3180797949603633],[-78.293702676933975,-9.3184962851974991],[-78.294654650600933,-9.3193292591369659],[-78.29566612379422,-9.3204597230711137],[-78.29620160621748,-9.3212927051429677],[-78.296320606016209,-9.3220661780873701],[-78.296023114565969,-9.3230776520582577],[-78.295785115327035,-9.3242676159409417],[-78.296023115090222,-9.3248625976328139],[-78.296737088013359,-9.3252790896671343],[-78.297689060679915,-9.3259335713324223],[-78.298581534238664,-9.326588053981812],[-78.299295517450446,-9.3275400267736686],[-78.299771508134455,-9.3286109919287163],[-78.300247490424482,-9.3293844733625289],[-78.300366489678652,-9.3300389560797541],[-78.30030699030668,-9.3308719283929573],[-78.300247489666489,-9.3318239017495515],[-78.300485481131304,-9.3324188842022888],[-78.301318462792324,-9.3333113568229837],[-78.302091937160796,-9.3339658403135157],[-78.302448928449891,-9.334679821571326],[-78.302895169123047,-9.3358400361831091],[-78.303728142135427,-9.3379224739859481],[-78.304918107200606,-9.3398264201449663],[-78.305870079732557,-9.3410758841027945],[-78.306465061639955,-9.3419683574312451],[-78.307298044994184,-9.3436343139807079],[-78.308250008147411,-9.3448837777287981],[-78.308785499866303,-9.3453597689285353],[-78.309558973360339,-9.3456572596130822],[-78.310510945180297,-9.3458357501339382],[-78.311581919292678,-9.3463117427880924],[-78.312176902108988,-9.3469067243879724],[-78.312533893425581,-9.347680196578553],[-78.312831383344275,-9.3489891616500138],[-78.312771882653252,-9.3513096003688769],[-78.313247866409512,-9.3535110281211917],[-78.314199837929337,-9.3561289574506485],[-78.315508802769031,-9.3582708939719197],[-78.316847518351665,-9.3603830823578793],[-78.318394473164162,-9.3627630199444631],[-78.319405945638152,-9.3638934841533104],[-78.321131392841224,-9.3659164310064682],[-78.322678347638671,-9.3675823769558004],[-78.323630321944989,-9.3684748596884724],[-78.325534267966063,-9.3691888321962651],[-78.326724231782308,-9.369902815181355],[-78.328152197231816,-9.3706762878628531],[-78.33005614315087,-9.3717472614459414],[-78.332079080815745,-9.372699233694691],[-78.333269045093431,-9.3733537167383183],[-78.334221018770293,-9.3740081976275142],[-78.33511349062195,-9.3750196724376469],[-78.335886973765668,-9.3757931450129597],[-78.33624396524003,-9.3763881270365772],[-78.336184465009723,-9.3768641185666279],[-78.335648983305092,-9.3773996003969433],[-78.335172991061128,-9.3776970909175006],[-78.334816000167535,-9.378173074360145],[-78.334697009807044,-9.3788870547882244],[-78.334934999698788,-9.3795415381142568],[-78.335410982783017,-9.3806125116668397],[-78.335619232698605,-9.3814157349488525],[-78.335797722965196,-9.3830816901167839],[-78.335797722557587,-9.384628645801536],[-78.336035714892901,-9.3870680746321096],[-78.336154714589028,-9.389091011193619],[-78.336095214752319,-9.3906974668732506],[-78.335738222603979,-9.3926014128809729],[-78.335321741794914,-9.3948623509244396],[-78.334667259283904,-9.3973017803426568],[-78.334667259330558,-9.398313252989233],[-78.335024251435627,-9.3991462274403421],[-78.335738223302116,-9.4003361908027525],[-78.336422455205991,-9.4010799228582584],[-78.337076938450195,-9.4015559046042636],[-78.337909910986241,-9.4018534048126909],[-78.33963536678138,-9.4024483880179641],[-78.341955794913062,-9.4034598524492221],[-78.344335733220944,-9.4046498251750652],[-78.346418171071065,-9.4061967797864909],[-78.349928573329777,-9.4087552004355057],[-78.352308501562248,-9.4108971466032756],[-78.353557966338926,-9.4120276111422498],[-78.354569438355895,-9.4126225934282814],[-78.356473384647359,-9.4133365748557996],[-78.357187367693953,-9.4138720573329024],[-78.357841849899032,-9.4148835306280656],[-78.358436831635458,-9.4163114851428826],[-78.358793813562798,-9.4172039591825936],[-78.359567297145105,-9.4182749328493944],[-78.361471243456648,-9.4209523524330674],[-78.363732180258182,-9.4241057626419629],[-78.367183082768037,-9.4277351646010388],[-78.373034590104368,-9.4334507518907476],[-78.374712594702004,-9.4363592960500533],[-78.37627873425339,-9.4398271850986433],[-78.378739819222801,-9.4441900003890105],[-78.379746622184783,-9.4467629522905945],[-78.3798471433918,-9.4470536897333499],[-78.379840020388016,-9.4471147686892412],[-78.379766329273068,-9.4477471480364521],[-78.37987690275942,-9.449970792632211],[-78.379601171643188,-9.4515319391008958],[-78.379640110281315,-9.4523996735520246],[-78.379781062078081,-9.4530151617938856],[-78.380012053031777,-9.453757828936789],[-78.380432300750314,-9.4547458678379979],[-78.380619436554653,-9.4552713444099012],[-78.380879988353271,-9.4557160453548335],[-78.381322482232989,-9.4561711411131952],[-78.382262404757057,-9.4570365646100676],[-78.383122274406844,-9.4576574159678835],[-78.383881833376961,-9.4583046229227108],[-78.384307977718166,-9.458515631053773],[-78.384571267331765,-9.4585989091333804],[-78.385144109369563,-9.4586664357809891],[-78.385645911884581,-9.4584984928210041],[-78.385810602573329,-9.4583822513653804],[-78.385921718756421,-9.4581300701495792],[-78.385889485576129,-9.4575786481811566],[-78.385610588862235,-9.4571518752417703],[-78.385593611786035,-9.4569891057886597],[-78.385769726303423,-9.4565657294095473],[-78.386082205952448,-9.4561614389311437],[-78.386345190865057,-9.4560577620547157],[-78.38634982159347,-9.4560671201097914],[-78.386457067696114,-9.4562819707516255],[-78.386778298401978,-9.4568530433494864],[-78.38717090663161,-9.457424114128715],[-78.387563517144656,-9.4582093331515136],[-78.387991820978513,-9.4587447109719953],[-78.388134587759453,-9.4592444029168981],[-78.388063209202485,-9.4598868551452533],[-78.388063209117902,-9.4605649997881969],[-78.388045357297443,-9.461118228830399],[-78.388116746288418,-9.4617606795878348],[-78.388330893404529,-9.4623674472816273],[-78.388509354788425,-9.4627957495934503],[-78.388652123599343,-9.4634025067267835],[-78.388794891152145,-9.4641163461836442],[-78.388973352981026,-9.4649015648167882],[-78.389223195125751,-9.4655440252820391],[-78.389651499367147,-9.4659723289410138],[-78.390222571251897,-9.466364938375543],[-78.390650873874137,-9.4667575480325592],[-78.390793642406521,-9.4672572308723808],[-78.390686558897968,-9.4677212291883439],[-78.390258254845108,-9.4683279957169191],[-78.38975857230875,-9.468827678683887],[-78.389401657239446,-9.4690418353793593],[-78.388616429355906,-9.4693987502141432],[-78.387866905176764,-9.4696842856185377],[-78.386903223378056,-9.4700412013283923],[-78.386439225433577,-9.4701839703359703],[-78.385796774277395,-9.470112588590375],[-78.385190008093673,-9.4698984332947731],[-78.384476168892292,-9.4698270541732157],[-78.384119253864341,-9.4698984325577111],[-78.383798023282964,-9.4700768948588809],[-78.383548182045018,-9.4705765786097267],[-78.383441107775809,-9.4711833454274874],[-78.383476793369809,-9.4717901112977092],[-78.383690949876311,-9.4724325617880254],[-78.38401217113524,-9.4730393280816827],[-78.384226327413344,-9.4736817794205095],[-78.384440474820011,-9.474502692415026],[-78.384797397917239,-9.4750380686740012],[-78.385047240351867,-9.4752165317083286],[-78.38574322771484,-9.4753414573227062],[-78.386349993738634,-9.4755556046378615],[-78.387206602204614,-9.4761980545769546],[-78.387956135659095,-9.4769118950317743],[-78.388527197605441,-9.4775186613321658],[-78.388848428000671,-9.4780183441039085],[-78.389669340746622,-9.4789463401115963],[-78.390026266214775,-9.4795887916574468],[-78.390418874763753,-9.4803383248398383],[-78.390811485035144,-9.4811592391252866],[-78.39106132606851,-9.4816232274448193],[-78.391132715641675,-9.4820158470991185],[-78.391132716034988,-9.4821586140795588],[-78.391239789199076,-9.4833007486783671],[-78.391346861852853,-9.4842644303775252],[-78.391275482636047,-9.4850853431218187],[-78.391097021000576,-9.4856207299245821],[-78.390633022978832,-9.4860490242647586],[-78.390276108065038,-9.486370253640743],[-78.389705036227681,-9.486941325838151],[-78.38924103755599,-9.4875837771010101],[-78.388777049279568,-9.4884403850081025],[-78.388491513438709,-9.4892969919756336],[-78.387991820644416,-9.4899394425542649],[-78.387349369398024,-9.49008221082277],[-78.386671224427914,-9.4899394428686872],[-78.385636154633517,-9.4896896022169202],[-78.385100776656941,-9.4895825282686399],[-78.3846189361104,-9.489564686174619],[-78.384154937603654,-9.4898502210597311],[-78.383298340258904,-9.4901714421100518],[-78.382727269313108,-9.4900643685904313],[-78.382013428247518,-9.4900286735812038],[-78.38151373598518,-9.4903142098371678],[-78.380942674449216,-9.4904212843897238],[-78.380478675810934,-9.4905640518620213],[-78.380193140261369,-9.4907425131198249],[-78.379657762160718,-9.4913849749037666],[-78.379300838427383,-9.4920274252205115],[-78.378908229118849,-9.4925984971881636],[-78.378444240047273,-9.4928840327272361],[-78.377837474190329,-9.4934907890027791],[-78.377409169625466,-9.4939190927495751],[-78.377195023340931,-9.4943473973601495],[-78.377052254327367,-9.4948827740550605],[-78.376980866284427,-9.4952753837867405],[-78.377087939858384,-9.4958107696217091],[-78.377123634047123,-9.4964175275914506],[-78.376838097790653,-9.4969172203695624],[-78.37651686834576,-9.4972027548160707],[-78.376052878852377,-9.497738133628582],[-78.375945805569984,-9.4981307418103711],[-78.375838722839561,-9.498737508655573],[-78.375910111126558,-9.4994513384154562],[-78.37605287881911,-9.500486409281752],[-78.376267027244168,-9.5015214686952589],[-78.376231342342393,-9.5022710033631039],[-78.376124257977338,-9.5025922334272099],[-78.375820879998415,-9.5033952950905665],[-78.375749491188074,-9.503930681771708],[-78.37546396456726,-9.5044660594240558],[-78.375249807873942,-9.5049657417646181],[-78.375035661659496,-9.5055368135971658],[-78.374892893173836,-9.5060364966565736],[-78.37478580998156,-9.5066075683341307],[-78.374643043204628,-9.5069287988754585],[-78.374357515641577,-9.50735710301913],[-78.373929212274021,-9.5077140181189659],[-78.373536593229389,-9.5079281735981844],[-78.37317967900708,-9.5082137101469044],[-78.372858448149401,-9.5086776986322938],[-78.372608605707981,-9.5091060025625183],[-78.372572912257624,-9.5093915387716361],[-78.372537226905465,-9.5099269157983066],[-78.372323070608275,-9.5105693764012909],[-78.372180302317545,-9.5109619860991863],[-78.371966156214114,-9.5113545949573677],[-78.371680619439175,-9.5119256670224956],[-78.371502156828029,-9.5123182769179149],[-78.371359390039316,-9.5127465803244515],[-78.371216620882493,-9.5132462627434453],[-78.370931086310605,-9.5139244184072336],[-78.370609864961864,-9.5146739431992824],[-78.370324328730973,-9.5151736349584155],[-78.369896024886529,-9.5156019386187349],[-78.369574794698238,-9.5159945486991067],[-78.369164332802001,-9.516404999938656],[-78.368843112816165,-9.5171902286275216],[-78.368771723687573,-9.5178326791863217],[-78.368843113135327,-9.5183680571878106],[-78.369092954324145,-9.5189034351995385],[-78.369271416804636,-9.5195101999770309],[-78.369521257837178,-9.5202240414496053],[-78.369699719667722,-9.5209021854224662],[-78.369735405629157,-9.5212234058242338],[-78.369699720187825,-9.5216160261850824],[-78.369556951904698,-9.5220800144131701],[-78.369485563612244,-9.5224726242803612],[-78.369449869434661,-9.5234006196207499],[-78.369342796049878,-9.5241858383505864],[-78.369271416765713,-9.5249353732865139],[-78.3693071020448,-9.5255064442412127],[-78.369342796315209,-9.5261845903736049],[-78.369521257607673,-9.5268270407017219],[-78.369556952427843,-9.5275051856822142],[-78.369449868960984,-9.5278621098853495],[-78.369307102004001,-9.5283974869330397],[-78.3690215660896,-9.5286830239173579],[-78.368736038885842,-9.5287900972685762],[-78.368557577352149,-9.5291113276764339],[-78.368343420973375,-9.5296467047307125],[-78.368236345711153,-9.5303248508432947],[-78.368254189068963,-9.5308423846003247],[-78.368432651259297,-9.5316276042379258],[-78.368504039810688,-9.5323057493382244],[-78.368325577845397,-9.5329482100870244],[-78.367968662982193,-9.533483586657244],[-78.367576042859085,-9.5342688055940865],[-78.367254823274266,-9.5348755718097156],[-78.366933593189941,-9.5355537173707745],[-78.366790825417624,-9.5360534010660825],[-78.366790825160265,-9.5367315461951261],[-78.366576677954029,-9.5376952266909907],[-78.366076984623803,-9.5386589079789807],[-78.365363145928399,-9.539372748239165],[-78.364756388795499,-9.5399081247977229],[-78.363685624632936,-9.5403007442099526],[-78.363043174225751,-9.5405148907260635],[-78.362579174594657,-9.5407647333964984],[-78.361901030319501,-9.5411216582173459],[-78.361472725950634,-9.5414785723424611],[-78.361080117117623,-9.5419425695670004],[-78.360366278427975,-9.5427634840954507],[-78.359688132279757,-9.5435130087797369],[-78.359045680607338,-9.5442625422610643],[-78.358117695111048,-9.545154844173064],[-78.357314623137214,-9.5462434413847443],[-78.356850625114376,-9.5469215873597495],[-78.356279552560082,-9.5473855845727051],[-78.355708482350309,-9.5476354262057672],[-78.355208798759946,-9.5479209629373436],[-78.354494958719599,-9.5483849613535448],[-78.353959581165725,-9.5488132647356689],[-78.353459898775583,-9.5491701800492521],[-78.352531902353817,-9.5496698732399494],[-78.351960830945714,-9.5501695545663239],[-78.351568221221214,-9.55052647138778],[-78.3511399169589,-9.5508120061860939],[-78.35078300213776,-9.5508833950819305],[-78.350247624934937,-9.5509190890022708],[-78.349498090676789,-9.5508833946766849],[-78.348855639614655,-9.5509190891538118],[-78.348463029916303,-9.551061848100181],[-78.348141799620336,-9.5511689307995926],[-78.347606421552229,-9.5515615404130827],[-78.347142424367775,-9.5518827713530001],[-78.346714120231297,-9.5522753800176101],[-78.346464278625874,-9.5525252214345322],[-78.346143048795938,-9.5529892202455837],[-78.345857514131325,-9.5535245971822302],[-78.345571977362511,-9.5538815122793839],[-78.345250755995124,-9.5540242796258195],[-78.344858147399478,-9.5540599737216318],[-78.344179992149265,-9.5540242797783588],[-78.343787383333151,-9.5540956680296745],[-78.343252005840711,-9.5542741217845233],[-78.342823701947736,-9.5545239718848496],[-78.342395397965987,-9.5547381199584986],[-78.341788641914178,-9.5551664241225787],[-78.341538799785425,-9.5554876528617285],[-78.34143171705945,-9.5558088744107774],[-78.341431717075608,-9.5561301051269343],[-78.341467410583704,-9.5568796380412717],[-78.341396031646397,-9.5574507010176735],[-78.341074801637674,-9.5585214650247714],[-78.34071787672579,-9.5596279142769429],[-78.340414498965131,-9.5601811341172258],[-78.34016465829923,-9.5608949736423305],[-78.339950499580866,-9.5613946665777121],[-78.339522206198282,-9.5621441904449576],[-78.339236671084166,-9.5626438830543634],[-78.338915439954093,-9.5631792606197372],[-78.338594210394007,-9.5639644786975282],[-78.338344368608674,-9.5644998568023212],[-78.338058832774664,-9.5651780019188433],[-78.337808990782847,-9.5657490739026763],[-78.337452066967487,-9.5660703040476296],[-78.336952383866731,-9.5662487658830013],[-78.336202848609986,-9.5663201455643136],[-78.335810240259974,-9.5662844512841563],[-78.335203483828735,-9.5661416829925123],[-78.33477518010146,-9.5660346097008002],[-78.33409703381399,-9.5660346098873053],[-78.333704416129777,-9.5659989158283008],[-78.333097657985832,-9.5661059987482098],[-78.332705049056599,-9.5662130718120579],[-78.332419514390125,-9.566355841244766],[-78.331848441662558,-9.5664986075886436],[-78.331348748820645,-9.5667841443931341],[-78.331027528825516,-9.5669625974494892],[-78.330385068408745,-9.5672838272779419],[-78.32974261701014,-9.5678548988240433],[-78.329028777111034,-9.5686044315658059],[-78.328422021223673,-9.5692825776263071],[-78.327922327760106,-9.569925028791884],[-78.327458330141596,-9.5706031745687596],[-78.32713710931246,-9.5712456353236046],[-78.326887268243624,-9.5719594650356896],[-78.326815878724346,-9.5726376098065327],[-78.326601731632707,-9.5731373030012463],[-78.326209113036242,-9.5735656064014396],[-78.32592358691933,-9.5737083750631822],[-78.32570942984627,-9.5737083750709537],[-78.325191895429725,-9.5736905232168521],[-78.324620822888733,-9.5737619114251196],[-78.324049760725529,-9.5740117533195477],[-78.32355006886668,-9.5742615939202516],[-78.323228837642063,-9.5744400569762362],[-78.322622082190378,-9.5745471301426122],[-78.322051010044376,-9.574511435600483],[-78.321051635019359,-9.5742259089712149],[-78.320195027256503,-9.5742972876668713],[-78.319695344046252,-9.574440056923736],[-78.319267039671516,-9.5747612866435752],[-78.319052892783048,-9.5750825083252451],[-78.318089201600841,-9.5760818827753109],[-78.317518139990398,-9.5766529545540635],[-78.316804300358569,-9.5774738681796752],[-78.316411690064626,-9.5779735602483687],[-78.315947692236051,-9.5785446225998303],[-78.315412314623231,-9.5791156950347531],[-78.314876938059044,-9.5795439991809843],[-78.314484319096195,-9.5800793762761849],[-78.314555707372108,-9.5807932163531291],[-78.314912622219168,-9.5813642879173013],[-78.315340925884627,-9.5820067380887224],[-78.315733536217209,-9.5825064313582047],[-78.316054766253458,-9.5829347337820963],[-78.316518764758484,-9.5837913418387135],[-78.316839994131769,-9.5845408672461279],[-78.317089835718207,-9.5853617799994204],[-78.317339676842494,-9.586004240947581],[-78.317767980574416,-9.5866109974205802],[-78.318410433098748,-9.5868965326747055],[-78.319320575578686,-9.5873069944046065],[-78.319963028326313,-9.5875211418036006],[-78.320998097778883,-9.5876639088198399],[-78.322033166834473,-9.5879851399903302],[-78.322604228766323,-9.5884134436934012],[-78.32303253318365,-9.5888774316666456],[-78.323603605725054,-9.5893771246563642],[-78.323996214094109,-9.590162343177834],[-78.324424518006893,-9.5907334159048112],[-78.324888516328357,-9.5914472553290722],[-78.325066978822903,-9.592018326319943],[-78.32520974724423,-9.5930177027714088],[-78.325281126282434,-9.5939099954390432],[-78.325209747414931,-9.5944453716362723],[-78.32510266366458,-9.5947309080515772],[-78.324638674874407,-9.5951592114519766],[-78.324210371423177,-9.5954804423349884],[-78.323460836875853,-9.5958730520555253],[-78.322764848904086,-9.5964619660550508],[-78.322515007754774,-9.5968188896667144],[-78.321943935777981,-9.5977468771741741],[-78.32137286443799,-9.5987819474347393],[-78.321158708320553,-9.59935300896149],[-78.320980254943294,-9.6001739324024076],[-78.320873172406294,-9.6014945293998313],[-78.320730403856345,-9.6022797466929894],[-78.320587636633135,-9.6035289642090813],[-78.320444878248722,-9.6043141925567888],[-78.320230721388171,-9.6052064854161099],[-78.320052257652478,-9.6059917130456469],[-78.320052257804932,-9.6068483106189504],[-78.319909490590732,-9.6079190757516528],[-78.319766723436786,-9.6085258316720648],[-78.31944550186175,-9.6093467460972644],[-78.319142114774223,-9.610114121720132],[-78.318820893770621,-9.6107565820929892],[-78.318463968561545,-9.6112205708266938],[-78.318035664548901,-9.6117916428487113],[-78.317964285930458,-9.6121485666997479],[-78.318107054281583,-9.6130051747797189],[-78.318463968903686,-9.6135762370817925],[-78.318499662575832,-9.6139331623348507],[-78.318285515794159,-9.6149325365678084],[-78.318285516395292,-9.6154679152915854],[-78.317892897213625,-9.616645743076166],[-78.317393213613713,-9.6178592759892698],[-78.317036298773132,-9.6186801889359472],[-78.316500911870392,-9.6195724811773342],[-78.315965535373564,-9.620107859211096],[-78.315287388556555,-9.6207146248822308],[-78.314609244252949,-9.6213570753765136],[-78.314002479437633,-9.6219281479697614],[-78.313502795972411,-9.6225349138635643],[-78.312539114295006,-9.6232130578208182],[-78.312075116227206,-9.6235342890270132],[-78.311575431987976,-9.6239982776178703],[-78.311004360761331,-9.6245693494300308],[-78.310468983678021,-9.624783506395584],[-78.309683765017311,-9.6253188833546304],[-78.309005610203272,-9.6256757992889259],[-78.308505927115945,-9.6260684082046488],[-78.30804192872246,-9.6265324069464064],[-78.307649319868659,-9.6267822471476698],[-78.307006868370365,-9.6268893302093499],[-78.306007493286714,-9.6271034777014002],[-78.3052222738458,-9.6270677838480623],[-78.304847506814852,-9.6270142470115125],[-78.303919519847781,-9.6270856354170071],[-78.303062912347755,-9.6271213202064008],[-78.302242000208025,-9.6269785516486142],[-78.301670927329795,-9.6266216372371272],[-78.301171234814845,-9.6262647218437039],[-78.300421711141169,-9.6259434917350841],[-78.299458028747878,-9.6258364190826775],[-78.298637115727232,-9.6257293353791145],[-78.297887582271343,-9.6255865673736185],[-78.297566351207081,-9.6252653457367483],[-78.296888206655368,-9.6249441172067662],[-78.29599591407009,-9.6246228860257563],[-78.295603304289642,-9.624087509417393],[-78.295389147757788,-9.6236592049112772],[-78.295032233279798,-9.6229096801733132],[-78.294782380954345,-9.6223743034485913],[-78.294461160612784,-9.6216961490118713],[-78.294247004266396,-9.6209466235833627],[-78.293925782764617,-9.620518320334952],[-78.293675933430933,-9.6200900162293692],[-78.293319017345226,-9.6198044801558265],[-78.292890714293037,-9.6195903332227601],[-78.292283948076587,-9.6193404815901609],[-78.291927032889561,-9.6190549560606478],[-78.291320266753999,-9.618519569152463],[-78.290677815232854,-9.6179841920397333],[-78.29007104860429,-9.617520203054795],[-78.289785513274339,-9.6172346674009823],[-78.289642745112801,-9.6167706688216263],[-78.289696292397565,-9.6162531343485647],[-78.289660597644669,-9.6151823788505286],[-78.289660598198537,-9.6147540749541029],[-78.28951782902503,-9.6143971600125777],[-78.289267988242472,-9.614218698412424],[-78.288946757698866,-9.6139688557997456],[-78.288696917302346,-9.613255016804958],[-78.28837568612245,-9.6129694805844323],[-78.287983076619454,-9.6123270214422583],[-78.287911687649185,-9.6118273383389212],[-78.28794738193406,-9.6112919590865076],[-78.288054456363483,-9.6108636556445184],[-78.288375685789774,-9.6103996582823807],[-78.288589842894453,-9.609899975259383],[-78.288625526788223,-9.6093289028681852],[-78.288518454141567,-9.6087221367128635],[-78.288339992414933,-9.6082581494473107],[-78.28801877127917,-9.6077941496285035],[-78.287733235400609,-9.6074729199042483],[-78.287340626429497,-9.6072230787540622],[-78.286876628224121,-9.6067590897680493],[-78.28616278841848,-9.6060452497315527],[-78.285805872588242,-9.6056169459825789],[-78.285520337329586,-9.6051886421005381],[-78.285377568864504,-9.6047960334503397],[-78.285163412219489,-9.6039751199533026],[-78.284770803165145,-9.6027615879432204],[-78.28430680468864,-9.6018692950456526],[-78.283824964078178,-9.6010662251851908],[-78.283396669891331,-9.6006379213108524],[-78.282924121584003,-9.6003513378820386],[-78.282637605684656,-9.6000772822057989],[-78.282540062991387,-9.5998170066343658],[-78.282432978548457,-9.5992102511445516],[-78.282413376659349,-9.5986821008537007],[-78.282325904583701,-9.5980324131518842],[-78.282218831637351,-9.597604108846161],[-78.28210195183928,-9.5973367393649447],[-78.281952470067196,-9.5971498887653048],[-78.281647760630051,-9.5970687321503103],[-78.281076688289275,-9.5969973427898854],[-78.280541311194455,-9.5969616580878689],[-78.280255775561471,-9.5969616577408381],[-78.27979177692886,-9.5969616579438597],[-78.279292094799928,-9.5969259642015814],[-78.278613948873172,-9.5969973434322444],[-78.27818564541731,-9.5970330366064829],[-78.277935803999895,-9.5969616577120878],[-78.277685962162977,-9.5967475010884371],[-78.277614572867961,-9.596319196553603],[-78.277444747357848,-9.5958776553522096],[-78.277257658358991,-9.5957481255821904],[-78.276932300284827,-9.5955803056958224],[-78.276508124294494,-9.5954982849183761],[-78.275116138898028,-9.5953198315890518],[-78.274009689565943,-9.5952127493640962],[-78.272974629818577,-9.5951413702152824],[-78.272631877417197,-9.5951413697242813],[-78.272657841107801,-9.5948557772132297],[-78.272760634272927,-9.594513127661136],[-78.273069006118135,-9.5941362213799515],[-78.27337738768172,-9.5937250549520829],[-78.273754293806206,-9.5933138813564689],[-78.274016899002149,-9.592857195831364],[-78.274165469263309,-9.5925600672585638],[-78.27430252105593,-9.592114633591434],[-78.274405313966554,-9.5916006745684665],[-78.274371056906887,-9.5912237679131405],[-78.27430252085766,-9.5908468622154377],[-78.274131201217742,-9.5904699543247052],[-78.273857088405876,-9.5899217269949979],[-78.273754294401613,-9.5894762853734701],[-78.273754293670066,-9.5891679138885912],[-78.273788561952756,-9.5888595316887191],[-78.273959881236834,-9.5885168929612448],[-78.274388185026908,-9.5881228472995641],[-78.274799350700206,-9.5876431470205059],[-78.275244792982917,-9.5870949212786201],[-78.275381845171125,-9.5864781677915669],[-78.275416113235352,-9.5859299420188222],[-78.275724493632993,-9.5855872929314874],[-78.276272720205284,-9.5853131793307398],[-78.276615359915411,-9.5850390660452955],[-78.276820945578962,-9.5846964273866302],[-78.276855204619793,-9.5843880459592867],[-78.27678667892269,-9.583805550924243],[-78.27685520484124,-9.5833943871325342],[-78.277095060117659,-9.5828118915508362],[-78.277129319042373,-9.5823321909165919],[-78.276992266372247,-9.582023820023517],[-78.276718152811583,-9.5816469125591102],[-78.276032864707744,-9.5808588311765313],[-78.275553164151816,-9.5798309042259699],[-78.275347585774796,-9.579042822416822],[-78.275279051062242,-9.5784260704281934],[-78.275420126328939,-9.5779396829421746],[-78.275728507064542,-9.577631302343649],[-78.276173939563122,-9.5776313020034429],[-78.276893487050643,-9.5778711466766335],[-78.27775009409028,-9.578076734663167],[-78.278503908147272,-9.5781795287877838],[-78.279017866771468,-9.5782823222044726],[-78.279291988780997,-9.5781795289540455],[-78.279429040667878,-9.5780424670062896],[-78.279668896074739,-9.5775627759705877],[-78.279908741900798,-9.5765005808131018],[-78.280182854749384,-9.5755754467336391],[-78.280319916891685,-9.5747188397350911],[-78.280285648856378,-9.5741020867317363],[-78.280354174829938,-9.5734853255958345],[-78.280594029893706,-9.573176953191382],[-78.280765349015496,-9.5730056253832849],[-78.281210782632698,-9.5728343053988443],[-78.282290106626945,-9.5723717425675225],[-78.28400332228756,-9.5718577747644051],[-78.284859920367268,-9.5714123422587178],[-78.285442414048632,-9.5710354353929112],[-78.286093434334646,-9.5703158876113807],[-78.28653886708689,-9.5698361875499707],[-78.286607402761234,-9.5693222194532801],[-78.286333289559281,-9.5687054671302896],[-78.28593924440311,-9.5679345238456772],[-78.285699398893513,-9.5674205559652119],[-78.285459542597948,-9.5667352769545282],[-78.285391018414288,-9.5660157211892791],[-78.285391018395472,-9.5653989691164814],[-78.285493811262597,-9.5646451552880141],[-78.285425285382161,-9.5639256093085283],[-78.285253965931801,-9.563377381730394],[-78.285048377806604,-9.5629662079908027],[-78.284739996622363,-9.5625893001525828],[-78.284088976853553,-9.5612529923398508],[-78.283746337987921,-9.5602593330717678],[-78.28326663682455,-9.5587859728318278],[-78.282581348559148,-9.5570042312203221],[-78.281930328562112,-9.5556679227779231],[-78.281484896421702,-9.5545372021834218],[-78.281107987881867,-9.5535778009985872],[-78.280679685018967,-9.5521558378469251],[-78.280028663608491,-9.5499971893172031],[-78.279514705154753,-9.5486266227224181],[-78.278966480281042,-9.5470504702449013],[-78.278658099332276,-9.545988273637052],[-78.278315449722029,-9.5444806457397],[-78.2781441302442,-9.5427331734016168],[-78.27804133641942,-9.5414654003919992],[-78.277989939149293,-9.5402147562960877],[-78.277989939172642,-9.5393581491552979],[-78.278058474625183,-9.5384330149342809],[-78.278229794559095,-9.5375764076090075],[-78.278503907755976,-9.5366512740143623],[-78.278812289215224,-9.5360687797791588],[-78.279086401661075,-9.5354177599787437],[-78.279120660215185,-9.5350065841070055],[-78.279017866577391,-9.5347324710173655],[-78.278743754406506,-9.5343898317244165],[-78.27840111433072,-9.5339101322467421],[-78.278092732749897,-9.5331905853727896],[-78.277784361279942,-9.532402504278684],[-78.277647300233497,-9.5316144317188041],[-78.277236135029511,-9.5306892981349485],[-78.276653640802252,-9.5298326896769616],[-78.275899826972122,-9.5283593301903622],[-78.275608575173337,-9.527554118655285],[-78.275128883900976,-9.5265947176732553],[-78.274717709420187,-9.5258751722912685],[-78.274409328192519,-9.52512135789026],[-78.274306535409892,-9.5240934313878878],[-78.274443595734496,-9.5231340296459042],[-78.274820502986401,-9.5221403702419352],[-78.275368728872763,-9.5211809687263287],[-78.2760540172183,-9.5202900932945891],[-78.276533718055859,-9.519536288979376],[-78.276773564282337,-9.5189880530884174],[-78.276705037259617,-9.5186111455990083],[-78.276585115444206,-9.5183884290773051],[-78.27596835234246,-9.51790872925827],[-78.275694238615543,-9.5173947701329951],[-78.275694238696687,-9.5168465429947364],[-78.275899827130473,-9.5162640490218635],[-78.276276732967148,-9.5156130286743981],[-78.276756433891677,-9.5145508339376956],[-78.277030547980829,-9.5136942361855485],[-78.2769620118288,-9.5132830612955352],[-78.276653640675931,-9.5128718860229284],[-78.276002620405777,-9.5121180723964578],[-78.275351599778261,-9.511501320229101],[-78.274717709381989,-9.5109359637984561],[-78.273929627450471,-9.5101821511718434],[-78.273518462029926,-9.5096681815816506],[-78.273038760983439,-9.5091199553112169],[-78.27252480185598,-9.5086059958752749],[-78.272147896206562,-9.508092028097261],[-78.272045102424556,-9.5076465948164142],[-78.272113627691851,-9.5071668946066001],[-78.272353472880255,-9.5066186683583123],[-78.272456266727957,-9.5060019062887573],[-78.272490535231427,-9.5053166279011894],[-78.272644724828851,-9.5048540555637793],[-78.272884570613812,-9.5039289231365185],[-78.273021632573105,-9.5029695207211926],[-78.273158683950484,-9.5018730681440946],[-78.273055890575748,-9.5011877796733746],[-78.272850312911743,-9.500433974825274],[-78.272644725433921,-9.5000228008463292],[-78.272439137681062,-9.4995773682390574],[-78.272233550550936,-9.4992347194018532],[-78.272096497895774,-9.4985836992129933],[-78.272096498162369,-9.4976928329651162],[-78.272062231262581,-9.4967676987013849],[-78.271925170269,-9.494746103238727],[-78.27175385001037,-9.4932384847547429],[-78.271514004958192,-9.4917993815600106],[-78.271068571653458,-9.4901889609938461],[-78.270623128815799,-9.4886813326964976],[-78.270314757592004,-9.4878247352210305],[-78.269847678026679,-9.4868361830338053],[-78.269897401401337,-9.4862803864381053],[-78.269760339699801,-9.4854237778588235],[-78.269623286836193,-9.4843958513373199],[-78.26941770078777,-9.4834707171115351],[-78.269075061243697,-9.4828539654081556],[-78.268526834916386,-9.4823057375798356],[-78.267978607645432,-9.4817575119273094],[-78.267498907285486,-9.4811750177480771],[-78.266779350995208,-9.47990724403458],[-78.266402444560953,-9.4788450498180978],[-78.265957010739669,-9.477851390437527],[-78.265562975309621,-9.4771489734236756],[-78.264946223170227,-9.47618957178193],[-78.264295202965357,-9.4752986957577718],[-78.26347285364794,-9.474407830890371],[-78.262890368143161,-9.4738596043102294],[-78.262136554765135,-9.4731743160200583],[-78.261177153279007,-9.4724890283261836],[-78.260286278023386,-9.4719065426532545],[-78.259669525006004,-9.4713240489343242],[-78.25894997937786,-9.4706045017550178],[-78.258127640220309,-9.4696793687473093],[-78.257476619158197,-9.4690968747758966],[-78.256859857009758,-9.4685486480636083],[-78.256311630788687,-9.4680004212533504],[-78.255660610347235,-9.467383660174546],[-78.255112384057,-9.4669382260370476],[-78.254598415382333,-9.4665270520214708],[-78.254118714648811,-9.4659103001218092],[-78.253673281243451,-9.4652935468072261],[-78.253399168413878,-9.464676784676028],[-78.253296374584252,-9.4638887130734375],[-78.253364909973371,-9.463169157178303],[-78.253296375129523,-9.4622782911793504],[-78.253193580872804,-9.4614559511204739],[-78.252953735779272,-9.4606336006127787],[-78.252748147716332,-9.4600853752733531],[-78.252611096238098,-9.4595714169587293],[-78.252542559869482,-9.4588861293710682],[-78.252611096444568,-9.4582351076220252],[-78.252902339081274,-9.4574984328645257],[-78.253107925978426,-9.4566418254413236],[-78.253107925728955,-9.4554768370105382],[-78.25300513178729,-9.4544489091674127],[-78.253107926012277,-9.4532153943021964],[-78.253210719922663,-9.4525301161620341],[-78.253210720184356,-9.4519818904255093],[-78.253073657553855,-9.4510224881062381],[-78.252868070787841,-9.4502686740549677],[-78.252491164022828,-9.4495491280321531],[-78.252079997580708,-9.4490351601981075],[-78.251497504380325,-9.4484526658604739],[-78.250589500354025,-9.447715989575638],[-78.249904220656362,-9.4470307022678135],[-78.249321726640858,-9.4462768880939834],[-78.248910552403188,-9.445488815935045],[-78.24877350067014,-9.4449405802527036],[-78.248362326153512,-9.4442210339074535],[-78.247642780296374,-9.4431588479643587],[-78.246923233987005,-9.4424050338060468],[-78.246340738993382,-9.4418910662702213],[-78.245929565089398,-9.4414799009268258],[-78.245449864357226,-9.4411372522881774],[-78.244935904785166,-9.4410344587555421],[-78.244250616718759,-9.4411029939906168],[-78.243496803340037,-9.4413428395462837],[-78.242674462624933,-9.4417540143697316],[-78.241886381329707,-9.4419938601343674],[-78.241509484332767,-9.4419938604002436],[-78.241098308725967,-9.4418910658114026],[-78.240892722013683,-9.4416512196995921],[-78.240687134038708,-9.4410002004072187],[-78.24058434127069,-9.4399722729460738],[-78.2404472888378,-9.4388415521610778],[-78.240310227689776,-9.438019212297684],[-78.240258830081487,-9.4374538472313247],[-78.240293097573456,-9.4365287127322635],[-78.24043015997799,-9.4358091666302197],[-78.240635737878449,-9.4352609412193154],[-78.240807067368365,-9.4345756532606408],[-78.240944117913003,-9.4337533130093387],[-78.241046912742547,-9.433102293204481],[-78.241115437747908,-9.4324855299356063],[-78.241115438130549,-9.4322799533912427],[-78.241046913320361,-9.4320743652813483],[-78.240944118220924,-9.432005839009113],[-78.240670005670808,-9.4318687782689921],[-78.240464418413538,-9.4316974577475623],[-78.240293097554726,-9.4314233445935791],[-78.240190304842614,-9.4310464384210082],[-78.240413021055033,-9.4303440206674445],[-78.240584341411278,-9.4301041660826499],[-78.240824196369303,-9.429727259142954],[-78.240892722209651,-9.4293160942019707],[-78.240892721621194,-9.4289049184100264],[-78.240892722391735,-9.4283566930274443],[-78.240858454293601,-9.4276714040437444],[-78.240892721965025,-9.4266777447319701],[-78.241098309158588,-9.4256840855541046],[-78.24130389692661,-9.424930270738427],[-78.24154374179875,-9.4243477773893822],[-78.241920648605017,-9.4237310241032155],[-78.242366081859032,-9.422840148678679],[-78.242674462732339,-9.4220178099996463],[-78.242845782281549,-9.421229727060064],[-78.243085637909459,-9.4204759136872411],[-78.243291216428759,-9.4196878415699974],[-78.243291216340168,-9.4191738730197603],[-78.243188431445233,-9.4184200589035978],[-78.243068498584933,-9.4179574967529831],[-78.242862921919354,-9.4171351569720265],[-78.242588797618907,-9.4161072300761255],[-78.242280426896826,-9.4152506229892694],[-78.241869252992572,-9.41384578841825],[-78.241579616733475,-9.4130071469175327],[-78.241305495019375,-9.412047755323611],[-78.241236967828925,-9.4112254059958023],[-78.241236968105127,-9.4101974782985049],[-78.241476824190769,-9.4095122004309477],[-78.24178519492169,-9.4089639726365952],[-78.241990783066569,-9.4085870660684865],[-78.242025049656476,-9.4083814787683604],[-78.242025050359061,-9.4080388300966433],[-78.24188798855441,-9.4077647169523093],[-78.24161387594242,-9.4075248713996338],[-78.240997121745792,-9.4072850249427589],[-78.24027756679871,-9.4070451707978258],[-78.239523762394953,-9.4068053251405459],[-78.238838474329341,-9.4064969441546271],[-78.238221713247128,-9.4060857703015088],[-78.237844814983916,-9.4056403359330858],[-78.237673486410245,-9.4052634286110202],[-78.237330846244191,-9.4047152033151935],[-78.237022466356407,-9.4044410893324866],[-78.236474239722526,-9.4042012443901797],[-78.236097332318039,-9.4039613890484546],[-78.235926012690982,-9.4038243371668848],[-78.235857486034504,-9.4036530082611449],[-78.235823219088658,-9.4033788949588164],[-78.235823219151015,-9.4026936160698202],[-78.235926012844942,-9.4014601005832628],[-78.235994537733504,-9.4002265870304367],[-78.235926012984095,-9.3997126279062808],[-78.235686167029598,-9.3988902787291746],[-78.235206465729334,-9.3977595670264282],[-78.234658239341812,-9.3967316401800982],[-78.233938683581712,-9.3959778260657369],[-78.232773704967386,-9.3953268062419006],[-78.231677251828529,-9.3946757860912324],[-78.230820643819371,-9.3942988787115809],[-78.229929768681046,-9.39412754861055],[-78.22914169718463,-9.3939904984371214],[-78.228319356350525,-9.3939562295604873],[-78.226880254809203,-9.3937849103644844],[-78.226057915404496,-9.3934765290065343],[-78.225132781638166,-9.3929283021694872],[-78.224790132908041,-9.3925171383762418],[-78.224344700445897,-9.3919003758748261],[-78.223967792982293,-9.3909752423952959],[-78.22364228277182,-9.3902728245620146],[-78.223128323555414,-9.3892791658341412],[-78.222374509847256,-9.3877372699157426],[-78.222134655399159,-9.3870862500902827],[-78.221963334657204,-9.3866065485668706],[-78.22196333531366,-9.3863667033227216],[-78.222100395654422,-9.3861953831025744],[-78.222340242188011,-9.3858870018764904],[-78.222580086867438,-9.3851331887158178],[-78.222682882154729,-9.3843108488707774],[-78.222614355077695,-9.3833857148044171],[-78.222237448339968,-9.3824263136324646],[-78.221757748205633,-9.3814669223525158],[-78.22141510764402,-9.3807131079249864],[-78.221295185832304,-9.3799764227752629],[-78.221329443713643,-9.3793596709114802],[-78.221466505610508,-9.3785030629189254],[-78.221843412160297,-9.3776807242086715],[-78.222254577925597,-9.3771667551700837],[-78.222562958739942,-9.3766527958370709],[-78.222700019833113,-9.3762416206518484],[-78.222700020400296,-9.3756248690856925],[-78.222562958883088,-9.374596941356641],[-78.222288845812656,-9.3733291589255998],[-78.221980464310434,-9.3720956442486862],[-78.221672093299617,-9.3715816864434913],[-78.221192391984346,-9.371067716858839],[-78.220712690588059,-9.3706222836750737],[-78.220095938570481,-9.3699369959742853],[-78.219684763566462,-9.3693545121108457],[-78.219239330795247,-9.3684636363836269],[-78.219016615414574,-9.3677954865746429],[-78.21870823390789,-9.3667675601307945],[-78.218536915340849,-9.3654997772844766],[-78.218639708289032,-9.364780232019088],[-78.21894807877969,-9.3640606853426025],[-78.219290727562992,-9.3635124580878948],[-78.220078799549995,-9.3621076251906334],[-78.220764088207517,-9.361251016642667],[-78.221415108176245,-9.3605657285559598],[-78.222031861145666,-9.3598461817486598],[-78.222511562115145,-9.3590923691300176],[-78.222991263092084,-9.3585784099080609],[-78.223505230679322,-9.3580987086980816],[-78.223950664372211,-9.3578245951179895],[-78.224327570897259,-9.3577218017536286],[-78.224807270738225,-9.357687533977824],[-78.225252703950034,-9.3577218021959343],[-78.225937992133666,-9.3577903278061356],[-78.226417683266334,-9.3578588542459578],[-78.226589011739421,-9.3578588542075636],[-78.226691797389904,-9.3577903277304646],[-78.226657538951486,-9.3574819473243398],[-78.226554744943527,-9.3571735748649214],[-78.226143569961707,-9.3567281333553307],[-78.225835199427323,-9.3563512256309256],[-78.225526817848504,-9.35580299921223],[-78.225286961650852,-9.3552890401069888],[-78.225047117221024,-9.3547065459107319],[-78.224841530389583,-9.3539870001377352],[-78.224635941613613,-9.352959071700699],[-78.224533158197673,-9.3521709912761413],[-78.224361828921147,-9.3514514453220432],[-78.224190510186986,-9.3510402696170587],[-78.223984922228894,-9.3507318992161874],[-78.223779343693352,-9.350594838073782],[-78.22357375638947,-9.3504920432773311],[-78.223059787589989,-9.3504920431760485],[-78.222545829993706,-9.3507318994028825],[-78.222134654995614,-9.3509032186006191],[-78.221620695784651,-9.3510060124064118],[-78.221072469208877,-9.3509717436426776],[-78.220695563193914,-9.3509032186930554],[-78.22048997499293,-9.3508346920222678],[-78.220010275159325,-9.3507661567526821],[-78.219427779908443,-9.3509374770010005],[-78.218811028426771,-9.3513486510964299],[-78.218331327278733,-9.3517940838762676],[-78.217920151787339,-9.3522737852672719],[-78.217543246161014,-9.3527534862654544],[-78.217063553865586,-9.3532331859239015],[-78.216549585739969,-9.3534730307323244],[-78.216395394964067,-9.3535244286829151],[-78.215675848977426,-9.3535929542556921],[-78.214784974009362,-9.3535586964038835],[-78.213928375926585,-9.3533873755762986],[-78.212968973769591,-9.3532160573149614],[-78.212146633572686,-9.3531475223330496],[-78.211324284854271,-9.3531817904077812],[-78.210433419552558,-9.3533873763523268],[-78.209474016964634,-9.3534901713908472],[-78.208309038181724,-9.353455903245786],[-78.207383905188365,-9.3531132627919309],[-78.206321710012759,-9.352427974937882],[-78.205670690137282,-9.3517084290364636],[-78.205156730884696,-9.3509203466007396],[-78.204779823913199,-9.3500637402432893],[-78.204402917183259,-9.3494812548401267],[-78.203991741703234,-9.3489330191551119],[-78.203546310134996,-9.3485561121144745],[-78.203066609282587,-9.348247739820712],[-78.202826753896829,-9.3481449472560918],[-78.202586909155954,-9.3481106786805643],[-78.20234706296813,-9.3481792049841559],[-78.201764568598378,-9.3485218539793564],[-78.201250599603014,-9.348967286977885],[-78.200805167318379,-9.3493784608435444],[-78.200188415192216,-9.3497896267327985],[-78.199366074786042,-9.3501322759297878],[-78.198852105724583,-9.3503378537188588],[-78.198338146623186,-9.3507490280221628],[-78.197926973310445,-9.3513315227575244],[-78.197652858983147,-9.352051068169299],[-78.197344478163757,-9.3526335627671067],[-78.196796250931854,-9.3535244289912924],[-78.196539266695481,-9.3539527316344646],[-78.195991041099049,-9.3545009590451222],[-78.195168702114188,-9.3551177212850387],[-78.194380619425885,-9.355289040388552],[-78.193489753656181,-9.3553232994134561],[-78.19246182736768,-9.3552205151080301],[-78.191468166600885,-9.3550149274551178],[-78.190234651915333,-9.354466700305176],[-78.189035405151145,-9.3539527321710025],[-78.188555705276201,-9.353712887108804],[-78.187938942992091,-9.353507299219693],[-78.187511494914446,-9.3534176209987852],[-78.187162377654346,-9.3534091093535761],[-78.186694043595054,-9.3534431679852581],[-78.186625927212503,-9.3528982032534067],[-78.186468369271424,-9.3523964282227112],[-78.186194255562569,-9.3519852528109499],[-78.185817349099807,-9.3516083467849942],[-78.185337648731405,-9.3511286454404523],[-78.184857947975004,-9.3505461607589009],[-78.184446773066142,-9.3499979243855957],[-78.184172660009736,-9.3494496977658201],[-78.184035606776348,-9.3487986774314784],[-78.184035606823997,-9.3480106051286747],[-78.18403560706362,-9.3471197296821718],[-78.183967081808134,-9.3462288648579861],[-78.18383002066912,-9.3450981437595999],[-78.183710097993924,-9.3441216132733356],[-78.183744365603431,-9.3434705931239161],[-78.183744365593114,-9.3426139850040126],[-78.183641572175077,-9.342100025817297],[-78.183470241682215,-9.3418944385710514],[-78.182990551202977,-9.3415517903664984],[-78.182545108722877,-9.3412776767991659],[-78.181688511390419,-9.3406609250805008],[-78.181208811377928,-9.3401812238698376],[-78.180454996146722,-9.3391190285720977],[-78.179975296326958,-9.3382624314025122],[-78.179358534359167,-9.3372345029377417],[-78.178467668256843,-9.3359667210651196],[-78.177679586047873,-9.3346304234399788],[-78.177097101944995,-9.3334311663964318],[-78.176446081244237,-9.3324375069934824],[-78.175863586633724,-9.3317179601337283],[-78.174698598285914,-9.3305872390408311],[-78.173670671338641,-9.3295593123014342],[-78.172677010809963,-9.3287027042395927],[-78.171991723082598,-9.3280859522232955],[-78.170758218695212,-9.3270237569797132],[-78.169833075210008,-9.3263727358639823],[-78.169267720319709,-9.3259444327326051],[-78.168616699894329,-9.3254647323667008],[-78.168102740728045,-9.3250535668243284],[-78.167760091956993,-9.3245738668774472],[-78.167485979104072,-9.3240941655690293],[-78.167348926041512,-9.3236829909973125],[-78.167211865113842,-9.3232032906299587],[-78.167006278401047,-9.3227235995728268],[-78.166732164109376,-9.3222781570166777],[-78.166355256596347,-9.3219012497233429],[-78.165978350699874,-9.3215928783698008],[-78.165567184835496,-9.3213187652569172],[-78.165087484943811,-9.3209075907972423],[-78.164779103636121,-9.3204621567471158],[-78.164539258395649,-9.3201195083857602],[-78.164333670706981,-9.3197426019002911],[-78.164025289398424,-9.3194342301021909],[-78.163648382694177,-9.3191943752472728],[-78.162860309837313,-9.3189545292958265],[-78.162534801032081,-9.3187660720395886],[-78.161849512929351,-9.3182521133240641],[-78.161404080439596,-9.317703886056659],[-78.160992905183861,-9.3170185975483903],[-78.160684524327593,-9.3161962579345126],[-78.160239090941673,-9.3145515784119475],[-78.160067772298632,-9.3137292287972269],[-78.159999244858128,-9.3126670426009355],[-78.159930719426484,-9.3120502809578003],[-78.159930719139183,-9.3115020551684378],[-78.159999245451885,-9.3109880959108438],[-78.16023909143459,-9.3103713338803811],[-78.160444678128741,-9.3098573752478408],[-78.160478946145659,-9.3094462014238477],[-78.16037615301974,-9.309069292850193],[-78.160102038883082,-9.3085553342508796],[-78.159999245058927,-9.3080071080466258],[-78.160033504382525,-9.3074246141954387],[-78.160170565444233,-9.3069106451920725],[-78.160410410582841,-9.3063281596841598],[-78.160581740046297,-9.3055743469635246],[-78.160581740148828,-9.3049233257851398],[-78.160461807803074,-9.3042551672364446],[-78.160084899855704,-9.3032615078488341],[-78.159742260985169,-9.3024734257319128],[-78.159468147589095,-9.3014454987176496],[-78.159159766971044,-9.3003833142799905],[-78.158919920587493,-9.2993211187996501],[-78.15874860168951,-9.2980190778425325],[-78.158680065847278,-9.2965799757684078],[-78.158748602195587,-9.2955520486254866],[-78.158748601604245,-9.2947982438613703],[-78.158680065919242,-9.2941472238716933],[-78.158611541318876,-9.2933248752181257],[-78.158577282353846,-9.2921256281623545],[-78.15850874561707,-9.2916801949446768],[-78.158371694746663,-9.2914403491289939],[-78.158063313732754,-9.2912347615692212],[-78.157617880806129,-9.2908921132490558],[-78.15731994280101,-9.2905947175780383],[-78.157045829344028,-9.2902863357611309],[-78.156908767689629,-9.2898409033224958],[-78.156874510305883,-9.2890870902856779],[-78.156771715607562,-9.2882647498505229],[-78.156531861245128,-9.2875794618828387],[-78.156223488682983,-9.2869284417634237],[-78.155983634562276,-9.2863802147966297],[-78.155675252850173,-9.2855236067711218],[-78.155572459933381,-9.2849068550696714],[-78.155435407649378,-9.2843586190441112],[-78.155195561716354,-9.2835705465761791],[-78.155127027024875,-9.2827139394504545],[-78.155024233026865,-9.281994391668281],[-78.154767257955768,-9.2814975628248604],[-78.154390351571351,-9.2811549143401209],[-78.154013444649664,-9.2809493266405578],[-78.153499475731209,-9.2808808003399363],[-78.152814197993763,-9.2807094812095681],[-78.152231703884411,-9.2804696355551766],[-78.151100982037093,-9.2796815539720647],[-78.150689808400159,-9.2792018528858708],[-78.150141580648835,-9.2786536274115647],[-78.149661880689166,-9.2781053999002747],[-78.149353509127693,-9.2775571725657517],[-78.149182179595201,-9.2770774726059901],[-78.149113653549549,-9.276632039660754],[-78.149045128210233,-9.2762208646988764],[-78.148908067424514,-9.2758782260985608],[-78.148668221022717,-9.2756041129306279],[-78.148291313767132,-9.2752272058009506],[-78.147743086578629,-9.2746447116159949],[-78.147263387000734,-9.2741307431650277],[-78.147092066934292,-9.2738908971873659],[-78.146749417668261,-9.2734797229231134],[-78.146303984945305,-9.2730342893590176],[-78.14585855337684,-9.2726231247688169],[-78.145378851957574,-9.2722119500215445],[-78.145001944689383,-9.2718350433738852],[-78.14452224505736,-9.2711497549933455],[-78.144179604918335,-9.2705672698168762],[-78.143768430262696,-9.2700875703539936],[-78.143322997664839,-9.2696421367229789],[-78.142843296846408,-9.2690939005814919],[-78.142525993906602,-9.2687765987241661]]]},"properties":{"OBJECTID":931,"CODIGO":"1375961","NIVEL":7,"NIVEL7":"1375961","NOMB_UH_N7":"Bajo Casma","Nombre_UH":"Bajo Casma","AREA_KM2":418.23149999999998,"AREA_FINAL":416.01179999999999}}]}