{"type":"FeatureCollection","crs":{"type":"name","properties":{"name":"EPSG:4326"}},"features":[{"type":"Feature","id":929,"geometry":{"type":"Polygon","coordinates":[[[-77.743915854945513,-9.3707404862823083],[-77.743988432571058,-9.3706305314031262],[-77.744139466157293,-9.370246870593931],[-77.744174675086526,-9.3698258721877963],[-77.744171668986382,-9.3694434097611463],[-77.744168054714208,-9.3689844516395926],[-77.744242078037303,-9.3686014013150274],[-77.74416234921658,-9.3682577831500122],[-77.743812452180919,-9.3678397604422727],[-77.74354077371305,-9.3675741312282863],[-77.743346723315128,-9.3673843882160437],[-77.743035336270793,-9.3669660713478162],[-77.742915907556352,-9.3664697643403585],[-77.742797069901144,-9.3660499540074671],[-77.742717350088896,-9.3657063348501506],[-77.742714344212828,-9.3653238736938071],[-77.742710739920241,-9.3648649256950289],[-77.742784458743941,-9.3644436216408629],[-77.742742648949076,-9.3640232119852609],[-77.742663527853509,-9.3637560894196934],[-77.742622916359011,-9.3634886623883684],[-77.742561248140916,-9.3629919094140206],[-77.74274749882629,-9.3621872499374277],[-77.742898835872225,-9.3618418430270172],[-77.74304897584544,-9.3613434534443076],[-77.743083280706159,-9.3608077142887325],[-77.743003256892038,-9.3604258519356911],[-77.742845318607479,-9.3599298403400404],[-77.742843217343164,-9.3596621179125314],[-77.742917535021419,-9.3593173108637551],[-77.74318500023594,-9.3590474961315682],[-77.743415162921167,-9.3589309781861747],[-77.743721432816557,-9.3586991117954206],[-77.743911585454157,-9.3583916544403429],[-77.744177841429291,-9.3579688659153373],[-77.744520823246788,-9.3575072273339668],[-77.744787690130352,-9.3571609262671576],[-77.744976633197979,-9.356700484622996],[-77.74508915633578,-9.3563171287067526],[-77.745239884132744,-9.355895236336325],[-77.745505552149183,-9.3553959428967755],[-77.745734204079909,-9.3550881891953974],[-77.745963148584565,-9.3548186801952085],[-77.746076271941178,-9.354511820088117],[-77.74622400500111,-9.3537074557053064],[-77.746297418907048,-9.3532479088167246],[-77.746486361867923,-9.3527874683363148],[-77.746675601033857,-9.3523652698692086],[-77.746788428791149,-9.3520201679111974],[-77.746901551076292,-9.3517132980274287],[-77.747051974964563,-9.3512531622418589],[-77.747395251110831,-9.3508297656129624],[-77.747624797308816,-9.350636752212603],[-77.747892557149029,-9.3504051903895231],[-77.748082393607319,-9.3500594794259957],[-77.748310741265982,-9.3497134819109959],[-77.748577597124992,-9.3493671806586924],[-77.748998778150252,-9.3490579352486183],[-77.749382655954918,-9.3489019662141661],[-77.74980444457907,-9.3486692056703973],[-77.750149509689209,-9.3484752880807065],[-77.750455169876503,-9.3481669359380319],[-77.750722321097086,-9.347858878550344],[-77.751086342111861,-9.3476265747496807],[-77.751507826178951,-9.3473555620951707],[-77.751929309585776,-9.3470845590613383],[-77.752274375258949,-9.3468906419539497],[-77.752619144358476,-9.3466584810024571],[-77.752771965320861,-9.3465043094328912],[-77.753000311553464,-9.3461583026617827],[-77.7531907398442,-9.3458890880900594],[-77.753382080110569,-9.3457346122256961],[-77.753765644258962,-9.3455404001446034],[-77.754073102414566,-9.3454615158519729],[-77.754342355951579,-9.3454211808629868],[-77.754765942207328,-9.345417890260979],[-77.755073999845877,-9.3454155030604511],[-77.755420567159817,-9.3454128112486163],[-77.755843250012774,-9.3452947807939797],[-77.755996375183344,-9.3451788527404691],[-77.756302626026994,-9.3449469865757973],[-77.756685895798228,-9.344714522186619],[-77.756993049920681,-9.3445973959330821],[-77.757261390256488,-9.3444423197351743],[-77.757491229781934,-9.3442875397376088],[-77.757682264686437,-9.3440948107919173],[-77.757833878244057,-9.3437876570763869],[-77.75798580540544,-9.3435187367456791],[-77.758406671731748,-9.3431712374413909],[-77.758790236340545,-9.3429770160346095],[-77.75940544754593,-9.3428574928200181],[-77.7597122981486,-9.3427021134337416],[-77.759903323669988,-9.3425093938727866],[-77.760093750778154,-9.3422401794041168],[-77.760245364231849,-9.341933014608907],[-77.761010382005097,-9.3412768592657791],[-77.76123991787918,-9.3410838345633422],[-77.761507952565694,-9.3408905077106255],[-77.7618129958542,-9.3405056593113418],[-77.76192730794105,-9.3403517832831096],[-77.761963097102239,-9.3400072698335261],[-77.762113807427809,-9.3395853669320541],[-77.762760879607967,-9.3386241388810021],[-77.76291310198134,-9.33839347222413],[-77.763141724875936,-9.3380857092469789],[-77.763369443652778,-9.3376632155664794],[-77.763520458104423,-9.3372795659506096],[-77.763633561341678,-9.3369726970194886],[-77.763900693329234,-9.3366646398486406],[-77.764396448336896,-9.3360488185696635],[-77.764625974589578,-9.3358557959016402],[-77.764893106739379,-9.3355477384512042],[-77.765274844735984,-9.3351240370964508],[-77.765888525906988,-9.3348132778006185],[-77.766464011182549,-9.3345410678263505],[-77.766887273575605,-9.334499524371985],[-77.767233518384899,-9.3344585792701196],[-77.767772604137747,-9.3344543846878576],[-77.768158565565898,-9.3345661193494038],[-77.768332442827713,-9.3346412648156925],[-77.768679599666399,-9.3347150502326528],[-77.76898856229522,-9.3348273828293351],[-77.769181690214921,-9.3349023768825496],[-77.769336622969746,-9.3350159075663335],[-77.769529750121833,-9.3350909022881883],[-77.769838711354168,-9.3352032339815789],[-77.770108249675673,-9.3352011328804334],[-77.770493307999104,-9.3351981372494279],[-77.770723432946752,-9.3350815996161494],[-77.771068478436106,-9.3348876731965724],[-77.771158023859556,-9.334848725931483],[-77.771181877401631,-9.3346190469598689],[-77.771333481219799,-9.3343118937049461],[-77.771408074149448,-9.3340053292704717],[-77.771405659214381,-9.3336993635626815],[-77.771402330237109,-9.3332786689031089],[-77.77132168697446,-9.3328203289973608],[-77.771318368421959,-9.3323996342090254],[-77.771313831933753,-9.3318259557086431],[-77.771502432436023,-9.3313272622026098],[-77.77176804163058,-9.3308279791719553],[-77.772111565782012,-9.3304428174236591],[-77.772340474436447,-9.3301733060895149],[-77.772492078054668,-9.3298661431731258],[-77.772642778137978,-9.329444239585321],[-77.772871086633472,-9.3290982332022345],[-77.773100298969041,-9.3288669565881364],[-77.773251598354108,-9.3285215498375145],[-77.773438992450281,-9.3278698837994192],[-77.773512977224001,-9.3274868329789147],[-77.77350934383621,-9.3270278941886104],[-77.77350571875661,-9.326568947190399],[-77.77373190810475,-9.3259552277695263],[-77.774151527919742,-9.3254547357571376],[-77.774534160648329,-9.325145774706689],[-77.774763677588226,-9.3249527418138829],[-77.775108094719826,-9.3246823283060785],[-77.775414011675807,-9.3244122095632314],[-77.775641417716372,-9.3239514652983875],[-77.775714793689517,-9.3234919273288668],[-77.775671747700045,-9.3229185438667859],[-77.775551701713269,-9.3223457700300632],[-77.775510177696759,-9.321963621564116],[-77.775506544803193,-9.3215046843085076],[-77.775540211862847,-9.3208924588584043],[-77.775690304380348,-9.3203940692814111],[-77.775725180978668,-9.3199348362397636],[-77.775682437600466,-9.3193996963652665],[-77.775699882439241,-9.3191700843123222],[-77.775695944413414,-9.3186728933538916],[-77.775770537584748,-9.3183663289092973],[-77.775960641861019,-9.3180588700428562],[-77.776265341658345,-9.3176357691216101],[-77.776339935324287,-9.3173292137779367],[-77.776414215651585,-9.3169844057266342],[-77.776449396284207,-9.3165634067351846],[-77.776600391556656,-9.316179757050616],[-77.776637074605773,-9.3159499923985667],[-77.776710755559989,-9.3155286887191995],[-77.776669534679257,-9.3151847850749441],[-77.776474904560644,-9.3149185752665886],[-77.776318470086011,-9.3146138177205273],[-77.776276336038919,-9.3141551744381399],[-77.776235725007609,-9.3138877562844478],[-77.776194200357054,-9.313505608596147],[-77.776123819782626,-9.3133012577173186],[-77.776229676104933,-9.31312285343318],[-77.776304868832185,-9.3128927841117903],[-77.776419475351943,-9.3127771514077082],[-77.776687188166079,-9.3125455803946817],[-77.776955499552344,-9.3123904959564445],[-77.777147409711276,-9.3123125056418825],[-77.777415721560502,-9.3121574218620964],[-77.777683129967656,-9.3118876066825376],[-77.777988429634021,-9.3115410019182807],[-77.778294946140178,-9.311347370099611],[-77.778717267780138,-9.3111910871984076],[-77.778946469722314,-9.3109598201476746],[-77.779251170619418,-9.3105367192923456],[-77.779401852150443,-9.3101148254114889],[-77.779552238258887,-9.3096546787830707],[-77.779780527860567,-9.3093086733824073],[-77.78004792694378,-9.3090388575920411],[-77.780198911564426,-9.3086552083691103],[-77.780388102040448,-9.308233011420521],[-77.78065519560468,-9.3079249437604688],[-77.780885607036979,-9.3078466500938326],[-77.781270027665983,-9.3077671579353201],[-77.781693557076423,-9.3077638584253233],[-77.781885762992871,-9.3077241020892902],[-77.782231683662232,-9.3076449140557465],[-77.782423594924296,-9.3075669147047702],[-77.782731309422516,-9.3075262660052953],[-77.783462849424751,-9.3075205501236908],[-77.783769356032849,-9.3073269281238229],[-77.783999462958178,-9.3072103810751496],[-77.784210319282437,-9.3070939960624948],[-77.784864554405118,-9.3070506356071139],[-77.785095260140636,-9.3070105859272285],[-77.785325974868414,-9.3069705351385483],[-77.785519092892301,-9.3070455192960857],[-77.785751015881146,-9.3071584512735512],[-77.78590592882523,-9.3072719832821811],[-77.786060851857755,-9.307385514211802],[-77.786254275955258,-9.3074987413104449],[-77.786563197696566,-9.3076110651410389],[-77.786795426192683,-9.3077622405737621],[-77.787028262075751,-9.3079899026863639],[-77.787183174805207,-9.3081034339133595],[-77.787182271592798,-9.3079886954013613],[-77.787257151362311,-9.3077203826941801],[-77.787023106645989,-9.3073397387588113],[-77.786904868432501,-9.3069964428836549],[-77.786786028852035,-9.3065766509063881],[-77.78678117780305,-9.305964740191861],[-77.78693184984219,-9.3055428372006137],[-77.787082834790908,-9.3051591866519239],[-77.787156801790886,-9.304776135625648],[-77.787269276697032,-9.3043927898576442],[-77.787458762567468,-9.304008834734228],[-77.787725239189896,-9.3036242812040175],[-77.788069029377198,-9.3032773724370657],[-77.788296701284281,-9.302854870152041],[-77.788447676100049,-9.3024712198119044],[-77.788598347571352,-9.3020493269901703],[-77.788864528626348,-9.3016265199516841],[-77.789092808953896,-9.3012805126109033],[-77.789475393669804,-9.3009715431060105],[-77.789858596905788,-9.3007390681574318],[-77.790202682005187,-9.3004304021143493],[-77.790431867405402,-9.3001991264002264],[-77.790929047840748,-9.2997745122728332],[-77.791195524423358,-9.2993899580680814],[-77.79134740259218,-9.2991210377981304],[-77.791614487838757,-9.2988129801007613],[-77.79184124610029,-9.2982757385604451],[-77.792012376141471,-9.2980066757251549],[-77.792279156640205,-9.2976603646947353],[-77.792468622981033,-9.2972764104411283],[-77.792581403187839,-9.2969313075779336],[-77.793075237167528,-9.2960860092499278],[-77.79361060504263,-9.2956228583263432],[-77.793916484298023,-9.2953527294197649],[-77.794260568992897,-9.2950440628053901],[-77.794643448639235,-9.2947733359906337],[-77.795064828702493,-9.2945023028458706],[-77.795371621203287,-9.2943469146139108],[-77.795831805688294,-9.2941138305911455],[-77.796252271840729,-9.2937280697192346],[-77.796442651629391,-9.2934588446255688],[-77.796710326714489,-9.2932272638629634],[-77.797132011365036,-9.2929944859312101],[-77.797477293939863,-9.292838792139186],[-77.79786047838958,-9.292606309058991],[-77.798204847560001,-9.2923358745831131],[-77.798433119083654,-9.291989869137911],[-77.798546184689073,-9.2916830006797451],[-77.798659259332567,-9.2913761412018854],[-77.798926629233605,-9.2911063183434148],[-77.799041216640845,-9.2909906852382793],[-77.799654793226921,-9.2906798972740372],[-77.799808487731539,-9.2906404446160877],[-77.800307771977572,-9.2904835439204625],[-77.8005378591116,-9.2903669981731536],[-77.800767642005638,-9.290212209285043],[-77.800920729664426,-9.2900962611315681],[-77.801112316778315,-9.2899800190018649],[-77.801188100289394,-9.2898264382314881],[-77.801225078391695,-9.2896349174349364],[-77.801376644260358,-9.2893277532129552],[-77.801643709900958,-9.289019685418678],[-77.801949883604436,-9.2887878014324254],[-77.802178754127837,-9.2885182813069243],[-77.802637397577001,-9.2880939626976708],[-77.803059377065665,-9.2878994172888198],[-77.803559867574151,-9.2878954899439581],[-77.803829369185777,-9.2878933784209874],[-77.804060674011595,-9.2879298038367075],[-77.804329555901262,-9.2878512070687496],[-77.804559643039426,-9.2877346514511476],[-77.804604154016204,-9.2876671711022851],[-77.804985331426877,-9.2879371658673087],[-77.805499299961639,-9.2882455473555563],[-77.805807670948823,-9.2885539281266354],[-77.805978990844537,-9.2889308351657309],[-77.80625310358532,-9.2897874426769942],[-77.806424434061228,-9.2906783090974336],[-77.806595753234504,-9.2913635966966019],[-77.806904134245329,-9.292014616692903],[-77.807178247112958,-9.2924943180017205],[-77.807520885586683,-9.2928712245762064],[-77.807966320245626,-9.2932138631436612],[-77.808446019831337,-9.2932823895636822],[-77.808959988594864,-9.293076802175996],[-77.809679534407067,-9.2927684312714245],[-77.810330555061682,-9.2926313692848002],[-77.811324214029682,-9.2924257817227947],[-77.812831842205725,-9.2922202044097464],[-77.813928296077208,-9.2921859370794397],[-77.814647850944354,-9.2922202042252398],[-77.815847098401647,-9.2921174111510663],[-77.816875024698561,-9.2919460906834956],[-77.817731633324271,-9.2917747621073232],[-77.818279860230987,-9.2917747622873357],[-77.81879381903471,-9.2917747621145637],[-77.819136467737849,-9.2919118233076468],[-77.819616159008561,-9.2922202040992978],[-77.819958806658718,-9.2925285763556378],[-77.820164394285513,-9.2929397496106532],[-77.820404240408649,-9.2936250383496404],[-77.820541292194648,-9.2942417913279112],[-77.820575560164272,-9.2949270791158796],[-77.820404240036126,-9.2955095641982339],[-77.82019865234976,-9.2960920582234738],[-77.820164393623372,-9.2965374909027219],[-77.820301446674662,-9.2971885124026308],[-77.820609828194705,-9.2977710048646003],[-77.821158054450549,-9.298559086666593],[-77.82174054814304,-9.2992786330682833],[-77.822117455042545,-9.2995184786317129],[-77.822631413651564,-9.2997240661995981],[-77.823008320787196,-9.2999981800426443],[-77.823419495769883,-9.3003408293986105],[-77.824036247922905,-9.300923313200256],[-77.824653000624878,-9.3016771274426446],[-77.825098442549958,-9.3023624157919169],[-77.825749463663342,-9.3032190228217875],[-77.826469009963006,-9.304144156304412],[-77.82732561656465,-9.3051720842981052],[-77.828353544355394,-9.3063370629159259],[-77.829484266333381,-9.3074335245517954],[-77.830049621360232,-9.3080674067425146],[-77.830803434572218,-9.3088554882685699],[-77.831454455019369,-9.3095407767224749],[-77.832208269992364,-9.3102603229657941],[-77.83279076295986,-9.3109113427026085],[-77.833407517037912,-9.3116308896808295],[-77.833887216856809,-9.3120420643042383],[-77.834332649743374,-9.3123161772346066],[-77.835120731357492,-9.3124874972993954],[-77.836491298184242,-9.3124874974157006],[-77.837964657593062,-9.3124532298251204],[-77.83868421404884,-9.3124189705727041],[-77.839540821551921,-9.3123847032228451],[-77.840191841889904,-9.3122819099564254],[-77.840877119696046,-9.3120420644108588],[-77.841682330825904,-9.3116822861755839],[-77.842059237551936,-9.3116137603455496],[-77.842470412667424,-9.3117165540319675],[-77.842881576939661,-9.3119563987297891],[-77.843292752864954,-9.3123333067635699],[-77.84387524644832,-9.3127444810678632],[-77.844457732177759,-9.3131213878657615],[-77.845245813258686,-9.3133269758643671],[-77.846513585945402,-9.313464027126825],[-77.847301667978655,-9.3134640267568845],[-77.848329595165609,-9.3133612342306105],[-77.849186201912758,-9.3131213883088968],[-77.850042810032093,-9.3128472745943203],[-77.850693830295242,-9.3125046257649764],[-77.851344851226585,-9.3122305126479965],[-77.851653222136719,-9.3121619872164985],[-77.851995871265245,-9.3121619873904127],[-77.85240703604218,-9.3123675746932815],[-77.852972401363147,-9.312556023233368],[-77.853726216417499,-9.3125560225825978],[-77.854308700292606,-9.3125217642451688],[-77.854822667978624,-9.3125902909056268],[-77.855233833717776,-9.3126930838078401],[-77.855576483432543,-9.3129671975816688],[-77.855850595670375,-9.3133783720274401],[-77.856056183151196,-9.3137552696462649],[-77.856124709242579,-9.3140293918360708],[-77.856398823381099,-9.3148174646477422],[-77.856844254812785,-9.3160509789387298],[-77.857221161730251,-9.3170446387554513],[-77.857426749838808,-9.3173872875983896],[-77.857700863119547,-9.3175928657383835],[-77.858317614564157,-9.3177641947048357],[-77.859345541730846,-9.3177299271022296],[-77.860510531195175,-9.3174558143017681],[-77.86129861311241,-9.3174215461110474],[-77.862258004593343,-9.317421545861146],[-77.863183137799993,-9.3176271334280667],[-77.864245332636841,-9.3180040403714184],[-77.864896354091798,-9.3183124208128625],[-77.865581642272318,-9.3186550595658115],[-77.866198393637163,-9.3188949061175741],[-77.86681514592135,-9.3190319672938813],[-77.86729484663384,-9.3191347609666106],[-77.867706022430355,-9.319271813274943],[-77.868014402596074,-9.3194431422383399],[-77.868322773557551,-9.3196487201775646],[-77.868733949041356,-9.319991367664473],[-77.869042329997853,-9.320402534009423],[-77.869316443240606,-9.3208822343281259],[-77.869522021007086,-9.3216360488483812],[-77.869693350042027,-9.3219786878679187],[-77.869967463175428,-9.3221500167740974],[-77.870412897169615,-9.3224241301322444],[-77.871269504968438,-9.322801037382245],[-77.871954783367201,-9.3230408821751514],[-77.872537277174544,-9.3234177902595476],[-77.873016976982498,-9.3237604288829754],[-77.873393884788811,-9.3241030784014889],[-77.873667997944992,-9.3244799847386606],[-77.873873585445892,-9.3249939429341016],[-77.874044905150456,-9.3255079112183275],[-77.874216225099147,-9.3262274577650679],[-77.874490337396907,-9.3270155304396791],[-77.874832986264821,-9.3275980247372701],[-77.87520989384312,-9.3282833128151204],[-77.875518264865988,-9.3286602200605557],[-77.875963697603837,-9.3288658065574079],[-77.876443399068179,-9.328900065167975],[-77.877197211954012,-9.3289686008038899],[-77.877676913351834,-9.3291056515786188],[-77.878327932760584,-9.3291056522923537],[-77.879150273127635,-9.3290371262709328],[-77.879767036382333,-9.3290371262353329],[-77.880212467840295,-9.3291399200576919],[-77.880486581240262,-9.3293112403325082],[-77.880760694573311,-9.3296196209167377],[-77.8809320146337,-9.3300307858051692],[-77.881000549973791,-9.3302706410993892],[-77.881103333928209,-9.3304076925798736],[-77.881206127630634,-9.3304419611664553],[-77.881445983423461,-9.330339165845821],[-77.881891415660803,-9.3302021047105157],[-77.882268322728905,-9.330202105325661],[-77.882713755953091,-9.3302706410794762],[-77.883364776214421,-9.3304419608749125],[-77.883707425084708,-9.3305790116223122],[-77.884050064381,-9.3306818060160808],[-77.884564022806543,-9.3307846002221417],[-77.885043723337787,-9.3308873933828043],[-77.88542063085616,-9.3310587127832534],[-77.885763278886415,-9.3312643010761924],[-77.886037392263532,-9.3315726811567217],[-77.886277238248027,-9.331949589063985],[-77.886448558134461,-9.3324635475694695],[-77.886619877997603,-9.3330117744239445],[-77.886825464298553,-9.3335942676971086],[-77.887031051839088,-9.3339369076869811],[-77.887339433049192,-9.3343138146277553],[-77.887750597730118,-9.3347592567632827],[-77.888127506377373,-9.3350676277396261],[-77.88847015427254,-9.3353417415993096],[-77.88874426690677,-9.3356843900369988],[-77.888915586805794,-9.3361640906971335],[-77.888984111632865,-9.3367465761910875],[-77.889052639237192,-9.3375346572954996],[-77.889155431843903,-9.3380486159308642],[-77.889395287235942,-9.3386996356583829],[-77.889806452878048,-9.3392136045913148],[-77.89028615393805,-9.3396590380897546],[-77.890937174325288,-9.3401044708627978],[-77.891862306921809,-9.3406869650358271],[-77.89227348205263,-9.3410638718247938],[-77.892616121368079,-9.3414407787855378],[-77.892958770383828,-9.3420232728989419],[-77.893198615021262,-9.3428113462384044],[-77.893301409144115,-9.3431539946107662],[-77.893438461140263,-9.3434281078786707],[-77.893712573765612,-9.3434281078041526],[-77.894123748928067,-9.3432567875779373],[-77.894774768626334,-9.3431882515571179],[-77.895151675637123,-9.343188252405179],[-77.896213871117155,-9.3433938395745262],[-77.896933416915914,-9.3436336953227368],[-77.897687230673938,-9.3439420671940709],[-77.898441045071721,-9.3443189744280559],[-77.899023538575008,-9.3447644059315245],[-77.899571766210016,-9.3453469005654188],[-77.900085724940055,-9.3459636628468861],[-77.900514029062933,-9.3465290192369057],[-77.900856667691542,-9.3469401929389146],[-77.901267842065991,-9.3472485650234045],[-77.90181606931209,-9.3476940066379992],[-77.902535615914545,-9.3480023788947548],[-77.902946790157799,-9.3480709139813367],[-77.903495016759734,-9.3481736982525288],[-77.904420150136531,-9.3483792859335377],[-77.905311026430425,-9.3488247177094195],[-77.90579072616967,-9.3491330988313415],[-77.906338952871835,-9.3495100056701386],[-77.906989973137584,-9.3501610268178883],[-77.907435405570865,-9.3509148411171683],[-77.907709520446289,-9.351428808929537],[-77.907949365383033,-9.3520798300081118],[-77.908326271907455,-9.3526965817280399],[-77.908703179257728,-9.353176281711395],[-77.90899443104415,-9.3535703177508953],[-77.909234276345032,-9.3538786992341354],[-77.909337069592468,-9.3541185452275428],[-77.909302802586097,-9.3544269258352273],[-77.9091657496202,-9.3549751533299528],[-77.909028689163122,-9.35562617293761],[-77.908925905048278,-9.3563114611675182],[-77.908823110695522,-9.3571680692524311],[-77.908754575805588,-9.3580589343309697],[-77.908754575806526,-9.3588470168826277],[-77.908891636611202,-9.3597036142648786],[-77.909097224687955,-9.3603546349502302],[-77.909405596062612,-9.3611084480235274],[-77.909782503425646,-9.3616909426931443],[-77.910296471756766,-9.3622734373439016],[-77.910656240067937,-9.3626674727093135],[-77.91117020755172,-9.3631129074124697],[-77.911684166677119,-9.3634555538315443],[-77.911958290168926,-9.363729668360234],[-77.912129609088396,-9.3640037811800187],[-77.912163868133817,-9.3643464206490918],[-77.91206107405489,-9.3650317085655921],[-77.911958289989656,-9.3657169973728536],[-77.911958289783385,-9.3660253679313481],[-77.912095340671087,-9.3662652242333326],[-77.912506516310629,-9.3665050693565828],[-77.913054743102819,-9.3666421296288203],[-77.913397383086192,-9.3667449240062268],[-77.913637236915392,-9.3669162436498699],[-77.913740022134391,-9.3671560889788559],[-77.913740021623028,-9.3676700565680608],[-77.913671495097688,-9.3684581302247381],[-77.913465907825696,-9.3691091495606749],[-77.913191794777973,-9.3697944378011186],[-77.912883423592291,-9.3703426640681453],[-77.912643567564729,-9.3711992723944011],[-77.912575042980123,-9.3717132305580382],[-77.912643568355406,-9.3723985192363273],[-77.912883424353268,-9.3730495392663258],[-77.91322606287946,-9.3738718791117215],[-77.913465908068289,-9.3745228990774425],[-77.913671495323754,-9.3751396610182809],[-77.913894211872019,-9.3758763374338034],[-77.914271118623645,-9.3767329437952895],[-77.914682293123292,-9.3774867581973425],[-77.914887881382626,-9.3780692522899738],[-77.91512772667177,-9.3786860051528933],[-77.915504633137516,-9.3793370256558219],[-77.915950067224742,-9.3798852518615323],[-77.916566827862496,-9.3807076021003724],[-77.916977993680177,-9.3813243538934472],[-77.917491961869004,-9.3822152196804982],[-77.917937395084124,-9.3832431472433022],[-77.918262905023482,-9.3838085116957508],[-77.918605543877135,-9.3842882128283502],[-77.919119512089367,-9.3849049646147975],[-77.919804800419442,-9.3854531922056612],[-77.920421552635887,-9.3858986250043817],[-77.920935511605876,-9.3862755323912683],[-77.921415213136953,-9.386618180630526],[-77.921929180608089,-9.3869608201677668],[-77.922408882427931,-9.3874062526439452],[-77.922648726791778,-9.3876803656916614],[-77.922854315105127,-9.3880915407626269],[-77.922922840968994,-9.3885369740179101],[-77.922854314764777,-9.3891194679854308],[-77.922648727185944,-9.3895991686772824],[-77.92251167468315,-9.3900446014472294],[-77.92251167495894,-9.3904557767605521],[-77.922648726544196,-9.3908326827438433],[-77.922888583310908,-9.3911410549637182],[-77.923299746873411,-9.3915864974056618],[-77.92367665368171,-9.3919291366247997],[-77.924224880741605,-9.3923745693892879],[-77.924773107289241,-9.3926829502473907],[-77.925561189556646,-9.3929913208057556],[-77.926623383626136,-9.3931626512388444],[-77.927205869214589,-9.393162650919983],[-77.928199538310309,-9.3930255891666352],[-77.928953352300866,-9.3929227955901862],[-77.929518708364853,-9.392802873071048],[-77.930066933808575,-9.3927686050541102],[-77.930580902976985,-9.3929399338478401],[-77.931026334917476,-9.3932140476821644],[-77.931437501018479,-9.3934881605905822],[-77.931917201187986,-9.3940363879489155],[-77.932174804140729,-9.3943827839208698],[-77.932483175265574,-9.3947939489799204],[-77.93244917429341,-9.3953775086142102],[-77.932346379950914,-9.3959257346106249],[-77.932277853944782,-9.3969194041077131],[-77.932380648375897,-9.3977074758261132],[-77.932586226241227,-9.3982557032072958],[-77.932826081263116,-9.3986326086990815],[-77.933168719892905,-9.3990437851289919],[-77.933579894791578,-9.3993521654047072],[-77.934093854399009,-9.3996262780245718],[-77.934607822431573,-9.3999346512631163],[-77.935258842868492,-9.400448618105619],[-77.935704275119718,-9.4008940519140669],[-77.936115450374032,-9.4013737523299596],[-77.936389563072879,-9.4020247723181232],[-77.936629408341403,-9.40260726735929],[-77.936732203109671,-9.4027443192041513],[-77.936903521692614,-9.402812853758526],[-77.937451749288854,-9.402915638728885],[-77.938137035583111,-9.4029156385807919],[-77.938685263357087,-9.4030527001918998],[-77.939267758031619,-9.4032925454482328],[-77.939610396952915,-9.4035666675717611],[-77.939815984197224,-9.4037722455527764],[-77.940398478921963,-9.4045260597405047],[-77.940878179279807,-9.4053826681235613],[-77.941066628025027,-9.4058794969651487],[-77.941375008777811,-9.4069074239313615],[-77.941477802803504,-9.4075584443010047],[-77.941683381180411,-9.4080381453467368],[-77.94185471041429,-9.4082779998780612],[-77.942060287406605,-9.4084150515585225],[-77.942368668953833,-9.4085863721519143],[-77.942882636399659,-9.4087576912850643],[-77.943499389597591,-9.4089632792587672],[-77.944116142077732,-9.4093059277656224],[-77.944630109851033,-9.4096828346043182],[-77.945212603996566,-9.4100940002184039],[-77.945760831135942,-9.4103338549745619],[-77.9464461091126,-9.4105051752762225],[-77.947062871340961,-9.4107107517372857],[-77.947713891607521,-9.4109848746867666],[-77.948364913232822,-9.4113960402639858],[-77.94884461345066,-9.4117044208658491],[-77.949187251996364,-9.4119785351650709],[-77.949529892135686,-9.4123211741206223],[-77.949769746283053,-9.4128351432190751],[-77.949975333972986,-9.4138630703279329],[-77.950317973303115,-9.4146854097169879],[-77.950831932265956,-9.4155077500113862],[-77.951208838868695,-9.4163300885789294],[-77.951397297057994,-9.4168611873560675],[-77.951705678130281,-9.4176492682987423],[-77.951911255879395,-9.418334546670204],[-77.952048317438141,-9.4190541026384125],[-77.952288163096242,-9.4197051228395381],[-77.952699337318819,-9.4202876077472038],[-77.953179038221293,-9.4207330499452802],[-77.953624471661527,-9.4210756889823379],[-77.954069904108366,-9.4214183290018276],[-77.954412552703786,-9.4216924420512402],[-77.954686665644545,-9.422035090800426],[-77.954857986363962,-9.4222749359964393],[-77.955063573313922,-9.4225147906774396],[-77.955406212268244,-9.4227546367098256],[-77.955748852050291,-9.4228574300019687],[-77.956297078784331,-9.4228916984330429],[-77.956845314382193,-9.4229259568667114],[-77.957222221271024,-9.4229944816378275],[-77.957701911877038,-9.4231658107948668],[-77.958181612601834,-9.423371389187075],[-77.958695580689266,-9.4234399249960674],[-77.959226679190721,-9.4233885269772326],[-77.96004901868092,-9.4232172080194871],[-77.960665771347976,-9.4232514659524025],[-77.961625171545251,-9.4233885267334294],[-77.962413243611394,-9.4235941151845637],[-77.963201326952927,-9.4239367537636074],[-77.964092192298907,-9.4243821878833867],[-77.964777479853339,-9.424724827378407],[-77.965325707211449,-9.4250332080591992],[-77.965736881208215,-9.4253073207335767],[-77.966148047260972,-9.4256842276048243],[-77.966524954102837,-9.4258898153782695],[-77.967141716100556,-9.4260268675912062],[-77.967621415683993,-9.4261296608157021],[-77.967758468445851,-9.4261981973929672],[-77.968032582214647,-9.4263695155756881],[-77.968512281689144,-9.4267806812106691],[-77.969197569842166,-9.427328917338027],[-77.969677271324727,-9.4277743501821529],[-77.970122704379136,-9.4282197830469592],[-77.970636661880889,-9.4289050712885096],[-77.970910776384585,-9.4294875563903613],[-77.971150631174254,-9.4301728436977132],[-77.971424744450772,-9.430584017802639],[-77.971835919436415,-9.4310294523764586],[-77.97221281678398,-9.431440626139084],[-77.972589722832879,-9.4317489968058723],[-77.973069424279359,-9.4319888533268319],[-77.973514866618132,-9.4320916458562429],[-77.973754712158311,-9.4321944305757803],[-77.973926030741922,-9.4322972244246515],[-77.974131619293146,-9.4325028115552048],[-77.974337206304966,-9.4328111925564126],[-77.974645578418446,-9.4332566248791618],[-77.97505675332711,-9.4336678002158614],[-77.975536452892129,-9.4340789650463073],[-77.975964757058733,-9.4344730112560562],[-77.976547251214257,-9.4350212373442552],[-77.977026942343343,-9.4356722579200767],[-77.977403848787063,-9.4363575362824132],[-77.978157664274676,-9.4376595768986018],[-77.978671630676317,-9.4384133909191803],[-77.979356910373554,-9.4392699986026241],[-77.980384837418512,-9.4399895445882684],[-77.981412765323668,-9.440469246442321],[-77.982132320628224,-9.4407433592949754],[-77.98285186563119,-9.4409832138191483],[-77.984256700909597,-9.4417712860878602],[-77.985284627545511,-9.4425593669158818],[-77.986381080721145,-9.4432446560097976],[-77.987409008338872,-9.4438614075751968],[-77.988111425431939,-9.4443239797954401],[-77.988762445783607,-9.4447008869122318],[-77.989550528381855,-9.4450777841131863],[-77.990304340805523,-9.4452833709434021],[-77.990886836365434,-9.4454889592384284],[-77.991572114839144,-9.4459343912520914],[-77.991983288574772,-9.4462085052797633],[-77.992394453549963,-9.4463798344425189],[-77.992839897258662,-9.4464483604217175],[-77.993011215675466,-9.4465854108850831],[-77.993045475313721,-9.446825267025547],[-77.992994077809627,-9.4472193030939948],[-77.99306261259288,-9.4474934160853028],[-77.993165407360223,-9.4482814976091216],[-77.993302458728891,-9.4489667773833688],[-77.993302458591089,-9.4499604458522839],[-77.993199664243932,-9.4504744046875295],[-77.993062612882369,-9.4510226309525809],[-77.99306261282301,-9.4515708568897665],[-77.993131139243943,-9.4523932072427304],[-77.993131139072631,-9.4529414340205502],[-77.99306261304568,-9.4535581858537636],[-77.992822758374828,-9.4543462672716281],[-77.992685706175507,-9.4551343402977164],[-77.992685706104126,-9.455785360449747],[-77.992788499791658,-9.4564706481292635],[-77.992959820045527,-9.4568132879685329],[-77.993233932400628,-9.4572587300692952],[-77.993645098161664,-9.4580125343993551],[-77.993747891179851,-9.4586292967405257],[-77.993782159249065,-9.459485903552757],[-77.994022005450603,-9.4603425107317172],[-77.994364653370823,-9.4609249957028467],[-77.994758689841831,-9.4614560927201161],[-77.995204123210755,-9.461970062234462],[-77.995581029648491,-9.4623812279138573],[-77.995820883594604,-9.4625525465530327],[-77.995992203980393,-9.4626210821592966],[-77.996197791850008,-9.462586814738609],[-77.996574698956096,-9.4623812280080308],[-77.997088658007996,-9.462175639569061],[-77.997465563734565,-9.4622099083005775],[-77.997671152039345,-9.4622441758530904],[-77.997910997721817,-9.4623812276985717],[-77.998459223176411,-9.4627581336006781],[-77.999075985840648,-9.4631693088943667],[-77.999795532057419,-9.4637860610608815],[-78.000549345794994,-9.4644370808575644],[-78.001508747447559,-9.4650881022970221],[-78.002056973913312,-9.4654307503624242],[-78.002673725932198,-9.4656020697528618],[-78.003633126619093,-9.4656705958123517],[-78.004386942070738,-9.4656705960228269],[-78.005003694050231,-9.4657391232541617],[-78.005414868833654,-9.4657733899463743],[-78.006031620646525,-9.4658419161488467],[-78.006579848406119,-9.4659447093289142],[-78.006956754744664,-9.4660475041523142],[-78.007162341873055,-9.4662188228011512],[-78.007333661687952,-9.4663558840397037],[-78.007470722692105,-9.4665272040345094],[-78.007504990579832,-9.4666642557950169],[-78.007539248824358,-9.4671096976210354],[-78.00771056893845,-9.4675208637128385],[-78.00795042384614,-9.4678635034116319],[-78.008121742862144,-9.4680690899743247],[-78.008361588888533,-9.4682746771439756],[-78.008635702116294,-9.4686173164147807],[-78.008909826044828,-9.4690284911496576],[-78.009046877437029,-9.4693026044456055],[-78.009149670771265,-9.4694053987328388],[-78.009440912895812,-9.4696966402629137],[-78.009852087719906,-9.4699364960684402],[-78.010468840830129,-9.4703819278726726],[-78.011154129276719,-9.4710672166696295],[-78.011633829131412,-9.4717182371860229],[-78.012010737301182,-9.4721636703660419],[-78.012353376426816,-9.4726091030343813],[-78.012524695368043,-9.4729517419631755],[-78.01255896172826,-9.4731230706494625],[-78.012558961834742,-9.4731915973254921],[-78.012353375628877,-9.4734999789108194],[-78.01214778772129,-9.4738426179749933],[-78.01190794216707,-9.4743908436004975],[-78.011736622700909,-9.4753502446583955],[-78.01170235539476,-9.4761040586627416],[-78.011805148731767,-9.4770291917097111],[-78.011873674006907,-9.4778172650943944],[-78.011805149067911,-9.4786396149829422],[-78.01166808790984,-9.4793934280344772],[-78.011393974412542,-9.480010180736052],[-78.011085602099982,-9.4810381077377084],[-78.010982809027638,-9.482031766738789],[-78.011051334120339,-9.4828541078261335],[-78.011085602041177,-9.4837792513733916],[-78.010965679059893,-9.4843788740211998],[-78.010725825349866,-9.4851326880239242],[-78.010623031035053,-9.4856123791500213],[-78.010451710877973,-9.4861263466268095],[-78.010074804992257,-9.487051480664821],[-78.009903484549483,-9.4875997076383118],[-78.009800690908278,-9.4878395620066929],[-78.009800691428012,-9.4880451405969453],[-78.009800690664335,-9.4881822023330944],[-78.009903484952531,-9.4883192529754314],[-78.01017759835814,-9.4885933767784518],[-78.010760093111728,-9.4889017480573425],[-78.011445371309634,-9.4892101290979465],[-78.012062133163809,-9.489484242188114],[-78.012541833889557,-9.4896898300654744],[-78.013227111600969,-9.4899982012210682],[-78.01377533860925,-9.4903065820550534],[-78.014357832987159,-9.4908205503046741],[-78.014854662905151,-9.4912488539302604],[-78.015334364150291,-9.4917285452418536],[-78.015779795808726,-9.492208245639711],[-78.016259496752753,-9.4928250093474027],[-78.016739197256939,-9.4933732346553885],[-78.017287423614334,-9.4938871926822692],[-78.017698598930167,-9.4943668946583415],[-78.018144032255634,-9.4947780690806471],[-78.018383885848579,-9.4949151208089067],[-78.018829319619059,-9.495017915417737],[-78.019822979201052,-9.4952235016146336],[-78.020234153710561,-9.4952920276544361],[-78.020645319085645,-9.4954976163351734],[-78.020987967918728,-9.4958402553752315],[-78.021227813053898,-9.496319954977567],[-78.021399133150297,-9.496833923921745],[-78.021673247021582,-9.4975192018842982],[-78.022050153073423,-9.4982044899321316],[-78.022290008049879,-9.49858139733964],[-78.022495596105628,-9.4988555105983963],[-78.022632647977005,-9.4988897780506214],[-78.022769708774575,-9.4988555112421622],[-78.022975286813676,-9.498752716346905],[-78.023352193581843,-9.4984786031348349],[-78.023729099689461,-9.498204489698244],[-78.024208802210254,-9.4979989029064846],[-78.024619975936488,-9.4979303770544199],[-78.025031142413042,-9.4979646445839503],[-78.025476584167933,-9.4981016957896873],[-78.026196129925665,-9.4984443453304266],[-78.026881417921985,-9.4985471294093866],[-78.027857948326016,-9.4984957317068659],[-78.028303381196977,-9.49849573201565],[-78.028920134419977,-9.4985985259453152],[-78.029605422282344,-9.4989411750135986],[-78.030290710448995,-9.4993866083596092],[-78.031078782289867,-9.4999005668844649],[-78.031935389660546,-9.5003460087388536],[-78.032757729885986,-9.5006886478579968],[-78.033922717788812,-9.5009627623537281],[-78.035053438716673,-9.501065554863942],[-78.035910036607703,-9.50099702889033],[-78.036526798729625,-9.5010312865560298],[-78.036937965358973,-9.5011340808166214],[-78.037520458254917,-9.5013396677324753],[-78.037965891944197,-9.5013396680920259],[-78.038445592810447,-9.5011340810206395],[-78.038856766584587,-9.5007229156969704],[-78.039165148028772,-9.5004145345662323],[-78.039404993864963,-9.5002432160716239],[-78.039610581372457,-9.5002432157862113],[-78.039713374656927,-9.500243215601996],[-78.039816167898621,-9.5003117412511955],[-78.040021746049689,-9.5006201233776704],[-78.040535713972801,-9.5012711428274024],[-78.040844095168922,-9.5015795143892152],[-78.041152466991775,-9.5018878946201131],[-78.04152937391494,-9.5022990696068295],[-78.041769228649173,-9.5026759769690834],[-78.042077600703692,-9.5031556773365971],[-78.04221466176827,-9.5032927298603251],[-78.042454508405001,-9.5035668433084926],[-78.042694361948307,-9.5037724298291177],[-78.04307127033033,-9.5039780168159265],[-78.043482435145862,-9.5043549240720857],[-78.043756547795923,-9.5046975629113497],[-78.043962136289892,-9.5050059443068022],[-78.044133455134883,-9.5054513782466241],[-78.044236248575473,-9.5060338716885635],[-78.044270516779818,-9.5066163672757202],[-78.044476104063975,-9.5072673874195033],[-78.044733078955602,-9.5077299481863111],[-78.044938665960771,-9.508209650120234],[-78.045041459741356,-9.50920330927649],[-78.04500719244335,-9.5101627099381218],[-78.044972932662432,-9.5113962243762593],[-78.045075727251856,-9.5122870902828041],[-78.045315572656364,-9.5129038518382849],[-78.045658222148916,-9.5132807588106196],[-78.046069387186137,-9.5136233977021423],[-78.046788933054302,-9.5142744185835788],[-78.047439952992121,-9.51499396501581],[-78.047988188691832,-9.5157135205920369],[-78.048467880116036,-9.5163645414310771],[-78.048776261359464,-9.5171868805960784],[-78.04894758063628,-9.5180092206184312],[-78.048998976944347,-9.5188144307581624],[-78.048930451807763,-9.5201164724197209],[-78.048896184312611,-9.5212814512555504],[-78.048793390714366,-9.5226862853043208],[-78.048587812792491,-9.523817007102279],[-78.048313698728037,-9.5249134689897197],[-78.04783399834642,-9.5263183031543832],[-78.047388555775584,-9.5273804878491681],[-78.047080185161576,-9.5281685701169891],[-78.046703278197043,-9.52940208516541],[-78.046292104339273,-9.5304300025769813],[-78.045675350179337,-9.5314579298051196],[-78.045015789217729,-9.5320188529368508],[-78.044414530898635,-9.530996252111251],[-78.044037632691371,-9.5299683254147851],[-78.043694983724762,-9.5291459847749262],[-78.043523665105582,-9.5280152636305591],[-78.043489397192232,-9.5266446876966508],[-78.043592190334365,-9.5253426476933143],[-78.043523665313941,-9.5242119266711924],[-78.043318077193675,-9.5234923806553748],[-78.043043964188371,-9.5231154734154995],[-78.04280411811564,-9.5229784224321694],[-78.041981778228276,-9.5228413611505758],[-78.04095385081385,-9.5229098856097423],[-78.04002870791831,-9.5230126804242499],[-78.038726668261418,-9.5231497414282131],[-78.037972852785131,-9.5234923810774301],[-78.037184781978894,-9.5239035549801141],[-78.036465235188643,-9.524280461953694],[-78.035779946786931,-9.524554575777227],[-78.035300245855453,-9.5247258963824528],[-78.034717752791181,-9.5247944210476092],[-78.034032473810882,-9.5248286887549476],[-78.033312918317066,-9.5248972149152564],[-78.032524845657974,-9.5251028021855877],[-78.031771031746672,-9.52530838976711],[-78.030914424424552,-9.5254797091025338],[-78.029920763682654,-9.5255482346462976],[-78.029064157707452,-9.5256510288372702],[-78.02817328230735,-9.5258566159701967],[-78.027350942433927,-9.526164997066509],[-78.026871241584146,-9.5264733692226962],[-78.026083168555857,-9.5268845438259113],[-78.025534942825601,-9.5270558632099913],[-78.024849655236565,-9.5271586574341249],[-78.024267159570925,-9.5270215952965085],[-78.023650408083938,-9.5266104296175627],[-78.022862325955714,-9.5262677807325495],[-78.022005719170139,-9.5260622040461591],[-78.021046326980269,-9.525925141565935],[-78.02012119273553,-9.5257880900017557],[-78.019538698548928,-9.5257538218003006],[-78.018819152757246,-9.5257880900613365],[-78.018219520444788,-9.5258052197818959],[-78.016986014087976,-9.5258394872132506],[-78.016095138699669,-9.5259080128883138],[-78.015409860752115,-9.5259422712196589],[-78.014998686237391,-9.5258394866591161],[-78.014724572860885,-9.5255653636098323],[-78.014416192216018,-9.5251199319981819],[-78.014176346026233,-9.5246402305556668],[-78.013936490653165,-9.5237150974001192],[-78.013833696702306,-9.5225501178816057],[-78.013730913390205,-9.5222760046578507],[-78.013662376551892,-9.5221389435921235],[-78.013559583709494,-9.5220704169810766],[-78.013251213143391,-9.5221389437147295],[-78.012840038125802,-9.5223102629157879],[-78.012326078691544,-9.5223787981589627],[-78.011572265106622,-9.5224473248450341],[-78.010852709333605,-9.5224473246098587],[-78.009859049558756,-9.5223102626473217],[-78.008968184160551,-9.5219676242659332],[-78.008180102447582,-9.5214879232068608],[-78.007563349688127,-9.5212138098856478],[-78.006963726153757,-9.521059620082081],[-78.006004324806511,-9.5211281549949973],[-78.004496697693043,-9.5212652055709288],[-78.003742882975459,-9.5212652059959613],[-78.003057594863634,-9.5211281546195288],[-78.002577893770322,-9.5210938872947715],[-78.002063934980981,-9.5212652058363645],[-78.001344390244782,-9.5215735868554709],[-78.000487782302045,-9.5219504941348809],[-77.999528381272469,-9.5224987206524272],[-77.998945886367267,-9.5230469481996973],[-77.998568979147819,-9.5233553289895418],[-77.998226340119288,-9.5234581216549206],[-77.997541053389725,-9.5234238543449177],[-77.996752979695472,-9.5230812146107855],[-77.996187614840053,-9.5227214375568803],[-77.995365274768929,-9.5223445296083344],[-77.994474408657339,-9.5216935102166556],[-77.993823389054157,-9.520973964242577],[-77.99344648195013,-9.5203572015580722],[-77.993001048558284,-9.5198089758967974],[-77.992521347571852,-9.5193978097571748],[-77.992041647620326,-9.5189866353697834],[-77.991561946681458,-9.5186439959101197],[-77.991013720107304,-9.5180957599669824],[-77.990431226923349,-9.5174104815947516],[-77.990054318579723,-9.5168279874043922],[-77.989643154264826,-9.5161427001286665],[-77.98943756712157,-9.5154231534122111],[-77.989334772824478,-9.5148064012468918],[-77.989163452644021,-9.5141553799938343],[-77.989060659820922,-9.5138127320742925],[-77.988992124211393,-9.5136756797930015],[-77.988923599306432,-9.5136071535557516],[-77.988752279209706,-9.5135728862226721],[-77.988341104439684,-9.5135728863931774],[-77.987792876983619,-9.5136756798328328],[-77.987347444110981,-9.513675679577581],[-77.986593630825254,-9.513538617693607],[-77.985976878261667,-9.5132645053042619],[-77.985497176828645,-9.513093185847163],[-77.984948950217984,-9.5129903910905149],[-77.984366456378453,-9.5128190720755423],[-77.983921023594519,-9.512613484987579],[-77.98344132297963,-9.5123736392224334],[-77.983064416289267,-9.5120652580853289],[-77.982687508577087,-9.5116540833684535],[-77.982224937378092,-9.5113285735833895],[-77.981539659025401,-9.5111229960046195],[-77.98092289659877,-9.5110544602858713],[-77.980443206058709,-9.5107460877523522],[-77.979963505021033,-9.5102663881335481],[-77.979483804942873,-9.5098894807040217],[-77.978867041595905,-9.5095811000131629],[-77.978078970107973,-9.5094440481823277],[-77.977462208214718,-9.5091013986803112],[-77.976948249244302,-9.5086559672291564],[-77.976297228977714,-9.5080734723833693],[-77.975920322390053,-9.507765100007985],[-77.975474888928588,-9.5075595130603663],[-77.97496092111291,-9.507353925876135],[-77.974481219734045,-9.507114079916521],[-77.974001528912694,-9.5067371734434971],[-77.973453292894774,-9.5062232047861848],[-77.973213447360322,-9.5057777718752163],[-77.972905065862918,-9.5050582264171819],[-77.972768014932512,-9.504407205116955],[-77.972665220736772,-9.503996031080586],[-77.972562427387103,-9.5036533922209845],[-77.972391107390195,-9.5034820632078905],[-77.972082726124739,-9.5033792777407786],[-77.971568767236334,-9.5033450114228444],[-77.971020531003816,-9.5032079500923246],[-77.970472305302863,-9.502796783937983],[-77.96990695010156,-9.5023342119875895],[-77.969153135190155,-9.5017174599567156],[-77.968296526826435,-9.5009636460702414],[-77.967714033804853,-9.5003468932200512],[-77.967200075216724,-9.4995588120424728],[-77.966857434715692,-9.4989077922608161],[-77.966686106048741,-9.4986336780343397],[-77.966549054353663,-9.4985308845996776],[-77.966377735440005,-9.4984623580597614],[-77.965898034307969,-9.4984280909867937],[-77.965007158807808,-9.4984966166154763],[-77.964047767213799,-9.4983595646285188],[-77.963328211307584,-9.4981197100510162],[-77.962677190565344,-9.49791413225587],[-77.962266024548796,-9.497845596166048],[-77.961854850669923,-9.4979483913349494],[-77.961135304958916,-9.4983252965696501],[-77.960450015603683,-9.4987707311074736],[-77.959696202995246,-9.4993189658215087],[-77.958685414123707,-9.4998500553782463],[-77.957726013421009,-9.5003982795536963],[-77.956835137545411,-9.500877981941299],[-77.955533097223679,-9.5013919494160142],[-77.954607964099381,-9.5018373830636165],[-77.953682829780689,-9.502248556690116],[-77.953031809249453,-9.502488403233313],[-77.952277995758294,-9.5026597230521777],[-77.951250069421519,-9.5025569288256921],[-77.94987950231824,-9.5022142898648454],[-77.948817307830282,-9.5017003312264734],[-77.947720854322924,-9.5009122493663565],[-77.947001306729646,-9.5005696099854049],[-77.946384546271133,-9.5003640228585056],[-77.945664998845345,-9.5002954968100379],[-77.945082504965342,-9.5001927025885315],[-77.944465752640269,-9.4999528483929421],[-77.943968923154884,-9.499764400013893],[-77.943523480662748,-9.4994217508393639],[-77.943009521983385,-9.4987707309754104],[-77.942598347190355,-9.4980511843116417],[-77.942187181703062,-9.4972288435549501],[-77.941844532746032,-9.4968862051581517],[-77.941399100074989,-9.4966806166841309],[-77.940336904829792,-9.4966463494333944],[-77.93903486472253,-9.496612092307597],[-77.938520905576581,-9.4966806171127924],[-77.938109730808407,-9.4968862045693214],[-77.937664297657633,-9.49722884363449],[-77.937184598022526,-9.4973316383966608],[-77.936636370800926,-9.4972973699098091],[-77.936053876927147,-9.4971603175518435],[-77.935231536092061,-9.4970232569245852],[-77.934306402624784,-9.4969204633200626],[-77.933381270294788,-9.4969889894402169],[-77.932661723155775,-9.4972631119989046],[-77.932027831874578,-9.4977599411110347],[-77.931513862723747,-9.4981368492003515],[-77.930897111430312,-9.4983424362826856],[-77.930143297340265,-9.4984109616614774],[-77.929081111582548,-9.4985480139936183],[-77.927881854875039,-9.4985822812418839],[-77.926614082672899,-9.4985822810767004],[-77.924935135078584,-9.4986508083604537],[-77.92366736186564,-9.4985822810458327],[-77.922399579631872,-9.4985137562666875],[-77.92159436941472,-9.4985651529398112],[-77.920977617045551,-9.498667945810876],[-77.92056644233422,-9.4987364720909984],[-77.920018216005019,-9.4988392652007896],[-77.919504256789693,-9.4988735236916781],[-77.91929866862661,-9.4988392648363824],[-77.919161608337873,-9.4987707314400787],[-77.919058814426961,-9.4984966170782528],[-77.91899028769717,-9.4979141321312337],[-77.918818969231324,-9.4973658958937062],[-77.918544854827047,-9.4966806170323146],[-77.918167949032679,-9.4958925362269824],[-77.917756772959223,-9.4951387216386891],[-77.917311341301684,-9.4943849082353342],[-77.916900166283313,-9.4937338876373172],[-77.916523269113554,-9.4929458163939806],[-77.916043568054434,-9.4915752399558215],[-77.915735187056015,-9.4906158483755423],[-77.91556386691262,-9.4895193851628736],[-77.915426806348833,-9.4883544062169154],[-77.915324012336839,-9.4879774988910501],[-77.915255485606508,-9.487669118307215],[-77.915084165950006,-9.4873607469021675],[-77.91481005308826,-9.4871208906478959],[-77.914501672891021,-9.4869153043551595],[-77.913645065163479,-9.486572665124152],[-77.912788456714935,-9.486195758387014],[-77.912120308056458,-9.48600731029922],[-77.910715474244085,-9.4855618662933079],[-77.909756073209209,-9.4852877531217974],[-77.908830937915369,-9.4850479070106086],[-77.907563166300861,-9.4845339392227928],[-77.906877877851173,-9.4841912996775424],[-77.906226857883084,-9.4837801263563168],[-77.905438786085156,-9.4832318985885937],[-77.904753498126141,-9.482546620123669],[-77.904033950659866,-9.4816900133593212],[-77.903417188983141,-9.4809019310783942],[-77.90283470415001,-9.4803194366077719],[-77.902012355329774,-9.479702684407453],[-77.901327076305037,-9.479222982876907],[-77.900710315104718,-9.4787432827348859],[-77.900144959431614,-9.478246454401571],[-77.899596732183227,-9.4774926394459413],[-77.899014238378783,-9.4766017733882997],[-77.898363216671612,-9.4758822282951858],[-77.897712197378283,-9.4755053202616608],[-77.897061177354942,-9.4752311976910484],[-77.896307362631717,-9.4749228261970426],[-77.895827663209772,-9.4745459187801231],[-77.895347961978715,-9.4740319514155029],[-77.894936796863888,-9.4736207847673306],[-77.894628415816101,-9.47344946457231],[-77.894182983130563,-9.4733809307762904],[-77.89353196167751,-9.4734494652641619],[-77.893223580695505,-9.473517992057495],[-77.892812406755723,-9.4735179917962995],[-77.892401241033397,-9.4734494653799768],[-77.892092860162975,-9.4733124044388202],[-77.891304788789157,-9.4729012302351769],[-77.890653767728139,-9.4724215391557678],[-77.89007127378926,-9.4720103642217897],[-77.889454512070117,-9.4715991886374891],[-77.888872026926052,-9.4713250759742262],[-77.887964021572174,-9.4708967720214208],[-77.887244477078241,-9.4707254523250164],[-77.886182281181789,-9.4706226588303988],[-77.885359941753549,-9.4706911940858785],[-77.883989365395578,-9.4709653076126123],[-77.882755860282344,-9.4712394206799981],[-77.881453820122232,-9.4715820596854297],[-77.88052867666471,-9.4718561731162403],[-77.879637811444709,-9.4720960287077265],[-77.87905531709022,-9.4723358744331971],[-77.87864415109928,-9.4724729359915028],[-77.878335769686288,-9.472507194255229],[-77.878130183262741,-9.472472936024273],[-77.877787544125241,-9.4723358736526322],[-77.87730784283923,-9.4720960292618965],[-77.876656822853633,-9.4717876475552192],[-77.875971534896053,-9.4715135342025096],[-77.875114927429493,-9.4712736789252396],[-77.874532443170068,-9.4710338329011439],[-77.87394994795703,-9.4707254518630659],[-77.873333196175878,-9.4702800196777872],[-77.872682166269328,-9.4697660610204757],[-77.872031146097797,-9.4690807727012523],[-77.871774171397377,-9.4685154079498695],[-77.871397263726365,-9.4677615940227167],[-77.871020357282845,-9.4672476348886807],[-77.870369335597772,-9.4665966135701289],[-77.869855367764487,-9.466082647031012],[-77.86934140859222,-9.4655001612998788],[-77.868964503433816,-9.4649861928756085],[-77.868827441076562,-9.4648491410650131],[-77.868656121643227,-9.4647120803458389],[-77.868484801901857,-9.4646778118102333],[-77.868176420062113,-9.4647120801770903],[-77.867491141959235,-9.4648148726503454],[-77.866771587110506,-9.4649519339604975],[-77.866326154104485,-9.4649176667545429],[-77.865812194691273,-9.4647120801527969],[-77.865401019709367,-9.4644379656955842],[-77.864921319907737,-9.4640953267230081],[-77.86423603073176,-9.4636841521818127],[-77.863516484836154,-9.4633415127068954],[-77.862865465418636,-9.4629303384072081],[-77.862385763735162,-9.4625191726898521],[-77.861837536739273,-9.4619366793193809],[-77.861357837169678,-9.4611143387900132],[-77.8610151978245,-9.4606003701016856],[-77.860672558377928,-9.4602577311611853],[-77.860158589979761,-9.4600178758967388],[-77.859524699438936,-9.4598636949037544],[-77.858668100561999,-9.459897952897002],[-77.8579142867288,-9.4600007474263332],[-77.857297525217618,-9.4600692733788048],[-77.857057679921951,-9.4600350152301296],[-77.856920618071371,-9.4599322206295877],[-77.856817823887454,-9.4596923661819012],[-77.856817824138375,-9.4592812010140026],[-77.856783565548596,-9.4586644390393673],[-77.856612245742184,-9.4583217996967814],[-77.856338124041983,-9.4580819538478664],[-77.855995485419513,-9.4578420989229599],[-77.855412989613441,-9.4576365115651146],[-77.854796238361644,-9.4576022538127305],[-77.85424801085361,-9.4573966663589211],[-77.853768309840831,-9.4571225528330718],[-77.853220083760348,-9.4567113778800422],[-77.852843176699778,-9.4563344706021617],[-77.85243200182839,-9.4556491926413013],[-77.852157888609327,-9.4551009661810479],[-77.851575393614652,-9.4540387714417253],[-77.851301281178763,-9.4536618644366897],[-77.850958642272943,-9.4533534832813757],[-77.850547476954389,-9.453147896325925],[-77.849999240891194,-9.4530108438393405],[-77.849142642912454,-9.4528052570503611],[-77.848697201386486,-9.4526339368316918],[-77.847977654367341,-9.4522912975662869],[-77.847155314004155,-9.4517430713968391],[-77.846572818968298,-9.4514004217893905],[-77.845990326265309,-9.4511948347190966],[-77.845305046938279,-9.4508179291610848],[-77.844928140393591,-9.450406762825482],[-77.844414170649927,-9.4498585361994181],[-77.843900211780493,-9.4490019275570951],[-77.843523306298124,-9.4483166411536921],[-77.843232054180206,-9.4478540787612175],[-77.842786620795223,-9.4472715844276074],[-77.842341187630041,-9.4468946783042931],[-77.841895755386176,-9.4465862962715352],[-77.841416054956596,-9.446380708854317],[-77.841039147860343,-9.4461065945851992],[-77.84052517882661,-9.4456611632629723],[-77.839942694754725,-9.4450444109377223],[-77.83939445835891,-9.4443591226014139],[-77.838811973276648,-9.4435710498228733],[-77.838503592369392,-9.442680175378225],[-77.83829800460326,-9.4422347418997816],[-77.838092418185099,-9.4419263611944899],[-77.837784046903636,-9.4416179799112303],[-77.837338604426876,-9.4413096079665326],[-77.836910309294396,-9.4409155626851877],[-77.836499134963162,-9.4404701303907661],[-77.836225021247429,-9.4398191087745076],[-77.836053701867115,-9.4389282436778661],[-77.835985166871367,-9.4381744291363976],[-77.836019434985587,-9.4369066477628429],[-77.836190754238373,-9.4358444618358064],[-77.836430608832345,-9.4347479991758831],[-77.836704721563365,-9.433617287825717],[-77.836841774214577,-9.4325893613753191],[-77.83694456766689,-9.4315614339508791],[-77.836944567772107,-9.431218785002125],[-77.83687604227039,-9.4309789389246124],[-77.83673898023541,-9.4307733523918174],[-77.836533402642516,-9.4306363004289189],[-77.836122228152263,-9.430499237764252],[-77.835574001155109,-9.4302936523473448],[-77.835060032438037,-9.4300195382329886],[-77.834614599986992,-9.4297454248652031],[-77.834169166998649,-9.4292314662883197],[-77.833877924578857,-9.4287346256884987],[-77.833569543866574,-9.4278094933735375],[-77.833432483328849,-9.4271584726936073],[-77.833466750436017,-9.4264046577638752],[-77.833432482903476,-9.4261990806818048],[-77.83329543003309,-9.426096287032939],[-77.833158368665295,-9.4259592261071408],[-77.832815729391058,-9.4258564316044726],[-77.832404555313033,-9.4257536379312477],[-77.831856328114526,-9.425685113111383],[-77.831102514635432,-9.4255137926853525],[-77.830451494156748,-9.4252739377688766],[-77.829697679703159,-9.4248970304516355],[-77.828943867320802,-9.4245886594159103],[-77.828190052019266,-9.4243145456768449],[-77.82740197999253,-9.4241089589554079],[-77.82644257858307,-9.4239376388577476],[-77.824763632200998,-9.4236292577297629],[-77.823187477899125,-9.423355145025857],[-77.822159549796993,-9.4232180833181225],[-77.821063096727229,-9.4231152992109131],[-77.82039493844006,-9.4230639024164446],[-77.819024371545609,-9.4230981606034518],[-77.817311156728792,-9.4233722735718874],[-77.816009117453419,-9.4238519742120079],[-77.814535755638786,-9.4243316745522527],[-77.814056054594914,-9.424640055909876],[-77.813199446822424,-9.4251197567517746],[-77.81265122128508,-9.4253253342564776],[-77.811897406875758,-9.4254966627497492],[-77.810629635363881,-9.4256679827535628],[-77.810081408359281,-9.4258393025598952],[-77.809875820289335,-9.4259420967084413],[-77.80960170660947,-9.4258735713211532],[-77.809498914266229,-9.4257365086490115],[-77.80922479976654,-9.4250854893441929],[-77.808847893118198,-9.4239890364280967],[-77.808676574120938,-9.4237491811781791],[-77.808539511927279,-9.4236121292779842],[-77.80823113991589,-9.4235435926774933],[-77.80788849156778,-9.4235435931168716],[-77.807340265955091,-9.4236463874422078],[-77.806723513209661,-9.4238519738442612],[-77.806380863957415,-9.4239205008183689],[-77.806141019231845,-9.4239205006195839],[-77.805866904794456,-9.4238862423999912],[-77.805558523641565,-9.4237491809033003],[-77.80518161708514,-9.4235435931154594],[-77.804770451711903,-9.4232009542354103],[-77.804393545084622,-9.4227555221667156],[-77.804187957384443,-9.4225156664266247],[-77.804016637813078,-9.422378613853077],[-77.803913844376495,-9.4223443456692575],[-77.80353693671978,-9.4223100877951591],[-77.803057237440129,-9.4224128817256059],[-77.802577535891814,-9.4224814078705883],[-77.802200629360087,-9.4225156658669036],[-77.801823722975115,-9.4224814079538977],[-77.801224099031984,-9.4225670628502431],[-77.800538821173603,-9.4227041253735671],[-77.799819264393122,-9.4227726499900246],[-77.799099717709254,-9.4227726502274471],[-77.798208843226377,-9.4227041250214931],[-77.797317976786587,-9.4225670626421625],[-77.796255782333461,-9.4224642785489454],[-77.795501968309438,-9.4224642785979444],[-77.794713895667414,-9.4226698572388266],[-77.79402860790583,-9.4229782380012779],[-77.793172001181162,-9.4232180829278462],[-77.791972753093887,-9.4235949900248048],[-77.791013361928975,-9.4238348459054535],[-77.790310945059773,-9.4239890356895586],[-77.789043161772952,-9.4241260884117057],[-77.788426409598415,-9.4242974081240867],[-77.787364215431552,-9.4245715212063139],[-77.786576142735157,-9.4247428500071191],[-77.785274092877827,-9.4250169630785621],[-77.784486021245527,-9.425154014597755],[-77.783869268343878,-9.4251882826666922],[-77.783012660393211,-9.4251882834038092],[-77.781916198290304,-9.4251197571139347],[-77.781402238769346,-9.4250512210582809],[-77.78078548721443,-9.4250512213197943],[-77.780031672312688,-9.4250854891795033],[-77.779449178017785,-9.4251197573222889],[-77.778832415825974,-9.4250854890948546],[-77.778422115840101,-9.4250239435732421],[-77.778147136814226,-9.4249826951621891],[-77.777359056112488,-9.4248799021160909],[-77.776673777146129,-9.4247771077780556],[-77.776057015155473,-9.4246743138592777],[-77.775131882177305,-9.424297407676427],[-77.774343808971494,-9.423920500985318],[-77.77331588177897,-9.4232009540648995],[-77.772750516743855,-9.4227041252825092],[-77.772168023380843,-9.4223272177709809],[-77.771482744947733,-9.4220531044137594],[-77.770763187876469,-9.4219845777336229],[-77.770077909952519,-9.4220873717002913],[-77.769255569629578,-9.4223272179875082],[-77.768570281840113,-9.4224642793761983],[-77.767850735628244,-9.4224300112922581],[-77.767302500375607,-9.4222929498400401],[-77.766857067134126,-9.4221216301210617],[-77.766463031015562,-9.4219331816075425],[-77.766325968928584,-9.4218646456862896],[-77.766223176405759,-9.4216933258487181],[-77.766154649919898,-9.4213849548042035],[-77.766188918380877,-9.4207339351840087],[-77.766325969360906,-9.4199801195698747],[-77.766325969132453,-9.4196374724478122],[-77.766086123738233,-9.419192039095643],[-77.765640690764855,-9.4187808649379754],[-77.765332310243494,-9.4185752872216391],[-77.764612764098842,-9.418232638050835],[-77.763653361911807,-9.4179927923355642],[-77.762933817385345,-9.4178214724337881],[-77.762008683331516,-9.4174788233542923],[-77.761357662135694,-9.4170333910696655],[-77.761035575562644,-9.416759277866495],[-77.760542169545985,-9.416293281860737],[-77.760295467695997,-9.415991757925644],[-77.759911703238657,-9.4155805927109864],[-77.759665009073828,-9.415196828807284],[-77.759582768549876,-9.4149227163825184],[-77.759582769392068,-9.4145389603862935],[-77.759774651199137,-9.4139907253390831],[-77.760158406174739,-9.4134424977097044],[-77.760624401548057,-9.412894271049927],[-77.761227458104457,-9.4122638139843957],[-77.76155639300292,-9.4117429979530556],[-77.761775685097959,-9.4111399397678674],[-77.761830506429391,-9.4103998315493875],[-77.76188532708963,-9.4094678506546074],[-77.76202238842771,-9.4087277417122799],[-77.762323912223096,-9.4079328123031747],[-77.76278990722453,-9.4070008223949095],[-77.763050316208478,-9.4066033617562592],[-77.763269608424906,-9.4060003041305631],[-77.763461480443951,-9.4052053747195608],[-77.763571131250671,-9.404163742882572],[-77.76390006511167,-9.4032043419824074],[-77.7643660614428,-9.4023271807714863],[-77.76499651927449,-9.401614481883243],[-77.765435103548867,-9.4011210773997451],[-77.765722922876407,-9.4007236170211872],[-77.765777743048915,-9.4005317353859734],[-77.765777743082808,-9.4003946830467289],[-77.765668102331432,-9.4001205691921506],[-77.765421399202438,-9.3997642159826214],[-77.765037633777609,-9.3993530500681679],[-77.764599059342572,-9.3988322238535353],[-77.76410565344996,-9.3980921252644674],[-77.763721889161417,-9.3973794273301827],[-77.763530016357564,-9.3967763791103511],[-77.763392955453611,-9.3960910909214164],[-77.76331072272518,-9.395734737841746],[-77.763228483360606,-9.395542863642012],[-77.763118840834636,-9.3954058033331957],[-77.763009191226516,-9.3953235720411161],[-77.762762497060478,-9.395268751295033],[-77.762323912442923,-9.3953235715735968],[-77.761775684950848,-9.3954606241670735],[-77.761254868895165,-9.3954606238598473],[-77.760843693586366,-9.3952413409324826],[-77.760158405853034,-9.3947205244304293],[-77.759774651009494,-9.3944464023468139],[-77.759363477270043,-9.3943367600800158],[-77.759048247901291,-9.3942682346097381],[-77.758500021208533,-9.3943230562335938],[-77.758184792224696,-9.3944189923426276],[-77.757663977075737,-9.3946656953481273],[-77.75722539115155,-9.3948575770635276],[-77.756951276851126,-9.3948849867323059],[-77.756759395001225,-9.3948301663132057],[-77.756567512895373,-9.3946382842573595],[-77.756375640676879,-9.3942271190345998],[-77.756128937869406,-9.3934047702623182],[-77.755964466804812,-9.3926098400953997],[-77.755745173162154,-9.3914311559653676],[-77.755416240320926,-9.3901976412583767],[-77.754950245420673,-9.3889915372247668],[-77.754539078894297,-9.3880595561125944],[-77.754264966293192,-9.3874290877840583],[-77.75396343309454,-9.3867438098066973],[-77.753798969707447,-9.3862504037095587],[-77.753497445758413,-9.3852635915580329],[-77.7533877964228,-9.3845783038380137],[-77.75331926862647,-9.3840437826082894],[-77.753237038695488,-9.3836051980541182],[-77.753045156911,-9.3832214428471872],[-77.752771042865945,-9.3829473297408388],[-77.752387278244811,-9.3826732159853119],[-77.751893872742258,-9.3824539242894591],[-77.751400467072202,-9.3822072205620728],[-77.750797419917404,-9.3819056971629067],[-77.750358833721108,-9.381686404581405],[-77.750057311198375,-9.3814122910552804],[-77.749810608416254,-9.3809188859338661],[-77.749646146014896,-9.3803432480638609],[-77.749509085388453,-9.3793838468988113],[-77.749344613021336,-9.377684336966766],[-77.749125328891381,-9.3767797666118948],[-77.748906036675223,-9.376231539996704],[-77.748686743678732,-9.3757929552709314],[-77.748494862347641,-9.3754366097113699],[-77.748330390971987,-9.3752173177942346],[-77.748220749223648,-9.3751076668706226],[-77.74791922514305,-9.374970614689671],[-77.747535460737808,-9.374860964123986],[-77.747261348103351,-9.3747239116608121],[-77.746877592731977,-9.3745046195927522],[-77.746439008168551,-9.3742030957590021],[-77.74606895774501,-9.3738056261987595],[-77.745630372966502,-9.3733396312846722],[-77.745356259732688,-9.3729832863160674],[-77.745109557181692,-9.3726269416317809],[-77.744890264620281,-9.372188357030403],[-77.744588740573249,-9.3716401300918726],[-77.744369448280025,-9.3712563656513055],[-77.744095334689305,-9.3709000215698506],[-77.743915854945513,-9.3707404862823083]]]},"properties":{"OBJECTID":929,"CODIGO":"1375964","NIVEL":7,"NIVEL7":"1375964","NOMB_UH_N7":"Yaután","Nombre_UH":"Cuenca Yaután","AREA_KM2":352.03559999999999,"AREA_FINAL":350.16730000000001}}]}