{"type":"FeatureCollection","crs":{"type":"name","properties":{"name":"EPSG:4326"}},"features":[{"type":"Feature","id":922,"geometry":{"type":"Polygon","coordinates":[[[-77.778422115840101,-9.4250239435732421],[-77.778832415825974,-9.4250854890948546],[-77.779449178017785,-9.4251197573222889],[-77.780031672312688,-9.4250854891795033],[-77.78078548721443,-9.4250512213197943],[-77.781402238769346,-9.4250512210582809],[-77.781916198290304,-9.4251197571139347],[-77.783012660393211,-9.4251882834038092],[-77.783869268343878,-9.4251882826666922],[-77.784486021245527,-9.425154014597755],[-77.785274092877827,-9.4250169630785621],[-77.786576142735157,-9.4247428500071191],[-77.787364215431552,-9.4245715212063139],[-77.788426409598415,-9.4242974081240867],[-77.789043161772952,-9.4241260884117057],[-77.790310945059773,-9.4239890356895586],[-77.791013361928975,-9.4238348459054535],[-77.791972753093887,-9.4235949900248048],[-77.793172001181162,-9.4232180829278462],[-77.79402860790583,-9.4229782380012779],[-77.794713895667414,-9.4226698572388266],[-77.795501968309438,-9.4224642785979444],[-77.796255782333461,-9.4224642785489454],[-77.797317976786587,-9.4225670626421625],[-77.798208843226377,-9.4227041250214931],[-77.799099717709254,-9.4227726502274471],[-77.799819264393122,-9.4227726499900246],[-77.800538821173603,-9.4227041253735671],[-77.801224099031984,-9.4225670628502431],[-77.801823722975115,-9.4224814079538977],[-77.802200629360087,-9.4225156658669036],[-77.802577535891814,-9.4224814078705883],[-77.803057237440129,-9.4224128817256059],[-77.80353693671978,-9.4223100877951591],[-77.803913844376495,-9.4223443456692575],[-77.804016637813078,-9.422378613853077],[-77.804187957384443,-9.4225156664266247],[-77.804393545084622,-9.4227555221667156],[-77.804770451711903,-9.4232009542354103],[-77.80518161708514,-9.4235435931154594],[-77.805558523641565,-9.4237491809033003],[-77.805866904794456,-9.4238862423999912],[-77.806141019231845,-9.4239205006195839],[-77.806380863957415,-9.4239205008183689],[-77.806723513209661,-9.4238519738442612],[-77.807340265955091,-9.4236463874422078],[-77.80788849156778,-9.4235435931168716],[-77.80823113991589,-9.4235435926774933],[-77.808539511927279,-9.4236121292779842],[-77.808676574120938,-9.4237491811781791],[-77.808847893118198,-9.4239890364280967],[-77.80922479976654,-9.4250854893441929],[-77.809498914266229,-9.4257365086490115],[-77.80960170660947,-9.4258735713211532],[-77.809875820289335,-9.4259420967084413],[-77.810081408359281,-9.4258393025598952],[-77.810629635363881,-9.4256679827535628],[-77.811897406875758,-9.4254966627497492],[-77.81265122128508,-9.4253253342564776],[-77.813199446822424,-9.4251197567517746],[-77.814056054594914,-9.424640055909876],[-77.814535755638786,-9.4243316745522527],[-77.816009117453419,-9.4238519742120079],[-77.817311156728792,-9.4233722735718874],[-77.819024371545609,-9.4230981606034518],[-77.82039493844006,-9.4230639024164446],[-77.821063096727229,-9.4231152992109131],[-77.822159549796993,-9.4232180833181225],[-77.823187477899125,-9.423355145025857],[-77.824763632200998,-9.4236292577297629],[-77.82644257858307,-9.4239376388577476],[-77.82740197999253,-9.4241089589554079],[-77.828190052019266,-9.4243145456768449],[-77.828943867320802,-9.4245886594159103],[-77.829697679703159,-9.4248970304516355],[-77.830451494156748,-9.4252739377688766],[-77.831102514635432,-9.4255137926853525],[-77.831856328114526,-9.425685113111383],[-77.832404555313033,-9.4257536379312477],[-77.832815729391058,-9.4258564316044726],[-77.833158368665295,-9.4259592261071408],[-77.83329543003309,-9.426096287032939],[-77.833432482903476,-9.4261990806818048],[-77.833466750436017,-9.4264046577638752],[-77.833432483328849,-9.4271584726936073],[-77.833569543866574,-9.4278094933735375],[-77.833877924578857,-9.4287346256884987],[-77.834169166998649,-9.4292314662883197],[-77.834614599986992,-9.4297454248652031],[-77.835060032438037,-9.4300195382329886],[-77.835574001155109,-9.4302936523473448],[-77.836122228152263,-9.430499237764252],[-77.836533402642516,-9.4306363004289189],[-77.83673898023541,-9.4307733523918174],[-77.83687604227039,-9.4309789389246124],[-77.836944567772107,-9.431218785002125],[-77.83694456766689,-9.4315614339508791],[-77.836841774214577,-9.4325893613753191],[-77.836704721563365,-9.433617287825717],[-77.836430608832345,-9.4347479991758831],[-77.836190754238373,-9.4358444618358064],[-77.836019434985587,-9.4369066477628429],[-77.835985166871367,-9.4381744291363976],[-77.836053701867115,-9.4389282436778661],[-77.836225021247429,-9.4398191087745076],[-77.836499134963162,-9.4404701303907661],[-77.836910309294396,-9.4409155626851877],[-77.837338604426876,-9.4413096079665326],[-77.837784046903636,-9.4416179799112303],[-77.838092418185099,-9.4419263611944899],[-77.83829800460326,-9.4422347418997816],[-77.838503592369392,-9.442680175378225],[-77.838811973276648,-9.4435710498228733],[-77.83939445835891,-9.4443591226014139],[-77.839942694754725,-9.4450444109377223],[-77.84052517882661,-9.4456611632629723],[-77.841039147860343,-9.4461065945851992],[-77.841416054956596,-9.446380708854317],[-77.841895755386176,-9.4465862962715352],[-77.842341187630041,-9.4468946783042931],[-77.842786620795223,-9.4472715844276074],[-77.843232054180206,-9.4478540787612175],[-77.843523306298124,-9.4483166411536921],[-77.843900211780493,-9.4490019275570951],[-77.844414170649927,-9.4498585361994181],[-77.844928140393591,-9.450406762825482],[-77.845305046938279,-9.4508179291610848],[-77.845990326265309,-9.4511948347190966],[-77.846572818968298,-9.4514004217893905],[-77.847155314004155,-9.4517430713968391],[-77.847977654367341,-9.4522912975662869],[-77.848697201386486,-9.4526339368316918],[-77.849142642912454,-9.4528052570503611],[-77.849999240891194,-9.4530108438393405],[-77.850547476954389,-9.453147896325925],[-77.850958642272943,-9.4533534832813757],[-77.851301281178763,-9.4536618644366897],[-77.851575393614652,-9.4540387714417253],[-77.852157888609327,-9.4551009661810479],[-77.85243200182839,-9.4556491926413013],[-77.852843176699778,-9.4563344706021617],[-77.853220083760348,-9.4567113778800422],[-77.853768309840831,-9.4571225528330718],[-77.85424801085361,-9.4573966663589211],[-77.854796238361644,-9.4576022538127305],[-77.855412989613441,-9.4576365115651146],[-77.855995485419513,-9.4578420989229599],[-77.856338124041983,-9.4580819538478664],[-77.856612245742184,-9.4583217996967814],[-77.856783565548596,-9.4586644390393673],[-77.856817824138375,-9.4592812010140026],[-77.856817823887454,-9.4596923661819012],[-77.856920618071371,-9.4599322206295877],[-77.857057679921951,-9.4600350152301296],[-77.857297525217618,-9.4600692733788048],[-77.8579142867288,-9.4600007474263332],[-77.858668100561999,-9.459897952897002],[-77.859524699438936,-9.4598636949037544],[-77.860158589979761,-9.4600178758967388],[-77.860672558377928,-9.4602577311611853],[-77.8610151978245,-9.4606003701016856],[-77.861357837169678,-9.4611143387900132],[-77.861837536739273,-9.4619366793193809],[-77.862385763735162,-9.4625191726898521],[-77.862865465418636,-9.4629303384072081],[-77.863516484836154,-9.4633415127068954],[-77.86423603073176,-9.4636841521818127],[-77.864921319907737,-9.4640953267230081],[-77.865401019709367,-9.4644379656955842],[-77.865812194691273,-9.4647120801527969],[-77.866326154104485,-9.4649176667545429],[-77.866771587110506,-9.4649519339604975],[-77.867491141959235,-9.4648148726503454],[-77.868176420062113,-9.4647120801770903],[-77.868484801901857,-9.4646778118102333],[-77.868656121643227,-9.4647120803458389],[-77.868827441076562,-9.4648491410650131],[-77.868964503433816,-9.4649861928756085],[-77.86934140859222,-9.4655001612998788],[-77.869855367764487,-9.466082647031012],[-77.870369335597772,-9.4665966135701289],[-77.871020357282845,-9.4672476348886807],[-77.871397263726365,-9.4677615940227167],[-77.871774171397377,-9.4685154079498695],[-77.872031146097797,-9.4690807727012523],[-77.872682166269328,-9.4697660610204757],[-77.873333196175878,-9.4702800196777872],[-77.87394994795703,-9.4707254518630659],[-77.874532443170068,-9.4710338329011439],[-77.875114927429493,-9.4712736789252396],[-77.875971534896053,-9.4715135342025096],[-77.876656822853633,-9.4717876475552192],[-77.87730784283923,-9.4720960292618965],[-77.877787544125241,-9.4723358736526322],[-77.878130183262741,-9.472472936024273],[-77.878335769686288,-9.472507194255229],[-77.87864415109928,-9.4724729359915028],[-77.87905531709022,-9.4723358744331971],[-77.879637811444709,-9.4720960287077265],[-77.88052867666471,-9.4718561731162403],[-77.881453820122232,-9.4715820596854297],[-77.882755860282344,-9.4712394206799981],[-77.883989365395578,-9.4709653076126123],[-77.885359941753549,-9.4706911940858785],[-77.886182281181789,-9.4706226588303988],[-77.887244477078241,-9.4707254523250164],[-77.887964021572174,-9.4708967720214208],[-77.888872026926052,-9.4713250759742262],[-77.889454512070117,-9.4715991886374891],[-77.89007127378926,-9.4720103642217897],[-77.890653767728139,-9.4724215391557678],[-77.891304788789157,-9.4729012302351769],[-77.892092860162975,-9.4733124044388202],[-77.892401241033397,-9.4734494653799768],[-77.892812406755723,-9.4735179917962995],[-77.893223580695505,-9.473517992057495],[-77.89353196167751,-9.4734494652641619],[-77.894182983130563,-9.4733809307762904],[-77.894628415816101,-9.47344946457231],[-77.894936796863888,-9.4736207847673306],[-77.895347961978715,-9.4740319514155029],[-77.895827663209772,-9.4745459187801231],[-77.896307362631717,-9.4749228261970426],[-77.897061177354942,-9.4752311976910484],[-77.897712197378283,-9.4755053202616608],[-77.898363216671612,-9.4758822282951858],[-77.899014238378783,-9.4766017733882997],[-77.899596732183227,-9.4774926394459413],[-77.900144959431614,-9.478246454401571],[-77.900710315104718,-9.4787432827348859],[-77.901327076305037,-9.479222982876907],[-77.902012355329774,-9.479702684407453],[-77.90283470415001,-9.4803194366077719],[-77.903417188983141,-9.4809019310783942],[-77.904033950659866,-9.4816900133593212],[-77.904753498126141,-9.482546620123669],[-77.905438786085156,-9.4832318985885937],[-77.906226857883084,-9.4837801263563168],[-77.906877877851173,-9.4841912996775424],[-77.907563166300861,-9.4845339392227928],[-77.908830937915369,-9.4850479070106086],[-77.909756073209209,-9.4852877531217974],[-77.910715474244085,-9.4855618662933079],[-77.912120308056458,-9.48600731029922],[-77.912788456714935,-9.486195758387014],[-77.913645065163479,-9.486572665124152],[-77.914501672891021,-9.4869153043551595],[-77.91481005308826,-9.4871208906478959],[-77.915084165950006,-9.4873607469021675],[-77.915255485606508,-9.487669118307215],[-77.915324012336839,-9.4879774988910501],[-77.915426806348833,-9.4883544062169154],[-77.91556386691262,-9.4895193851628736],[-77.915735187056015,-9.4906158483755423],[-77.916043568054434,-9.4915752399558215],[-77.916523269113554,-9.4929458163939806],[-77.916900166283313,-9.4937338876373172],[-77.917311341301684,-9.4943849082353342],[-77.917756772959223,-9.4951387216386891],[-77.918167949032679,-9.4958925362269824],[-77.918544854827047,-9.4966806170323146],[-77.918818969231324,-9.4973658958937062],[-77.91899028769717,-9.4979141321312337],[-77.919058814426961,-9.4984966170782528],[-77.919161608337873,-9.4987707314400787],[-77.91929866862661,-9.4988392648363824],[-77.919504256789693,-9.4988735236916781],[-77.920018216005019,-9.4988392652007896],[-77.92056644233422,-9.4987364720909984],[-77.920977617045551,-9.498667945810876],[-77.92159436941472,-9.4985651529398112],[-77.922399579631872,-9.4985137562666875],[-77.92366736186564,-9.4985822810458327],[-77.924935135078584,-9.4986508083604537],[-77.926614082672899,-9.4985822810767004],[-77.927881854875039,-9.4985822812418839],[-77.929081111582548,-9.4985480139936183],[-77.930143297340265,-9.4984109616614774],[-77.930897111430312,-9.4983424362826856],[-77.931513862723747,-9.4981368492003515],[-77.932027831874578,-9.4977599411110347],[-77.932661723155775,-9.4972631119989046],[-77.933381270294788,-9.4969889894402169],[-77.934306402624784,-9.4969204633200626],[-77.935231536092061,-9.4970232569245852],[-77.936053876927147,-9.4971603175518435],[-77.936636370800926,-9.4972973699098091],[-77.937184598022526,-9.4973316383966608],[-77.937664297657633,-9.49722884363449],[-77.938109730808407,-9.4968862045693214],[-77.938520905576581,-9.4966806171127924],[-77.93903486472253,-9.496612092307597],[-77.940336904829792,-9.4966463494333944],[-77.941399100074989,-9.4966806166841309],[-77.941844532746032,-9.4968862051581517],[-77.942187181703062,-9.4972288435549501],[-77.942598347190355,-9.4980511843116417],[-77.943009521983385,-9.4987707309754104],[-77.943523480662748,-9.4994217508393639],[-77.943968923154884,-9.499764400013893],[-77.944465752640269,-9.4999528483929421],[-77.945082504965342,-9.5001927025885315],[-77.945664998845345,-9.5002954968100379],[-77.946384546271133,-9.5003640228585056],[-77.947001306729646,-9.5005696099854049],[-77.947720854322924,-9.5009122493663565],[-77.948817307830282,-9.5017003312264734],[-77.94987950231824,-9.5022142898648454],[-77.951250069421519,-9.5025569288256921],[-77.952277995758294,-9.5026597230521777],[-77.953031809249453,-9.502488403233313],[-77.953682829780689,-9.502248556690116],[-77.954607964099381,-9.5018373830636165],[-77.955533097223679,-9.5013919494160142],[-77.956835137545411,-9.500877981941299],[-77.957726013421009,-9.5003982795536963],[-77.958685414123707,-9.4998500553782463],[-77.959696202995246,-9.4993189658215087],[-77.960450015603683,-9.4987707311074736],[-77.961135304958916,-9.4983252965696501],[-77.961854850669923,-9.4979483913349494],[-77.962266024548796,-9.497845596166048],[-77.962677190565344,-9.49791413225587],[-77.963328211307584,-9.4981197100510162],[-77.964047767213799,-9.4983595646285188],[-77.965007158807808,-9.4984966166154763],[-77.965898034307969,-9.4984280909867937],[-77.966377735440005,-9.4984623580597614],[-77.966549054353663,-9.4985308845996776],[-77.966686106048741,-9.4986336780343397],[-77.966857434715692,-9.4989077922608161],[-77.967200075216724,-9.4995588120424728],[-77.967714033804853,-9.5003468932200512],[-77.968296526826435,-9.5009636460702414],[-77.969153135190155,-9.5017174599567156],[-77.96990695010156,-9.5023342119875895],[-77.970472305302863,-9.502796783937983],[-77.971020531003816,-9.5032079500923246],[-77.971568767236334,-9.5033450114228444],[-77.972082726124739,-9.5033792777407786],[-77.972391107390195,-9.5034820632078905],[-77.972562427387103,-9.5036533922209845],[-77.972665220736772,-9.503996031080586],[-77.972768014932512,-9.504407205116955],[-77.972905065862918,-9.5050582264171819],[-77.973213447360322,-9.5057777718752163],[-77.973453292894774,-9.5062232047861848],[-77.974001528912694,-9.5067371734434971],[-77.974481219734045,-9.507114079916521],[-77.97496092111291,-9.507353925876135],[-77.975474888928588,-9.5075595130603663],[-77.975920322390053,-9.507765100007985],[-77.976297228977714,-9.5080734723833693],[-77.976948249244302,-9.5086559672291564],[-77.977462208214718,-9.5091013986803112],[-77.978078970107973,-9.5094440481823277],[-77.978867041595905,-9.5095811000131629],[-77.979483804942873,-9.5098894807040217],[-77.979963505021033,-9.5102663881335481],[-77.980443206058709,-9.5107460877523522],[-77.98092289659877,-9.5110544602858713],[-77.981539659025401,-9.5111229960046195],[-77.982224937378092,-9.5113285735833895],[-77.982687508577087,-9.5116540833684535],[-77.983064416289267,-9.5120652580853289],[-77.98344132297963,-9.5123736392224334],[-77.983921023594519,-9.512613484987579],[-77.984366456378453,-9.5128190720755423],[-77.984948950217984,-9.5129903910905149],[-77.985497176828645,-9.513093185847163],[-77.985976878261667,-9.5132645053042619],[-77.986593630825254,-9.513538617693607],[-77.987347444110981,-9.513675679577581],[-77.987792876983619,-9.5136756798328328],[-77.988341104439684,-9.5135728863931774],[-77.988752279209706,-9.5135728862226721],[-77.988923599306432,-9.5136071535557516],[-77.988992124211393,-9.5136756797930015],[-77.989060659820922,-9.5138127320742925],[-77.989163452644021,-9.5141553799938343],[-77.989334772824478,-9.5148064012468918],[-77.98943756712157,-9.5154231534122111],[-77.989643154264826,-9.5161427001286665],[-77.990054318579723,-9.5168279874043922],[-77.990431226923349,-9.5174104815947516],[-77.991013720107304,-9.5180957599669824],[-77.991561946681458,-9.5186439959101197],[-77.992041647620326,-9.5189866353697834],[-77.992521347571852,-9.5193978097571748],[-77.993001048558284,-9.5198089758967974],[-77.99344648195013,-9.5203572015580722],[-77.993823389054157,-9.520973964242577],[-77.994474408657339,-9.5216935102166556],[-77.995365274768929,-9.5223445296083344],[-77.996187614840053,-9.5227214375568803],[-77.996752979695472,-9.5230812146107855],[-77.997541053389725,-9.5234238543449177],[-77.998226340119288,-9.5234581216549206],[-77.998568979147819,-9.5233553289895418],[-77.998945886367267,-9.5230469481996973],[-77.999528381272469,-9.5224987206524272],[-78.000487782302045,-9.5219504941348809],[-78.001344390244782,-9.5215735868554709],[-78.002063934980981,-9.5212652058363645],[-78.002577893770322,-9.5210938872947715],[-78.003057594863634,-9.5211281546195288],[-78.003742882975459,-9.5212652059959613],[-78.004496697693043,-9.5212652055709288],[-78.006004324806511,-9.5211281549949973],[-78.006963726153757,-9.521059620082081],[-78.007563349688127,-9.5212138098856478],[-78.008180102447582,-9.5214879232068608],[-78.008968184160551,-9.5219676242659332],[-78.009859049558756,-9.5223102626473217],[-78.010852709333605,-9.5224473246098587],[-78.011572265106622,-9.5224473248450341],[-78.012326078691544,-9.5223787981589627],[-78.012840038125802,-9.5223102629157879],[-78.013251213143391,-9.5221389437147295],[-78.013559583709494,-9.5220704169810766],[-78.013662376551892,-9.5221389435921235],[-78.013730913390205,-9.5222760046578507],[-78.013833696702306,-9.5225501178816057],[-78.013936490653165,-9.5237150974001192],[-78.014176346026233,-9.5246402305556668],[-78.014416192216018,-9.5251199319981819],[-78.014724572860885,-9.5255653636098323],[-78.014998686237391,-9.5258394866591161],[-78.015409860752115,-9.5259422712196589],[-78.016095138699669,-9.5259080128883138],[-78.016986014087976,-9.5258394872132506],[-78.018219520444788,-9.5258052197818959],[-78.018819152757246,-9.5257880900613365],[-78.019538698548928,-9.5257538218003006],[-78.02012119273553,-9.5257880900017557],[-78.021046326980269,-9.525925141565935],[-78.022005719170139,-9.5260622040461591],[-78.022862325955714,-9.5262677807325495],[-78.023650408083938,-9.5266104296175627],[-78.024267159570925,-9.5270215952965085],[-78.024849655236565,-9.5271586574341249],[-78.025534942825601,-9.5270558632099913],[-78.026083168555857,-9.5268845438259113],[-78.026871241584146,-9.5264733692226962],[-78.027350942433927,-9.526164997066509],[-78.02817328230735,-9.5258566159701967],[-78.029064157707452,-9.5256510288372702],[-78.029920763682654,-9.5255482346462976],[-78.030914424424552,-9.5254797091025338],[-78.031771031746672,-9.52530838976711],[-78.032524845657974,-9.5251028021855877],[-78.033312918317066,-9.5248972149152564],[-78.034032473810882,-9.5248286887549476],[-78.034717752791181,-9.5247944210476092],[-78.035300245855453,-9.5247258963824528],[-78.035779946786931,-9.524554575777227],[-78.036465235188643,-9.524280461953694],[-78.037184781978894,-9.5239035549801141],[-78.037972852785131,-9.5234923810774301],[-78.038726668261418,-9.5231497414282131],[-78.04002870791831,-9.5230126804242499],[-78.04095385081385,-9.5229098856097423],[-78.041981778228276,-9.5228413611505758],[-78.04280411811564,-9.5229784224321694],[-78.043043964188371,-9.5231154734154995],[-78.043318077193675,-9.5234923806553748],[-78.043523665313941,-9.5242119266711924],[-78.043592190334365,-9.5253426476933143],[-78.043489397192232,-9.5266446876966508],[-78.043523665105582,-9.5280152636305591],[-78.043694983724762,-9.5291459847749262],[-78.044037632691371,-9.5299683254147851],[-78.044414530898635,-9.530996252111251],[-78.045015789217729,-9.5320188529368508],[-78.044832914441869,-9.53239674960051],[-78.044284687447345,-9.5329107078811273],[-78.043667925739314,-9.5334246768890374],[-78.043153966973478,-9.5339729037879728],[-78.042845585976934,-9.5346924486809623],[-78.042571473251854,-9.5354120048719988],[-78.042126039351274,-9.5360972836647289],[-78.041612071081985,-9.5366797776006429],[-78.041029587103068,-9.5372622729076415],[-78.040618411270856,-9.5379475509904736],[-78.040378565908071,-9.5383929933834093],[-78.040104451983908,-9.5391810648821309],[-78.040001659369409,-9.5398663532233297],[-78.039796072032175,-9.5409628072759247],[-78.039556217322172,-9.5416823522357337],[-78.039247845263816,-9.5423333740278942],[-78.038733876801729,-9.5430871868884157],[-78.038219917873136,-9.5435326287759015],[-78.037568897610271,-9.5440465882879266],[-78.037106326320085,-9.5444748916922677],[-78.036832213216954,-9.5449545929931769],[-78.036523831131987,-9.5455370870693947],[-78.036318254195947,-9.5459482520310051],[-78.036249718569294,-9.5462223662354511],[-78.036283985609657,-9.5465307472154564],[-78.036626625697778,-9.5468048603038227],[-78.037106326427462,-9.5472160351378772],[-78.037414707410932,-9.547729994204051],[-78.037551758594233,-9.5483467562559703],[-78.0375517592514,-9.548894982132639],[-78.037586027200874,-9.5494089409913965],[-78.037757346442376,-9.550025703036594],[-78.038031458635615,-9.5505396618645229],[-78.038511160032982,-9.5510193629108251],[-78.038956593323846,-9.5513962703743047],[-78.03940203589147,-9.5518074343334938],[-78.039847468235251,-9.5523899289288003],[-78.040104451764194,-9.5529210258074215],[-78.040549886120601,-9.5537433657235926],[-78.04085825667498,-9.5543943858952947],[-78.041166638178154,-9.5553195213831259],[-78.041337957847546,-9.5559362822749829],[-78.04137222556227,-9.5563474475566963],[-78.041303699123517,-9.5568271478486508],[-78.041132370351789,-9.5575124363528143],[-78.040858257072728,-9.5581977243683447],[-78.040515618341658,-9.5587802088376694],[-78.040172978865129,-9.5594312289233798],[-78.039864597937765,-9.5601850429732789],[-78.03959048371226,-9.561144444992081],[-78.039247845412035,-9.5618297327106294],[-78.038768143758531,-9.5624464850635285],[-78.038185649636688,-9.5630289789074343],[-78.037808743129332,-9.5636114742981704],[-78.037431835609709,-9.5644338127642214],[-78.037209119850573,-9.5648621170540178],[-78.036969275014613,-9.5655473959647761],[-78.03676368733727,-9.5663012090747568],[-78.036660892650161,-9.5668837041241961],[-78.036695160900521,-9.5675004558584327],[-78.036866480233897,-9.5680144250560186],[-78.037003532113431,-9.5684598574045268],[-78.037072057767006,-9.5688024973441923],[-78.037003531676547,-9.5690423523437929],[-78.036866480450556,-9.569179404233763],[-78.036421037997002,-9.5694535173001878],[-78.035872810979569,-9.5699332184333734],[-78.035256058820821,-9.5705157124270208],[-78.034810627186147,-9.5710982073270596],[-78.034467978239761,-9.5717492266887518],[-78.034365182974327,-9.5724687727707813],[-78.034296657701375,-9.5733939068665954],[-78.034296657593416,-9.574250515155784],[-78.034296658085324,-9.5751756475885053],[-78.034228131643417,-9.5758266679106949],[-78.034159606323584,-9.5765462241964574],[-78.034056812125925,-9.5773342957544489],[-78.034056812094533,-9.5777797291632467],[-78.034091070047765,-9.5782594300755104],[-78.03402254441751,-9.5789104496671538],[-78.033782699450697,-9.5792188306039723],[-78.033371524267423,-9.57952721173959],[-78.032823297957151,-9.5798013249470877],[-78.032000957363735,-9.5800411711234545],[-78.031521257331306,-9.5803152839272876],[-78.030973031067646,-9.5807949852636369],[-78.03039053622507,-9.5813774789193271],[-78.029876576768004,-9.5819599726205187],[-78.029328341222893,-9.5825082000439359],[-78.028780115352035,-9.5829536330669693],[-78.028094836080953,-9.5833648072540996],[-78.027101167127725,-9.5837074465551328],[-78.026313095404916,-9.5838444984362585],[-78.025867651760606,-9.5839815602984189],[-78.025525013220957,-9.5842214059577593],[-78.025250899661899,-9.5848038996936715],[-78.025079579844231,-9.5854549209638407],[-78.024942519272813,-9.5862430023458334],[-78.024873993371898,-9.5870996096920216],[-78.024873993104052,-9.5879219495851569],[-78.024873992736303,-9.5886757629368766],[-78.024805467088299,-9.5895323613456771],[-78.024531353590902,-9.5900463303971151],[-78.02420584384069,-9.5902690463483413],[-78.023554823605082,-9.5905774272438151],[-78.022869535684478,-9.5907487461271064],[-78.022389835451037,-9.5908172728388035],[-78.022218515869497,-9.5908857994219083],[-78.022184247603406,-9.5909200656601126],[-78.022149988761115,-9.5910228602925844],[-78.022115721414409,-9.5912627047342323],[-78.02208146345464,-9.5917081489960054],[-78.021738814166923,-9.592256374079545],[-78.021636021083623,-9.5927360749629429],[-78.021498969401591,-9.5933528276047557],[-78.021293380916106,-9.5938667969763927],[-78.020916473945732,-9.594346488372171],[-78.020471042319116,-9.5947919300138444],[-78.019888547828103,-9.5952716297111067],[-78.019545908919866,-9.5955114757695572],[-78.018929146266345,-9.5960254353806711],[-78.018278125914009,-9.5964708773617353],[-78.017729898664854,-9.5969848359231378],[-78.01738725980367,-9.5973960107769116],[-78.017044612375841,-9.5980470317629596],[-78.016770498416491,-9.5985267319949656],[-78.016530653419295,-9.5991777516217027],[-78.016290807196725,-9.5998630312330775],[-78.015913899015928,-9.6004112571733984],[-78.015536992825659,-9.6007539064294409],[-78.014988757107616,-9.6011308133634827],[-78.014097891265834,-9.6014391840055779],[-78.013412602914229,-9.6016790398694809],[-78.012556004384749,-9.6021244720860697],[-78.012042037007504,-9.6026041726450941],[-78.011665130135185,-9.6029810804402249],[-78.011236825931718,-9.6033065913195497],[-78.010688599119788,-9.6037177648119343],[-78.010414485987511,-9.6040261356046379],[-78.010174639650501,-9.6044715697681546],[-78.010071846997164,-9.6048142181879843],[-78.009900517172866,-9.6053624439203862],[-78.009774107598645,-9.6056784910452464],[-78.00961819559231,-9.6056266862333182],[-78.009302776748513,-9.6057234868829084],[-78.009124315063886,-9.6058305614142601],[-78.008553242964197,-9.606080402701787],[-78.008124940098213,-9.6061874763280866],[-78.007803708858106,-9.6061160970153274],[-78.007518172806414,-9.605866254589527],[-78.00726833219953,-9.6056877930066751],[-78.006830574006329,-9.6055080662937993],[-78.006322493076411,-9.6054914876104469],[-78.005965578153948,-9.6055985618205355],[-78.005715735784776,-9.605812709007763],[-78.005308251722766,-9.6062000309687434],[-78.004823433922226,-9.6066336216431321],[-78.004537897661294,-9.6069548519806567],[-78.004323751193382,-9.6073474616121501],[-78.003966826623881,-9.60777576591647],[-78.003609911142462,-9.6081683753415064],[-78.003360070185323,-9.6085966791166548],[-78.003038840016643,-9.6091677507442803],[-78.00278899874121,-9.609560359807805],[-78.002539157036637,-9.6098815911623685],[-78.002125224307818,-9.6103715725825349],[-78.00161116127417,-9.6107738924349064],[-78.001004404188151,-9.6109523449495047],[-78.000397637024534,-9.6109880401147834],[-77.999933649239139,-9.6112735756754049],[-77.999648114262101,-9.6116304901734768],[-77.999337601563326,-9.612269527056986],[-77.998898578627404,-9.612915402176208],[-77.998113359901382,-9.6137363153558617],[-77.997498966710936,-9.614226791616149],[-77.996727918804822,-9.6146024340247358],[-77.995757693972436,-9.6148784579220088],[-77.995079548670176,-9.6151282997532554],[-77.994294319703585,-9.6154495313187791],[-77.993937405243216,-9.6157707598464146],[-77.993330638835943,-9.6160919808626577],[-77.992759567893998,-9.6163775183185987],[-77.992366958126979,-9.616448905599011],[-77.991974348902318,-9.6166273577123693],[-77.991546045169684,-9.616698747268936],[-77.991189130208483,-9.616877210100359],[-77.990832205371262,-9.6171627453235189],[-77.990403902323607,-9.6174125865574904],[-77.989939913093778,-9.6175196607231364],[-77.989690061887657,-9.6175196609806743],[-77.98933314631627,-9.6174482809952924],[-77.989011916559221,-9.6173055139399093],[-77.988280233798449,-9.6171805878027481],[-77.987495016324388,-9.6173233564224674],[-77.986674101841373,-9.6175018194186173],[-77.98613871516126,-9.6176802709117801],[-77.985567652959546,-9.6180371956780917],[-77.984960886590343,-9.6185368789533854],[-77.984496888709671,-9.6188581093518533],[-77.983675975185221,-9.6192864129697],[-77.983069219309797,-9.6196076330810527],[-77.98233509299024,-9.6198811189673776],[-77.981784306931573,-9.6199645578682489],[-77.981141847134964,-9.6199288637521558],[-77.980285248571676,-9.619786095678414],[-77.979607104187622,-9.6196790222461956],[-77.979071716140083,-9.6197147156213951],[-77.97842926635056,-9.6198574852465324],[-77.977822500121803,-9.6198931694120571],[-77.977037280886393,-9.6199645579002837],[-77.976394829563461,-9.6198931691140555],[-77.975573917316865,-9.6197504016435662],[-77.974538846913717,-9.6196076329716664],[-77.973825007240791,-9.6195005597016898],[-77.973111166637409,-9.6194291813425821],[-77.972076107056424,-9.6194648746706157],[-77.971719182307936,-9.6195005602541599],[-77.971255192797884,-9.6195719476984092],[-77.970684121920243,-9.6197504019557201],[-77.970202281836208,-9.6198396324422486],[-77.969524135633037,-9.6198753274496571],[-77.968738906828335,-9.6199110207795471],[-77.968096457251391,-9.6201251694199019],[-77.967668153228658,-9.6203750090736246],[-77.966668776741827,-9.620517777588244],[-77.966204789380015,-9.6206248610565108],[-77.965954604959975,-9.6206906946412492],[-77.965942021738485,-9.6206962299561347],[-77.965866515369072,-9.6207292621368783],[-77.965677742944564,-9.6208189314433934],[-77.965573912890036,-9.6208850022135888],[-77.965375696030179,-9.6209652360079545],[-77.965262431132601,-9.6210313091881812],[-77.965050061655447,-9.6211587259519789],[-77.964932080403202,-9.6212200808534316],[-77.964847127703848,-9.6212436765720621],[-77.964799935369683,-9.6212342420399111],[-77.964757460306799,-9.6211917666369562],[-77.96469138680564,-9.6211020981770083],[-77.964634760202188,-9.6209982683879876],[-77.96452149545695,-9.6207717374416415],[-77.964474301907217,-9.6206443201906886],[-77.964474007291727,-9.6206432071120407],[-77.964384500089821,-9.6204820933081372],[-77.964206038165869,-9.6201251694214953],[-77.964098963928492,-9.6197325588179048],[-77.963956196287967,-9.6194113284017124],[-77.963706354256217,-9.6190544142975813],[-77.963492197797535,-9.6187331839081232],[-77.963135283351718,-9.6184476469144204],[-77.962849746943022,-9.6181978060916151],[-77.96238574894987,-9.6178051966984413],[-77.962100212924213,-9.6174482806086914],[-77.961886065039593,-9.6170913569391256],[-77.961674029633656,-9.6167284980713408],[-77.961279299065581,-9.6161276761384826],[-77.961029459395505,-9.6158064445486247],[-77.960779617270873,-9.6154495311106221],[-77.960677002956189,-9.615170299895194],[-77.960636849128406,-9.6149141534150662],[-77.960636849347637,-9.6144858501405093],[-77.960607469592503,-9.6142861010270035],[-77.96050266003418,-9.6141296953029762],[-77.960351312633662,-9.6140575464037141],[-77.960143070588117,-9.6140643167508841],[-77.959923008890044,-9.6140932403870583],[-77.959601778786322,-9.6141646193158259],[-77.959102094892302,-9.6142716919154658],[-77.958459568767069,-9.6144021056108411],[-77.95789839806757,-9.6145165117937523],[-77.95713903926044,-9.6146999956528418],[-77.955818433257903,-9.6149855333712075],[-77.954961835047868,-9.6151996888011553],[-77.954640604884617,-9.6153067616940806],[-77.954107082388887,-9.6156245223842571],[-77.95354203059054,-9.616028126120943],[-77.953098072294821,-9.6166254656194816],[-77.952726747684139,-9.6170371452957575],[-77.952153630552615,-9.6174891878415476],[-77.95152400240633,-9.6179331556760541],[-77.950982185232363,-9.6183584165927947],[-77.950410048298622,-9.6186596449728441],[-77.949982809024362,-9.618893803703747],[-77.949336449153037,-9.6193377052068332],[-77.948908630953497,-9.6197090192990125],[-77.948651856120748,-9.6200863164299353],[-77.948601885942665,-9.6202417807519467],[-77.948505016902303,-9.6205404510528965],[-77.948408157838784,-9.6208310481406905],[-77.948303215034272,-9.6209763461660796],[-77.948028768124473,-9.6211458670845893],[-77.947689734049931,-9.6212992304161791],[-77.947423352701279,-9.6214364626844127],[-77.947165046895165,-9.6215736863700165],[-77.94692288133075,-9.621670555370363],[-77.946738998298969,-9.6217374162591671],[-77.946449304566784,-9.6218919201819162],[-77.945949621886115,-9.6220703827531651],[-77.94542146399769,-9.6223082503579338],[-77.944771793698294,-9.6226414551182575],[-77.94437917534249,-9.6228199065505109],[-77.943950870629251,-9.6230697588169836],[-77.943486882690991,-9.6232839051477939],[-77.942951504881037,-9.6234980528629848],[-77.94238043255514,-9.6237122089310532],[-77.941952130076572,-9.6240334399036911],[-77.941595205132387,-9.624354660948736],[-77.941059827950625,-9.6248900378750939],[-77.940417375757491,-9.6252469623969379],[-77.939739231993684,-9.6255324979895533],[-77.939168158627524,-9.6257823397002777],[-77.938133089206758,-9.6262820231823554],[-77.937918943277964,-9.6264961789036985],[-77.937597711616434,-9.6266032522266478],[-77.937312175563363,-9.6264961790140315],[-77.93688387293318,-9.6264247900917574],[-77.936437725862163,-9.6266924843739474],[-77.935866655295371,-9.6274420183825384],[-77.935616812955431,-9.6278346284318754],[-77.935331278333734,-9.6282629318509851],[-77.935117129856323,-9.628762614720797],[-77.934795899547382,-9.629619221791728],[-77.934617436682259,-9.6300475246029347],[-77.934260522236102,-9.6312253542964328],[-77.934153449002849,-9.6323318026250746],[-77.934010681170847,-9.6334382522626747],[-77.934046365572485,-9.6340093238531654],[-77.93408205974707,-9.6344376280464896],[-77.933939292946178,-9.6349373201136377],[-77.933653755628285,-9.6355797708110309],[-77.933475293560662,-9.6361865383584799],[-77.93333252573494,-9.6366862197743615],[-77.932993452738032,-9.6370966716035795],[-77.932529465398929,-9.6372751353856358],[-77.932065466796658,-9.6373822078042739],[-77.93131594244872,-9.6375606697871934],[-77.930530714218136,-9.6375249762755217],[-77.929745495228133,-9.6375249759446682],[-77.929067348615689,-9.6376677438954559],[-77.928721561711242,-9.6377579462551957],[-77.928481450080923,-9.6378088756953399],[-77.92813944836746,-9.6377874286999425],[-77.927732001675594,-9.6376997388598706],[-77.927318439575572,-9.6375606697071809],[-77.926783063359139,-9.6373822076785896],[-77.926247666266576,-9.637190411293437],[-77.925819380559247,-9.6369539043279584],[-77.925425459201193,-9.6368338773278985],[-77.925069857415394,-9.6368111457998058],[-77.92442739624272,-9.6368111459681067],[-77.923428021361545,-9.6368825247179402],[-77.92267849692611,-9.6368468312422007],[-77.92185758276932,-9.6368825250352419],[-77.920536976583122,-9.6370966716761046],[-77.919644684647977,-9.6372037554490451],[-77.919180687341168,-9.6372394406004336],[-77.918681003801083,-9.6370966719913653],[-77.917967163811582,-9.6369895993538748],[-77.917146250865784,-9.6369539037822225],[-77.916735788807685,-9.6369003670173043],[-77.916378873682007,-9.6369003669832924],[-77.915879180681031,-9.6367575993110854],[-77.914986889172127,-9.6366862195774985],[-77.91427305002199,-9.6366862199631242],[-77.91363058928637,-9.6367219153115862],[-77.913130905936995,-9.6367219147369259],[-77.912666907848518,-9.6366862197269807],[-77.911953077807183,-9.6366505258903867],[-77.911631847656679,-9.6367575989489964],[-77.91116784929099,-9.6370431357769029],[-77.910775239801794,-9.6373643646802094],[-77.909811559411381,-9.6377212808454562],[-77.909347559791414,-9.6378640494096448],[-77.908740803650161,-9.6379354377949653],[-77.908312499895573,-9.6380068167614503],[-77.907919891285957,-9.6381138996130815],[-77.907562965679872,-9.6385065091270725],[-77.907170356303851,-9.6391489603542375],[-77.906991893685642,-9.6396843365978064],[-77.906813441666785,-9.6402197146144495],[-77.906527905667375,-9.641004942700901],[-77.906349442748834,-9.6415403200420116],[-77.906135287255168,-9.6421470866912014],[-77.905778371252822,-9.6427181489005385],[-77.905421455803591,-9.6434319889584774],[-77.90495745764386,-9.644038755076739],[-77.904315006586231,-9.6445741322212495],[-77.903636852613673,-9.6451095089903749],[-77.902637486082966,-9.6457519698707888],[-77.902102108843138,-9.6460731897354393],[-77.901495342934439,-9.6462516532983305],[-77.900888576997787,-9.6464301150648613],[-77.900531661907564,-9.6465371893186429],[-77.899853515876401,-9.6466085694441102],[-77.899425211820798,-9.6466442630104989],[-77.898925520303209,-9.6466085689359069],[-77.898622141574876,-9.6465907260802144],[-77.898086765080123,-9.646519346967974],[-77.89762276639928,-9.6465550307303936],[-77.896944621072151,-9.6468405681981722],[-77.896659084679911,-9.6470547236220057],[-77.895945244649113,-9.6475544068846038],[-77.895588330819606,-9.647697173777857],[-77.895267100309326,-9.6479470159093168],[-77.894838796026207,-9.6482325529456556],[-77.894517575790729,-9.6483753196901212],[-77.893910810056553,-9.6485537820554157],[-77.893411127385264,-9.6486608561967824],[-77.892518825052647,-9.648875013448194],[-77.892161909416345,-9.6490891591807006],[-77.891769289742598,-9.6496245382690127],[-77.89155514441947,-9.6500171459634458],[-77.891269606700021,-9.6504454498634153],[-77.890841304146221,-9.6508023753179089],[-77.890234547117331,-9.6509094475488961],[-77.889556392154773,-9.6510165230196119],[-77.888699794727358,-9.6510165229564233],[-77.88830717643863,-9.6510522166401351],[-77.887843187017182,-9.6511235963183299],[-77.887343493959136,-9.6513734460302274],[-77.8869151912006,-9.6516589825569206],[-77.886415508145305,-9.6518731303416878],[-77.885880128792948,-9.6519802041028058],[-77.885166289910259,-9.6522300451827405],[-77.884559525445809,-9.6524085069532894],[-77.884131230296731,-9.6525155812835095],[-77.883667231892559,-9.6528368106763711],[-77.883274622079938,-9.6530866519309537],[-77.882882012632834,-9.6532294196902217],[-77.882418015375009,-9.6533008104135103],[-77.881846942653169,-9.6535149557940283],[-77.881275870920135,-9.6536577236068091],[-77.880740493394399,-9.6540503331673779],[-77.88041926364194,-9.6543358699034165],[-77.880240810860371,-9.6546571001028294],[-77.880098042838284,-9.6551567826709253],[-77.879973116556187,-9.6556743168584855],[-77.879723275582066,-9.656066927296127],[-77.879509118597582,-9.6564595370728359],[-77.879223583391706,-9.6569949228032375],[-77.878902362618788,-9.6578515216447034],[-77.87836698477625,-9.6589222862527784],[-77.877867291863126,-9.6596004308134553],[-77.877331915224516,-9.6601715029501189],[-77.876618076147651,-9.6607425738517954],[-77.876047004286178,-9.661385026338511],[-77.87533316399626,-9.6620274757219811],[-77.874512251414018,-9.6628127051172061],[-77.873976873219121,-9.6633480818448607],[-77.873477190703014,-9.6638477647363441],[-77.873191654128703,-9.6641689962688559],[-77.872727656320663,-9.6645259112687292],[-77.872299351997498,-9.6649185197704615],[-77.871692596093013,-9.6655252869780455],[-77.871050136304248,-9.6659535896905826],[-77.870657526092813,-9.6662034313883947],[-77.870229221786275,-9.6664889678868171],[-77.869372614580911,-9.6667388086967616],[-77.869087078324,-9.6669529659810873],[-77.868837236555976,-9.6673098809221756],[-77.868587396117391,-9.6677381850770061],[-77.868373249360403,-9.6682378767847688],[-77.868087713147645,-9.6686304857535053],[-77.867588020298129,-9.6691301700783541],[-77.867195411343801,-9.6694513988552462],[-77.8665351075731,-9.6697190829223043],[-77.865928351156555,-9.6698261670874892],[-77.864964669934253,-9.6700760081701311],[-77.864357903626299,-9.6703615442949999],[-77.86350129685168,-9.6710039947571111],[-77.863037307771748,-9.6713966053168203],[-77.86250192095531,-9.6716821413099421],[-77.861431166077608,-9.6723959798826975],[-77.860860093800881,-9.6727885893386265],[-77.860217644020764,-9.6732525880864682],[-77.859503803848099,-9.6740021218842198],[-77.858825658450669,-9.6747516460047489],[-77.857861977011268,-9.6756082542997071],[-77.857362283957471,-9.6760365579213747],[-77.856755528364999,-9.6767147031935909],[-77.856184456890219,-9.6771787019037934],[-77.855649078664143,-9.6774285429822626],[-77.855149387041109,-9.6773928480672602],[-77.85461400868796,-9.6771073116088449],[-77.85429278903257,-9.6767503982424472],[-77.85400725167186,-9.6762150200614183],[-77.853650328048232,-9.6756439475606619],[-77.853329098312059,-9.6752156443403852],[-77.852900803896489,-9.6748587197693059],[-77.852365416396523,-9.674608878252581],[-77.852008502397098,-9.6744304159308818],[-77.851473123929125,-9.6743233422352333],[-77.850830663121414,-9.6741091945692759],[-77.850438053953894,-9.6737522712105619],[-77.85022390744227,-9.6734310502397545],[-77.849866981823496,-9.6731098197573786],[-77.849581446212895,-9.673002745579403],[-77.849331605103217,-9.6730741259776902],[-77.84868915402086,-9.6730384306959127],[-77.84833223896149,-9.6728242841167003],[-77.847707631433735,-9.6725922850570143],[-77.847279327201434,-9.672556589672908],[-77.846743939568611,-9.6724852112478832],[-77.84642271929755,-9.6722710544462007],[-77.84570887887125,-9.6721639814198213],[-77.845244880559719,-9.6720212126083656],[-77.844923661039232,-9.6719141404264111],[-77.844709502588927,-9.6719141401991298],[-77.844566736106131,-9.6720212131313232],[-77.844423968297477,-9.6721996749103951],[-77.844031358887776,-9.6725209058926254],[-77.843745822321992,-9.6726993583430279],[-77.843567360369761,-9.6728421270420881],[-77.843210445252026,-9.6728778214429507],[-77.84288921532837,-9.673127661564342],[-77.842353836796065,-9.6731276615629795],[-77.841532923990755,-9.6730205890464749],[-77.840854778686364,-9.6729848941076799],[-77.840069560381409,-9.6728778206680204],[-77.839355720773568,-9.6728064418572135],[-77.83882034330189,-9.67266367313605],[-77.837928040979108,-9.6725922848473029],[-77.83696435978473,-9.6725922850142023],[-77.836143446772908,-9.6726279792434458],[-77.835500986253052,-9.672627979086112],[-77.834644388411107,-9.6727350521466438],[-77.833716390907171,-9.672984894264788],[-77.832824098653759,-9.6731990498055342],[-77.832145954005483,-9.673199049848149],[-77.831503494203488,-9.6731276618854363],[-77.830896737309743,-9.6728778207931843],[-77.830361359587016,-9.6727350523281537],[-77.829754594306664,-9.6726993581593543],[-77.829219216203754,-9.6727350517095108],[-77.828755217728258,-9.6728421271393756],[-77.828077073040134,-9.6730205894178312],[-77.82743462185573,-9.6730919767503085],[-77.826792160891173,-9.6731633558039523],[-77.826363857114089,-9.673270430829298],[-77.825935552980894,-9.6733775126232047],[-77.825721405720728,-9.6735916597186353],[-77.825364491412572,-9.6737701234231466],[-77.82497187186442,-9.6739842698248388],[-77.824400801318447,-9.6741627321455663],[-77.82382973857608,-9.6743054999336575],[-77.822509132816847,-9.6744482682851185],[-77.821723913759968,-9.6745910353605336],[-77.821581640119703,-9.674619492851658],[-77.821188535932322,-9.6746981103308975],[-77.820439001832767,-9.6746981099681175],[-77.819832235546414,-9.6748051831098909],[-77.819511015403037,-9.6746981099720841],[-77.818975638044861,-9.6745553412279826],[-77.818440251342537,-9.6743055000229177],[-77.817762105712021,-9.6741270372101997],[-77.817262422964291,-9.6739842696192326],[-77.816762730439606,-9.6738415021645512],[-77.816084585147806,-9.6734845867620702],[-77.81551352311844,-9.673234745193751],[-77.815013831037788,-9.6730205885953993],[-77.814514147048342,-9.6728421267850244],[-77.813586151363282,-9.6725565900587185],[-77.812836626707323,-9.6723424437661798],[-77.812194166119269,-9.6721996750886543],[-77.811480335822182,-9.672128295625523],[-77.810695106797979,-9.6721639812774036],[-77.809767120058268,-9.6723067491762329],[-77.80919604879368,-9.6724852110502688],[-77.808410830258524,-9.6725922853504152],[-77.807839758207791,-9.6725209061327302],[-77.807482832733157,-9.6723424436017211],[-77.806947456262193,-9.672092601773965],[-77.806162237249907,-9.671878445669817],[-77.805591164643886,-9.6716286038129464],[-77.805162862315086,-9.6714144570508722],[-77.80452041078216,-9.6712003002744886],[-77.803735182354217,-9.6711289210792444],[-77.803128426320967,-9.6708790791633312],[-77.80230751328574,-9.6705935426076959],[-77.801736441319363,-9.6702009237351696],[-77.800737065171731,-9.670058156615541],[-77.799880457926719,-9.6702009241645541],[-77.79870262894579,-9.6705935427822052],[-77.798131557894806,-9.6709147638318456],[-77.797239255730076,-9.671485835554412],[-77.796329111071969,-9.6720033697395369],[-77.795311893008588,-9.6726636728401836],[-77.794473137142447,-9.6733953553460985],[-77.793902065922396,-9.6741805737324],[-77.7935451411808,-9.6745374990620974],[-77.793116836921371,-9.6748230348788624],[-77.792759922799874,-9.6750371822854895],[-77.79193900872157,-9.6754297916537393],[-77.791421474224819,-9.6757331794042223],[-77.790779022861656,-9.6762685569848799],[-77.790493487107597,-9.6766254720761715],[-77.790065183125549,-9.6773393106145793],[-77.789601184824519,-9.6778389947473134],[-77.789065808111943,-9.6780174572381608],[-77.788815967116435,-9.6780531511452423],[-77.788459042259845,-9.6778746893296148],[-77.787923665149691,-9.6775177737458211],[-77.787495360770677,-9.6770537760398749],[-77.787316908073521,-9.6766611655855002],[-77.786959983206359,-9.6760187060163041],[-77.786638762659109,-9.675519023103254],[-77.785924923209677,-9.6747338036908346],[-77.785425229943357,-9.6742341123834859],[-77.784747084629061,-9.6736987341438692],[-77.784176013281652,-9.6735202707242109],[-77.783890478337611,-9.673413198397002],[-77.783712023954465,-9.6732347452824889],[-77.783462173573255,-9.6726279787133613],[-77.783319405914426,-9.6721282957411976],[-77.783140952904063,-9.671592908768373],[-77.782891111584462,-9.6712003003448501],[-77.782177271591991,-9.6706292284300766],[-77.781641894101938,-9.6704507752185709],[-77.780963739021601,-9.6702009244163598],[-77.780071447184611,-9.669951082282326],[-77.778857923590095,-9.6695941683400477],[-77.778037011188474,-9.6693443262402585],[-77.777323170855936,-9.6689517069964808],[-77.776573637325612,-9.668309255918464],[-77.775717030075668,-9.6675954163034596],[-77.774967504780207,-9.667060038948101],[-77.774146592133178,-9.6664889677199692],[-77.77328998513353,-9.6662391256245908],[-77.772772449180422,-9.6660785147775492],[-77.772129999052908,-9.6660785150030986],[-77.77159461185623,-9.6660785151204234],[-77.771581219940046,-9.6660780684049818],[-77.771671156380421,-9.6656283752534797],[-77.772048061974886,-9.6646004469634246],[-77.772733349932537,-9.6635039948516592],[-77.773521421704075,-9.6620991597604249],[-77.774138185060607,-9.6610027072657036],[-77.774823462937178,-9.659837719415858],[-77.77547448270785,-9.6586384719646023],[-77.77602271884092,-9.6577818638120423],[-77.776776523917121,-9.6569937817287954],[-77.777667399133435,-9.6562399771902125],[-77.778866644811075,-9.6548008756138763],[-77.779551933359087,-9.6538414746068106],[-77.780477068031161,-9.652402382325219],[-77.781196613129922,-9.6510660740399867],[-77.781590649805437,-9.6502608630883913],[-77.782241670362652,-9.6491301423965563],[-77.782961224973249,-9.6480336888134275],[-77.783269598009142,-9.6475539877352574],[-77.78340665857769,-9.6470400300950576],[-77.783303863891447,-9.6462519478026589],[-77.783064018668426,-9.6454638663246044],[-77.782755638939406,-9.6444702058853498],[-77.782515783275045,-9.6434422800873083],[-77.782618577055914,-9.6425856721550645],[-77.782755639384348,-9.6418318581382412],[-77.78313254463734,-9.6411123119179649],[-77.78350945222175,-9.640564084765451],[-77.784040549420894,-9.6397588739270184],[-77.784828621924277,-9.6385253599317036],[-77.785342591324053,-9.6374631738032992],[-77.785616703279956,-9.6364009786452645],[-77.785959343410966,-9.635544370677259],[-77.786473310858526,-9.6348590843157336],[-77.786953001750916,-9.6344479190855044],[-77.787638289818304,-9.6341395381492347],[-77.787878145178965,-9.6340024860377298],[-77.788049465445425,-9.6337626296303132],[-77.788083723165954,-9.6331458778822352],[-77.788186517374029,-9.6321522087559064],[-77.788152259326523,-9.630884436078988],[-77.787946671112152,-9.629856509298115],[-77.787809609907228,-9.6289999023213717],[-77.787689686724931,-9.6282289590574912],[-77.787415574370414,-9.6273380831537487],[-77.787072934932169,-9.6266870634282036],[-77.786627491817157,-9.6260703095499878],[-77.786387646961941,-9.6256934029590049],[-77.786250585154875,-9.6252822379699232],[-77.786250585287192,-9.6247340023723975],[-77.786421915240552,-9.6242200428992852],[-77.786627491961596,-9.6237060752460035],[-77.786730286039912,-9.62302079581365],[-77.786730285960445,-9.6224383020408641],[-77.786593233800147,-9.6215474360306281],[-77.786421915149987,-9.620656560851037],[-77.786353378845874,-9.6197999533890677],[-77.786421914836936,-9.6190118810205831],[-77.786387647034715,-9.6186007059511009],[-77.786250584765895,-9.6179839537868244],[-77.786079265721426,-9.6172643982745534],[-77.785976470832679,-9.6165448515834431],[-77.785976471442723,-9.6155854511170507],[-77.786096404091211,-9.614780240097561],[-77.786370516619115,-9.6139921681977381],[-77.786747423904629,-9.6129642411065372],[-77.78688447570768,-9.6122789524418799],[-77.786953001556327,-9.611422344879708],[-77.786867347093647,-9.6107541952793856],[-77.786764553763291,-9.6103772889625247],[-77.78673028597855,-9.610000381033668],[-77.786798821322847,-9.6096577417026552],[-77.786970140051992,-9.6093150929245379],[-77.787209985741271,-9.6088696612386642],[-77.78751836668134,-9.6084242269856972],[-77.787758213230774,-9.6080130526878893],[-77.788272182418382,-9.607087919125787],[-77.788477767763382,-9.606334104693552],[-77.788512027353164,-9.6057516195571058],[-77.788512027414683,-9.6048950127057111],[-77.78840923284119,-9.6034901793443872],[-77.788272181764015,-9.6022566640906675],[-77.7882036553886,-9.6014685921090042],[-77.788135120412591,-9.6004749231158488],[-77.78827218243093,-9.5998239029517052],[-77.78832357822165,-9.599361339612317],[-77.788220784118209,-9.5987103203362576],[-77.787912402549793,-9.5980250324412353],[-77.787569764424745,-9.5973397443525279],[-77.787192857877983,-9.5963460846812065],[-77.786884475598342,-9.5953524250340507],[-77.786404775297797,-9.5944958168305412],[-77.785925074967153,-9.5939818499901754],[-77.785445384392617,-9.5935364159876126],[-77.784897147244081,-9.5930567157017936],[-77.784177601591153,-9.5921315829966041],[-77.78376643639578,-9.5915148303712456],[-77.783372390724821,-9.5905725573151912],[-77.783269598366914,-9.5900585994073566],[-77.783269597827896,-9.5895103715846339],[-77.783509451647035,-9.5888593521202221],[-77.784023410637189,-9.5878656831381033],[-77.784742967242806,-9.5865293749835647],[-77.785222658399192,-9.5854329207589135],[-77.785565307342935,-9.5846448490899814],[-77.785907946088315,-9.5841308810330812],[-77.786284853063634,-9.5837882419501454],[-77.787038667448641,-9.5832057482504336],[-77.787621161300365,-9.582863107909473],[-77.788494897906432,-9.5824005368650038],[-77.788974598821198,-9.5820578973236756],[-77.789385762643505,-9.5818180419589787],[-77.790002526332898,-9.5815096704472129],[-77.790482227393881,-9.5810984958077281],[-77.791133246677674,-9.5803789501411796],[-77.791784266617213,-9.5795566102267831],[-77.792298225648366,-9.5787000018243642],[-77.792606606937611,-9.5779119207335146],[-77.793223359311312,-9.5767811998387469],[-77.793942915283154,-9.5758218080124475],[-77.794491141812586,-9.5748966751025684],[-77.795142161626089,-9.573937273082457],[-77.795758913660848,-9.5729778705764641],[-77.796341408925414,-9.5717443572722338],[-77.79671831460341,-9.5706136370552031],[-77.796855368082106,-9.5697570392113143],[-77.796889635443435,-9.5686948430574219],[-77.797026697241904,-9.5677354420339853],[-77.797163748888593,-9.5670501640637653],[-77.797215144652128,-9.5665190663936333],[-77.797489257829483,-9.5654568708510901],[-77.797592053112879,-9.5650114393629213],[-77.797592053442386,-9.5647373247094372],[-77.797489257713693,-9.5643261504213903],[-77.797352206901877,-9.5639492427624351],[-77.797112352183916,-9.5635723357065956],[-77.796803969974192,-9.5632296973611322],[-77.796495599058773,-9.5629213157232584],[-77.796152950436152,-9.5624073571668333],[-77.79567325896015,-9.561824862959293],[-77.795330609923113,-9.5614136883256986],[-77.794953703890954,-9.5609339968917624],[-77.794508270919465,-9.5599745961419291],[-77.794302683127682,-9.5590837198116834],[-77.793994311790243,-9.5581243293901998],[-77.793822981976035,-9.5572677211198371],[-77.793788723839938,-9.5565824325571906],[-77.793822982033277,-9.555760093062279],[-77.793891517577734,-9.5548692271063747],[-77.79399431239068,-9.5536357129846916],[-77.793994312006618,-9.5528133734460656],[-77.79402856978227,-9.5519224967839893],[-77.794094262027286,-9.5510891336829271],[-77.794436900945215,-9.5505751656477962],[-77.794608221423147,-9.5500954651903651],[-77.794745282259612,-9.5494101872890447],[-77.794916602237194,-9.5487248987810904],[-77.79491660195599,-9.5478340342055752],[-77.794779549715045,-9.5468403652854263],[-77.794642489197372,-9.5458809724133236],[-77.794642488955688,-9.5449900966875028],[-77.794813807772798,-9.5441677576824251],[-77.794848075419438,-9.5433111504254953],[-77.794779550161579,-9.5428314487889967],[-77.794505426573593,-9.5422489542650482],[-77.794094262245181,-9.5416322020378406],[-77.793717355348306,-9.5411867687225467],[-77.793306179681338,-9.5405357475650767],[-77.792895014919011,-9.5398847280905201],[-77.792518108328011,-9.5390966471368763],[-77.792278252771382,-9.5384798947699601],[-77.79214120130078,-9.5376232870058217],[-77.792089804389363,-9.5370921890366951],[-77.792089804439044,-9.5364069107084983],[-77.792089803841066,-9.535550302836695],[-77.792226855967897,-9.5345909023519333],[-77.7923981861247,-9.5340769338790707],[-77.792603763058992,-9.5333916549547482],[-77.792775082344221,-9.532603573284117],[-77.792877876428676,-9.531781232732639],[-77.792809350095979,-9.5310274201790151],[-77.792603762695208,-9.5304449246030263],[-77.792363917863725,-9.5298624413048127],[-77.792158330378754,-9.5292456785765083],[-77.792158329715392,-9.5286289257425985],[-77.792398186073441,-9.5279093801344956],[-77.792638030805406,-9.5271898238692856],[-77.792792220603346,-9.5265559417987458],[-77.793066334200049,-9.5258363857056807],[-77.793306180015648,-9.5254252212383417],[-77.793648829252064,-9.5248769946040639],[-77.793888673795081,-9.5240546448752426],[-77.794094261625091,-9.5234721609884456],[-77.794471168687863,-9.5227868733616088],[-77.794711013761244,-9.5222043778650107],[-77.794813807722107,-9.5217246771595683],[-77.794813808258979,-9.5212792447610326],[-77.794642489223591,-9.5206282247649892],[-77.794527540085653,-9.5202259042057591],[-77.794505426703111,-9.520148523970267],[-77.794436900635645,-9.5192576578192583],[-77.794471168641095,-9.5184695765874086],[-77.794539694033986,-9.5176129690472582],[-77.794471169180824,-9.516619308869787],[-77.794197055298653,-9.5158312269467462],[-77.793854405550732,-9.5151116822727086],[-77.793340448324471,-9.5141522799931959],[-77.792929273187553,-9.5133642078792278],[-77.792381046256665,-9.512541868184103],[-77.791832819866826,-9.5116852603695392],[-77.791558705820691,-9.5110684977823912],[-77.791164670702344,-9.5101262348994648],[-77.790993351030096,-9.5092011015745452],[-77.790890557875258,-9.5083102268439195],[-77.790924815635236,-9.5068711348910142],[-77.791267463802853,-9.5053977743724598],[-77.791438782649408,-9.5043013112793009],[-77.791541578033971,-9.5029992711251747],[-77.791438783263644,-9.5020398803423767],[-77.791164670659711,-9.501251796668603],[-77.790753496417707,-9.5004294574409105],[-77.790445114256556,-9.4997784366910984],[-77.790171001699719,-9.4990931488805952],[-77.789896888831152,-9.4982365412627434],[-77.789605645743947,-9.4973628045559799],[-77.78943432643085,-9.4967117851911453],[-77.789263007099564,-9.4956495891034454],[-77.789194470917053,-9.4949985693816235],[-77.788954626352265,-9.4943818167773379],[-77.788680511688554,-9.4938678577455882],[-77.788406398852018,-9.4934566836273699],[-77.788063750139557,-9.4929084569785829],[-77.787892429764113,-9.4923602297733876],[-77.787858171723855,-9.4918462622313999],[-77.788029492412463,-9.4911952407661548],[-77.788372130727723,-9.4905442213845319],[-77.788954625781301,-9.489790407732098],[-77.789331533234446,-9.4891393869458778],[-77.789571377996694,-9.4886939537647947],[-77.789639913734831,-9.4884541075737339],[-77.78967417221439,-9.4882142537668024],[-77.789502851876733,-9.4878716142020387],[-77.788851832070094,-9.4870150069322978],[-77.788303606158777,-9.4864325127406417],[-77.787789637440213,-9.4860556060697903],[-77.787155754731586,-9.485524507608158],[-77.786710312641063,-9.4850448156272495],[-77.786333405763159,-9.484633641647056],[-77.785922239974383,-9.4841196740214357],[-77.785408273315241,-9.4835714466144179],[-77.784791519922891,-9.4830232208884251],[-77.784174767003833,-9.482372199592751],[-77.783763591612313,-9.4819267667372031],[-77.783352417725965,-9.4815498602972994],[-77.782941252005543,-9.4811729539545873],[-77.782735666346042,-9.4809331080241499],[-77.782564346071098,-9.4806589946938029],[-77.78246155154585,-9.4802478196109075],[-77.782427284049618,-9.4795967996214792],[-77.782495819595383,-9.4783632853727795],[-77.782564345701161,-9.4775752134380742],[-77.782564346355883,-9.4769584508072438],[-77.78235875901369,-9.476067585135743],[-77.78201611922114,-9.4754508226732437],[-77.781570677433038,-9.4748340708541168],[-77.781159511747802,-9.4741145236328954],[-77.78093679522469,-9.4735834271869237],[-77.780834001056689,-9.4726925505628561],[-77.780902527373527,-9.4716988922565513],[-77.781073847094447,-9.4708765520811546],[-77.781313702084489,-9.4697800980411664],[-77.781622073628199,-9.468683636237671],[-77.781759135234594,-9.4673473372453554],[-77.781759135114442,-9.4661823488210342],[-77.781622074060465,-9.4648460401123771],[-77.781347959961849,-9.4639551739614447],[-77.780971053822157,-9.4631670925666107],[-77.780491361928611,-9.4621734333009559],[-77.780131584231469,-9.46133395468682],[-77.779823202900914,-9.4602032428751812],[-77.779583356853877,-9.4584215023119782],[-77.779549089959417,-9.4569138742658936],[-77.77961761640212,-9.4552349268113822],[-77.779823202597797,-9.4541727320698996],[-77.780097315805975,-9.4531448047481774],[-77.780439965075331,-9.4518427643927208],[-77.780679811076126,-9.4507463112706862],[-77.780679811031803,-9.4503694043848139],[-77.780611285275256,-9.4500267648868626],[-77.780474222779688,-9.4497869103068002],[-77.780302903697702,-9.44958132177306],[-77.77990886828195,-9.4492215548475009],[-77.779292105922394,-9.4487418537616765],[-77.778709620898937,-9.4481593591642365],[-77.778092858638445,-9.4474055463196454],[-77.777578900133136,-9.4468230505831414],[-77.776859344419734,-9.4462748239886434],[-77.776174065306407,-9.445863659035858],[-77.775420251865697,-9.4454524843531686],[-77.774940552003585,-9.4450755781807043],[-77.774632170912696,-9.4448014638409052],[-77.774323797728997,-9.4443560308166212],[-77.774221004891416,-9.4440133828698904],[-77.774221005447117,-9.4436707427924667],[-77.774221004685018,-9.4432253114187237],[-77.774289531003291,-9.4420260641545255],[-77.774495118193613,-9.4405869606273711],[-77.774974819406083,-9.4387024274102593],[-77.775420251663121,-9.4372290673157302],[-77.775728633048033,-9.4357214389974899],[-77.776105531064516,-9.4345564602217777],[-77.776328255632947,-9.433785507262467],[-77.776705163738256,-9.4324492090383298],[-77.776979276956254,-9.4309073126065286],[-77.777287648227983,-9.4295710139009117],[-77.777356184176838,-9.4285773448610435],[-77.777356183578135,-9.4277207372305138],[-77.777493236026444,-9.4267270778681098],[-77.777733091396527,-9.4262131190149834],[-77.778109996810343,-9.4256306252894362],[-77.778315575398352,-9.4253222425687824],[-77.778422115840101,-9.4250239435732421]]]},"properties":{"OBJECTID":922,"CODIGO":"1375965","NIVEL":7,"NIVEL7":"1375965","NOMB_UH_N7":"Medio Casma","Nombre_UH":"Medio Casma","AREA_KM2":492.45159999999998,"AREA_FINAL":489.83800000000002}}]}