{"type":"Feature","properties":{"unit_id":"cashahuacra","deployment_status":"RESEARCH_ONLY","test_only":true,"production_use":false,"production_ready":false,"operational_alerting_enabled":false,"geometry_status":"DELINEATED_AFTER_STABLE_NEAREST_SAME_CHANNEL_SNAP","outlet_lon":-76.66333333333333,"outlet_lat":-11.915277777777778,"delineated_area_km2":69.423,"area_role":"POST_STABILITY_GEOMETRY_DIAGNOSTIC_NOT_OPERATIONAL_THRESHOLD","catchment_cells":74649,"elevation_min_m":964.19,"elevation_max_m":3186.25,"elevation_mean_m":1730.4,"elevation_median_m":1679.02,"relief_m":2222.06,"area_km2":69.423,"perimeter_km":42.839,"morphometry_scope":"BASIC_DEM_DERIVED_AFTER_EXACT_CELL_FREEZE_ONLY","display_geometry_role":"MAP_DISPLAY_ONLY_NOT_SCIENTIFIC_CALCULATION","canonical_basin_artifact_sha256":"410938abf108588335bcb2995757b2c14d712d0c8c932f14705d68d11e736fff","canonical_workflow_run_id":33237262072,"simplification_tolerance_m":30.0,"simplification_area_difference_pct":0.04623,"loaded_into_operational_calculation":false,"carries_alert_values":false,"carries_risk_classification":false,"secondary_sensitivity_status":"PENDING"},"geometry":{"type":"Polygon","coordinates":[[[-76.66958333333332,-11.82013888888889],[-76.65930555555555,-11.820416666666663],[-76.65847222222222,-11.820138888888879],[-76.65652777777778,-11.82097222222223],[-76.65291666666666,-11.821249999999997],[-76.65124999999999,-11.822083333333326],[-76.64986111111111,-11.822083333333335],[-76.64791666666666,-11.823194444444436],[-76.64625,-11.823194444444452],[-76.64513888888888,-11.824583333333333],[-76.64513888888888,-11.825138888888892],[-76.64125,-11.828472222222219],[-76.63874999999999,-11.828472222222224],[-76.63819444444444,-11.827916666666662],[-76.63125,-11.828194444444444],[-76.62875,-11.825416666666674],[-76.62652777777777,-11.824305555555558],[-76.62597222222222,-11.824861111111105],[-76.62513888888888,-11.82486111111111],[-76.62458333333333,-11.825694444444444],[-76.62374999999999,-11.825972222222218],[-76.62124999999999,-11.825694444444437],[-76.62097222222222,-11.826527777777784],[-76.62013888888889,-11.826527777777775],[-76.62041666666666,-11.833472222222227],[-76.62013888888889,-11.833472222222222],[-76.62013888888889,-11.852361111111115],[-76.62152777777777,-11.85347222222223],[-76.62152777777777,-11.85541666666667],[-76.6223611111111,-11.85652777777777],[-76.6223611111111,-11.857083333333337],[-76.62124999999999,-11.857916666666657],[-76.62124999999999,-11.85847222222223],[-76.62013888888889,-11.858750000000004],[-76.62013888888889,-11.874305555555555],[-76.62041666666666,-11.87430555555556],[-76.62013888888889,-11.87875],[-76.62124999999999,-11.88013888888889],[-76.62152777777777,-11.882638888888886],[-76.62319444444444,-11.884583333333335],[-76.62374999999999,-11.886527777777777],[-76.6248611111111,-11.887083333333326],[-76.6248611111111,-11.890138888888893],[-76.62541666666667,-11.890694444444437],[-76.62541666666667,-11.891527777777783],[-76.62597222222222,-11.892638888888886],[-76.62680555555556,-11.893194444444447],[-76.62708333333333,-11.894861111111105],[-76.62847222222221,-11.896249999999991],[-76.62986111111111,-11.899583333333332],[-76.63125,-11.900972222222231],[-76.63125,-11.90180555555556],[-76.63291666666666,-11.902916666666675],[-76.63347222222221,-11.904583333333333],[-76.63624999999999,-11.907361111111115],[-76.63791666666665,-11.90763888888889],[-76.63819444444444,-11.90819444444445],[-76.64041666666667,-11.90875],[-76.64152777777777,-11.909583333333334],[-76.64819444444444,-11.909305555555557],[-76.65013888888889,-11.908750000000007],[-76.65041666666666,-11.909305555555552],[-76.65319444444444,-11.909861111111118],[-76.65374999999999,-11.910972222222219],[-76.65430555555555,-11.910972222222217],[-76.6548611111111,-11.912638888888887],[-76.65541666666667,-11.91236111111111],[-76.65569444444444,-11.912916666666664],[-76.65708333333333,-11.913194444444448],[-76.65875,-11.914583333333333],[-76.66236111111111,-11.91458333333334],[-76.66319444444446,-11.915694444444446],[-76.66402777777778,-11.914583333333328],[-76.66402777777778,-11.913472222222223],[-76.66486111111111,-11.912638888888887],[-76.66541666666666,-11.91291666666667],[-76.66597222222222,-11.912083333333333],[-76.66708333333332,-11.911805555555548],[-76.6673611111111,-11.911249999999992],[-76.67097222222222,-11.911249999999992],[-76.67097222222222,-11.910972222222222],[-76.67375,-11.911249999999999],[-76.67597222222221,-11.910138888888895],[-76.67847222222221,-11.911250000000003],[-76.68097222222221,-11.91097222222223],[-76.6823611111111,-11.911527777777769],[-76.6823611111111,-11.910972222222217],[-76.68319444444444,-11.910138888888893],[-76.68486111111112,-11.909861111111118],[-76.68819444444443,-11.907916666666662],[-76.68902777777777,-11.907916666666663],[-76.68958333333333,-11.907361111111104],[-76.68958333333333,-11.906527777777775],[-76.69069444444443,-11.905694444444448],[-76.69097222222221,-11.904583333333326],[-76.6915277777778,-11.904305555555554],[-76.6915277777778,-11.903749999999993],[-76.69402777777778,-11.901805555555562],[-76.69458333333333,-11.900138888888886],[-76.69458333333333,-11.896527777777772],[-76.69624999999999,-11.895416666666664],[-76.69763888888889,-11.895416666666673],[-76.6998611111111,-11.893194444444434],[-76.70208333333333,-11.892638888888886],[-76.70291666666667,-11.891805555555557],[-76.70458333333333,-11.891527777777785],[-76.70458333333333,-11.890972222222222],[-76.70513888888888,-11.890972222222219],[-76.7048611111111,-11.88819444444444],[-76.70541666666666,-11.887638888888889],[-76.70541666666666,-11.885972222222216],[-76.70430555555555,-11.884583333333337],[-76.70347222222222,-11.880138888888895],[-76.70375,-11.875972222222213],[-76.70208333333333,-11.874583333333335],[-76.70124999999999,-11.874583333333332],[-76.69958333333332,-11.87319444444444],[-76.69847222222222,-11.872916666666661],[-76.6973611111111,-11.871527777777771],[-76.69680555555556,-11.871527777777782],[-76.69597222222221,-11.87069444444444],[-76.69569444444444,-11.869305555555554],[-76.69486111111111,-11.868472222222225],[-76.69458333333333,-11.867361111111121],[-76.69375,-11.867361111111101],[-76.69263888888888,-11.86624999999999],[-76.69069444444443,-11.865694444444447],[-76.68708333333333,-11.861527777777779],[-76.68458333333332,-11.860694444444437],[-76.68374999999999,-11.859861111111117],[-76.68263888888889,-11.85680555555556],[-76.68013888888888,-11.854305555555555],[-76.67958333333333,-11.850972222222218],[-76.68041666666666,-11.850138888888893],[-76.68041666666666,-11.84902777777778],[-76.68124999999999,-11.847916666666668],[-76.68069444444444,-11.846527777777785],[-76.68097222222221,-11.843750000000002],[-76.67930555555554,-11.842083333333326],[-76.67791666666666,-11.839305555555555],[-76.67791666666666,-11.838472222222219],[-76.67708333333333,-11.83763888888888],[-76.67652777777778,-11.834861111111115],[-76.67680555555555,-11.83041666666666],[-76.67652777777778,-11.830416666666663],[-76.67652777777778,-11.827916666666674],[-76.67541666666666,-11.82736111111111],[-76.6748611111111,-11.825694444444439],[-76.67291666666667,-11.824305555555547],[-76.67291666666667,-11.823750000000006],[-76.67097222222222,-11.821805555555546],[-76.67097222222222,-11.821249999999992],[-76.67013888888889,-11.820972222222228],[-76.66958333333332,-11.82013888888889]]]}}
