{"type":"Feature","properties":{"unit_id":"cashahuacra","deployment_status":"RESEARCH_ONLY","test_only":true,"production_use":false,"production_ready":false,"operational_alerting_enabled":false,"geometry_status":"DELINEATED_AFTER_ANA_TWO_POINT_PRECONFLUENCE_INDEX_SNAP","outlet_row":337,"outlet_col":205,"outlet_lon":-76.66305555555554,"outlet_lat":-11.913611111111111,"catchment_cells":16225,"elevation_min_m":971.99,"elevation_max_m":2602.4,"elevation_mean_m":1782.82,"elevation_median_m":1753.0,"relief_m":1630.41,"area_km2":15.088,"perimeter_km":23.315,"morphometry_scope":"BASIC_DEM_DERIVED_AFTER_PRECONFLUENCE_INDEX_AND_ACCUMULATION_CONSISTENCY_GATE"},"geometry":{"type":"Polygon","coordinates":[[[-76.68319444444444,-11.857916666666666],[-76.68291666666666,-11.857916666666666],[-76.68291666666666,-11.858194444444445],[-76.68263888888889,-11.858194444444445],[-76.68263888888889,-11.858472222222222],[-76.6823611111111,-11.858472222222222],[-76.6823611111111,-11.85875],[-76.68208333333332,-11.85875],[-76.68208333333332,-11.859027777777778],[-76.68152777777777,-11.859027777777778],[-76.68152777777777,-11.859305555555556],[-76.68124999999999,-11.859305555555556],[-76.68124999999999,-11.859583333333333],[-76.68097222222221,-11.859583333333333],[-76.68097222222221,-11.85986111111111],[-76.68069444444444,-11.85986111111111],[-76.68069444444444,-11.860416666666666],[-76.68041666666666,-11.860416666666666],[-76.68041666666666,-11.860694444444444],[-76.68013888888888,-11.860694444444444],[-76.68013888888888,-11.860972222222221],[-76.67986111111111,-11.860972222222221],[-76.67986111111111,-11.86125],[-76.67958333333333,-11.86125],[-76.67958333333333,-11.861527777777777],[-76.67930555555554,-11.861527777777777],[-76.67930555555554,-11.861805555555556],[-76.67902777777778,-11.861805555555556],[-76.67902777777778,-11.862083333333333],[-76.67875,-11.862083333333333],[-76.67875,-11.862361111111111],[-76.67847222222221,-11.862361111111111],[-76.67847222222221,-11.862638888888888],[-76.67819444444444,-11.862638888888888],[-76.67819444444444,-11.863194444444444],[-76.67847222222221,-11.863194444444444],[-76.67847222222221,-11.86375],[-76.67819444444444,-11.86375],[-76.67819444444444,-11.864305555555555],[-76.67791666666666,-11.864305555555555],[-76.67791666666666,-11.866805555555555],[-76.67763888888888,-11.866805555555555],[-76.67763888888888,-11.867083333333333],[-76.67736111111111,-11.867083333333333],[-76.67736111111111,-11.86736111111111],[-76.67708333333333,-11.86736111111111],[-76.67708333333333,-11.867638888888889],[-76.67680555555555,-11.867638888888889],[-76.67680555555555,-11.867916666666666],[-76.67652777777778,-11.867916666666666],[-76.67652777777778,-11.868194444444445],[-76.67625,-11.868194444444445],[-76.67625,-11.868472222222222],[-76.67569444444443,-11.868472222222222],[-76.67569444444443,-11.86875],[-76.67541666666666,-11.86875],[-76.67541666666666,-11.869305555555556],[-76.67513888888888,-11.869305555555556],[-76.67513888888888,-11.869861111111112],[-76.6748611111111,-11.869861111111112],[-76.6748611111111,-11.870138888888889],[-76.67458333333333,-11.870138888888889],[-76.67458333333333,-11.87125],[-76.67430555555555,-11.87125],[-76.67430555555555,-11.871527777777777],[-76.67402777777777,-11.871527777777777],[-76.67402777777777,-11.871805555555556],[-76.67375,-11.871805555555556],[-76.67375,-11.872083333333332],[-76.67347222222222,-11.872083333333332],[-76.67347222222222,-11.872638888888888],[-76.67319444444443,-11.872638888888888],[-76.67319444444443,-11.872916666666667],[-76.67291666666667,-11.872916666666667],[-76.67291666666667,-11.873194444444444],[-76.67263888888888,-11.873194444444444],[-76.67263888888888,-11.874305555555555],[-76.67291666666667,-11.874305555555555],[-76.67291666666667,-11.874583333333334],[-76.67263888888888,-11.874583333333334],[-76.67263888888888,-11.875416666666666],[-76.6723611111111,-11.875416666666666],[-76.6723611111111,-11.875694444444445],[-76.67208333333333,-11.875694444444445],[-76.67208333333333,-11.87625],[-76.67180555555555,-11.87625],[-76.67180555555555,-11.876805555555555],[-76.67152777777777,-11.876805555555555],[-76.67152777777777,-11.87736111111111],[-76.67125,-11.87736111111111],[-76.67125,-11.877638888888889],[-76.67097222222222,-11.877638888888889],[-76.67097222222222,-11.877916666666666],[-76.67069444444444,-11.877916666666666],[-76.67069444444444,-11.878194444444444],[-76.67041666666665,-11.878194444444444],[-76.67041666666665,-11.878472222222221],[-76.67013888888889,-11.878472222222221],[-76.67013888888889,-11.87875],[-76.6698611111111,-11.87875],[-76.6698611111111,-11.879583333333333],[-76.66958333333332,-11.879583333333333],[-76.66958333333332,-11.880416666666667],[-76.66930555555555,-11.880416666666667],[-76.66930555555555,-11.880972222222223],[-76.66902777777777,-11.880972222222223],[-76.66902777777777,-11.881805555555555],[-76.66930555555555,-11.881805555555555],[-76.66930555555555,-11.882638888888888],[-76.66958333333332,-11.882638888888888],[-76.66958333333332,-11.883472222222222],[-76.6698611111111,-11.883472222222222],[-76.6698611111111,-11.884305555555555],[-76.67013888888889,-11.884305555555555],[-76.67013888888889,-11.885972222222222],[-76.67041666666665,-11.885972222222222],[-76.67041666666665,-11.889861111111111],[-76.67013888888889,-11.889861111111111],[-76.67013888888889,-11.890694444444444],[-76.67041666666665,-11.890694444444444],[-76.67041666666665,-11.89125],[-76.67069444444444,-11.89125],[-76.67069444444444,-11.892083333333334],[-76.67097222222222,-11.892083333333334],[-76.67097222222222,-11.893472222222222],[-76.67125,-11.893472222222222],[-76.67125,-11.894305555555555],[-76.67152777777777,-11.894305555555555],[-76.67152777777777,-11.89486111111111],[-76.67180555555555,-11.89486111111111],[-76.67180555555555,-11.895138888888889],[-76.67208333333333,-11.895138888888889],[-76.67208333333333,-11.895694444444445],[-76.6723611111111,-11.895694444444445],[-76.6723611111111,-11.896805555555556],[-76.67263888888888,-11.896805555555556],[-76.67263888888888,-11.898472222222223],[-76.6723611111111,-11.898472222222223],[-76.6723611111111,-11.899027777777778],[-76.67208333333333,-11.899027777777778],[-76.67208333333333,-11.901805555555555],[-76.67180555555555,-11.901805555555555],[-76.67180555555555,-11.903194444444445],[-76.67152777777777,-11.903194444444445],[-76.67152777777777,-11.905416666666666],[-76.67180555555555,-11.905416666666666],[-76.67180555555555,-11.905694444444444],[-76.67208333333333,-11.905694444444444],[-76.67208333333333,-11.906805555555556],[-76.67180555555555,-11.906805555555556],[-76.67180555555555,-11.907361111111111],[-76.67097222222222,-11.907361111111111],[-76.67097222222222,-11.907638888888888],[-76.67069444444444,-11.907638888888888],[-76.67069444444444,-11.907916666666667],[-76.6698611111111,-11.907916666666667],[-76.6698611111111,-11.908194444444444],[-76.66874999999999,-11.908194444444444],[-76.66874999999999,-11.908472222222223],[-76.66819444444444,-11.908472222222223],[-76.66819444444444,-11.90875],[-76.66791666666666,-11.90875],[-76.66791666666666,-11.909027777777778],[-76.66763888888889,-11.909027777777778],[-76.66763888888889,-11.909305555555555],[-76.6673611111111,-11.909305555555555],[-76.6673611111111,-11.909583333333334],[-76.66708333333332,-11.909583333333334],[-76.66708333333332,-11.90986111111111],[-76.66652777777777,-11.90986111111111],[-76.66652777777777,-11.91013888888889],[-76.66624999999999,-11.91013888888889],[-76.66624999999999,-11.910416666666666],[-76.66597222222222,-11.910416666666666],[-76.66597222222222,-11.910694444444445],[-76.66569444444444,-11.910694444444445],[-76.66569444444444,-11.910972222222222],[-76.66458333333333,-11.910972222222222],[-76.66458333333333,-11.911249999999999],[-76.66430555555554,-11.911249999999999],[-76.66430555555554,-11.911527777777778],[-76.66402777777778,-11.911527777777778],[-76.66402777777778,-11.911805555555555],[-76.66375,-11.911805555555555],[-76.66375,-11.912083333333333],[-76.66347222222221,-11.912083333333333],[-76.66347222222221,-11.91236111111111],[-76.66319444444444,-11.91236111111111],[-76.66319444444444,-11.913194444444445],[-76.66291666666666,-11.913194444444445],[-76.66291666666666,-11.91375],[-76.66402777777778,-11.91375],[-76.66402777777778,-11.913472222222222],[-76.66430555555554,-11.913472222222222],[-76.66430555555554,-11.913194444444445],[-76.66458333333333,-11.913194444444445],[-76.66458333333333,-11.912916666666666],[-76.66486111111111,-11.912916666666666],[-76.66486111111111,-11.912638888888889],[-76.66513888888888,-11.912638888888889],[-76.66513888888888,-11.912916666666666],[-76.66541666666666,-11.912916666666666],[-76.66541666666666,-11.912638888888889],[-76.66569444444444,-11.912638888888889],[-76.66569444444444,-11.91236111111111],[-76.66597222222222,-11.91236111111111],[-76.66597222222222,-11.912083333333333],[-76.66652777777777,-11.912083333333333],[-76.66652777777777,-11.911805555555555],[-76.66708333333332,-11.911805555555555],[-76.66708333333332,-11.911527777777778],[-76.6673611111111,-11.911527777777778],[-76.6673611111111,-11.911249999999999],[-76.67097222222222,-11.911249999999999],[-76.67097222222222,-11.910972222222222],[-76.67263888888888,-11.910972222222222],[-76.67263888888888,-11.911249999999999],[-76.67375,-11.911249999999999],[-76.67375,-11.910972222222222],[-76.67430555555555,-11.910972222222222],[-76.67430555555555,-11.910694444444445],[-76.67513888888888,-11.910694444444445],[-76.67513888888888,-11.910416666666666],[-76.67569444444443,-11.910416666666666],[-76.67569444444443,-11.91013888888889],[-76.67597222222221,-11.91013888888889],[-76.67597222222221,-11.910416666666666],[-76.67680555555555,-11.910416666666666],[-76.67680555555555,-11.910694444444445],[-76.67763888888888,-11.910694444444445],[-76.67763888888888,-11.910972222222222],[-76.67847222222221,-11.910972222222222],[-76.67847222222221,-11.911249999999999],[-76.67875,-11.911249999999999],[-76.67875,-11.910972222222222],[-76.68097222222221,-11.910972222222222],[-76.68097222222221,-11.911249999999999],[-76.68208333333332,-11.911249999999999],[-76.68208333333332,-11.911527777777778],[-76.6823611111111,-11.911527777777778],[-76.6823611111111,-11.910972222222222],[-76.68263888888889,-11.910972222222222],[-76.68263888888889,-11.910694444444445],[-76.68291666666666,-11.910694444444445],[-76.68291666666666,-11.910416666666666],[-76.68319444444444,-11.910416666666666],[-76.68319444444444,-11.91013888888889],[-76.68402777777777,-11.91013888888889],[-76.68402777777777,-11.90986111111111],[-76.6848611111111,-11.90986111111111],[-76.6848611111111,-11.909583333333334],[-76.68541666666665,-11.909583333333334],[-76.68541666666665,-11.909305555555555],[-76.68624999999999,-11.909305555555555],[-76.68624999999999,-11.909027777777778],[-76.68652777777777,-11.909027777777778],[-76.68652777777777,-11.90875],[-76.68708333333333,-11.90875],[-76.68708333333333,-11.908472222222223],[-76.68763888888888,-11.908472222222223],[-76.68763888888888,-11.908194444444444],[-76.68819444444443,-11.908194444444444],[-76.68819444444443,-11.907916666666667],[-76.68902777777777,-11.907916666666667],[-76.68902777777777,-11.907638888888888],[-76.68930555555555,-11.907638888888888],[-76.68930555555555,-11.907361111111111],[-76.68958333333333,-11.907361111111111],[-76.68958333333333,-11.906527777777777],[-76.6898611111111,-11.906527777777777],[-76.6898611111111,-11.90625],[-76.69013888888888,-11.90625],[-76.69013888888888,-11.905972222222221],[-76.69041666666666,-11.905972222222221],[-76.69041666666666,-11.905694444444444],[-76.69069444444443,-11.905694444444444],[-76.69069444444443,-11.905138888888889],[-76.69097222222221,-11.905138888888889],[-76.69097222222221,-11.904583333333333],[-76.69125,-11.904583333333333],[-76.69125,-11.904305555555556],[-76.69152777777778,-11.904305555555556],[-76.69152777777778,-11.90375],[-76.69180555555555,-11.90375],[-76.69180555555555,-11.903472222222222],[-76.69208333333333,-11.903472222222222],[-76.69208333333333,-11.903194444444445],[-76.69236111111111,-11.903194444444445],[-76.69236111111111,-11.902916666666666],[-76.69291666666666,-11.902916666666666],[-76.69291666666666,-11.90263888888889],[-76.69319444444444,-11.90263888888889],[-76.69319444444444,-11.90236111111111],[-76.69347222222221,-11.90236111111111],[-76.69347222222221,-11.902083333333334],[-76.69375,-11.902083333333334],[-76.69375,-11.901805555555555],[-76.69402777777778,-11.901805555555555],[-76.69402777777778,-11.900972222222222],[-76.69430555555554,-11.900972222222222],[-76.69430555555554,-11.900138888888888],[-76.69458333333333,-11.900138888888888],[-76.69458333333333,-11.896527777777777],[-76.69486111111111,-11.896527777777777],[-76.69486111111111,-11.89625],[-76.69541666666666,-11.89625],[-76.69541666666666,-11.895972222222222],[-76.69569444444444,-11.895972222222222],[-76.69569444444444,-11.895694444444445],[-76.69624999999999,-11.895694444444445],[-76.69624999999999,-11.895416666666666],[-76.69763888888889,-11.895416666666666],[-76.69763888888889,-11.895138888888889],[-76.69791666666666,-11.895138888888889],[-76.69791666666666,-11.89486111111111],[-76.69819444444444,-11.89486111111111],[-76.69819444444444,-11.894583333333333],[-76.69874999999999,-11.894583333333333],[-76.69874999999999,-11.894305555555555],[-76.69902777777777,-11.894305555555555],[-76.69902777777777,-11.894027777777778],[-76.69930555555555,-11.894027777777778],[-76.69930555555555,-11.89375],[-76.69958333333332,-11.89375],[-76.69958333333332,-11.893472222222222],[-76.6998611111111,-11.893472222222222],[-76.6998611111111,-11.893194444444445],[-76.70041666666665,-11.893194444444445],[-76.70041666666665,-11.892916666666666],[-76.70124999999999,-11.892916666666666],[-76.70124999999999,-11.89263888888889],[-76.70208333333333,-11.89263888888889],[-76.70208333333333,-11.89236111111111],[-76.70263888888888,-11.89236111111111],[-76.70263888888888,-11.892083333333334],[-76.70291666666667,-11.892083333333334],[-76.70291666666667,-11.891805555555555],[-76.70402777777777,-11.891805555555555],[-76.70402777777777,-11.891527777777778],[-76.70458333333333,-11.891527777777778],[-76.70458333333333,-11.890972222222222],[-76.70513888888888,-11.890972222222222],[-76.70513888888888,-11.890416666666667],[-76.7048611111111,-11.890416666666667],[-76.7048611111111,-11.888194444444444],[-76.70513888888888,-11.888194444444444],[-76.70513888888888,-11.887638888888889],[-76.70541666666666,-11.887638888888889],[-76.70541666666666,-11.885972222222222],[-76.70513888888888,-11.885972222222222],[-76.70513888888888,-11.885694444444445],[-76.7048611111111,-11.885694444444445],[-76.7048611111111,-11.88513888888889],[-76.70458333333333,-11.88513888888889],[-76.70458333333333,-11.884583333333333],[-76.70430555555555,-11.884583333333333],[-76.70430555555555,-11.88375],[-76.70402777777777,-11.88375],[-76.70402777777777,-11.881805555555555],[-76.70375,-11.881805555555555],[-76.70375,-11.880138888888888],[-76.70347222222222,-11.880138888888888],[-76.70347222222222,-11.87625],[-76.70375,-11.87625],[-76.70375,-11.875972222222222],[-76.70347222222222,-11.875972222222222],[-76.70347222222222,-11.875694444444445],[-76.70319444444443,-11.875694444444445],[-76.70319444444443,-11.875416666666666],[-76.70291666666667,-11.875416666666666],[-76.70291666666667,-11.87513888888889],[-76.7023611111111,-11.87513888888889],[-76.7023611111111,-11.87486111111111],[-76.70208333333333,-11.87486111111111],[-76.70208333333333,-11.874583333333334],[-76.70124999999999,-11.874583333333334],[-76.70124999999999,-11.874305555555555],[-76.70069444444444,-11.874305555555555],[-76.70069444444444,-11.874027777777778],[-76.70041666666665,-11.874027777777778],[-76.70041666666665,-11.87375],[-76.6998611111111,-11.87375],[-76.6998611111111,-11.873472222222222],[-76.69958333333332,-11.873472222222222],[-76.69958333333332,-11.873194444444444],[-76.69902777777777,-11.873194444444444],[-76.69902777777777,-11.872916666666667],[-76.69847222222222,-11.872916666666667],[-76.69847222222222,-11.872638888888888],[-76.69819444444444,-11.872638888888888],[-76.69819444444444,-11.872361111111111],[-76.69791666666666,-11.872361111111111],[-76.69791666666666,-11.872083333333332],[-76.69763888888889,-11.872083333333332],[-76.69763888888889,-11.871805555555556],[-76.6973611111111,-11.871805555555556],[-76.6973611111111,-11.871527777777777],[-76.69680555555556,-11.871527777777777],[-76.69680555555556,-11.87125],[-76.69652777777777,-11.87125],[-76.69652777777777,-11.870972222222223],[-76.69624999999999,-11.870972222222223],[-76.69624999999999,-11.870694444444444],[-76.69597222222221,-11.870694444444444],[-76.69597222222221,-11.870138888888889],[-76.69569444444444,-11.870138888888889],[-76.69569444444444,-11.869305555555556],[-76.69541666666666,-11.869305555555556],[-76.69541666666666,-11.86875],[-76.69513888888888,-11.86875],[-76.69513888888888,-11.868472222222222],[-76.69486111111111,-11.868472222222222],[-76.69486111111111,-11.867916666666666],[-76.69458333333333,-11.867916666666666],[-76.69458333333333,-11.86736111111111],[-76.69375,-11.86736111111111],[-76.69375,-11.867083333333333],[-76.69347222222221,-11.867083333333333],[-76.69347222222221,-11.866805555555555],[-76.69291666666666,-11.866805555555555],[-76.69291666666666,-11.866527777777778],[-76.69263888888888,-11.866527777777778],[-76.69263888888888,-11.866249999999999],[-76.69208333333333,-11.866249999999999],[-76.69208333333333,-11.865972222222222],[-76.69125,-11.865972222222222],[-76.69125,-11.865694444444443],[-76.69069444444443,-11.865694444444443],[-76.69069444444443,-11.865416666666667],[-76.69041666666666,-11.865416666666667],[-76.69041666666666,-11.86513888888889],[-76.69013888888888,-11.86513888888889],[-76.69013888888888,-11.86486111111111],[-76.6898611111111,-11.86486111111111],[-76.6898611111111,-11.864583333333334],[-76.68958333333333,-11.864583333333334],[-76.68958333333333,-11.864305555555555],[-76.68930555555555,-11.864305555555555],[-76.68930555555555,-11.864027777777778],[-76.68902777777777,-11.864027777777778],[-76.68902777777777,-11.86375],[-76.68875,-11.86375],[-76.68875,-11.863472222222223],[-76.68847222222222,-11.863472222222223],[-76.68847222222222,-11.863194444444444],[-76.68819444444443,-11.863194444444444],[-76.68819444444443,-11.862638888888888],[-76.68791666666667,-11.862638888888888],[-76.68791666666667,-11.862361111111111],[-76.68763888888888,-11.862361111111111],[-76.68763888888888,-11.862083333333333],[-76.6873611111111,-11.862083333333333],[-76.6873611111111,-11.861805555555556],[-76.68708333333333,-11.861805555555556],[-76.68708333333333,-11.861527777777777],[-76.68624999999999,-11.861527777777777],[-76.68624999999999,-11.86125],[-76.68569444444444,-11.86125],[-76.68569444444444,-11.860972222222221],[-76.68541666666665,-11.860972222222221],[-76.68541666666665,-11.860694444444444],[-76.68458333333332,-11.860694444444444],[-76.68458333333332,-11.860416666666666],[-76.68430555555555,-11.860416666666666],[-76.68430555555555,-11.860138888888889],[-76.68402777777777,-11.860138888888889],[-76.68402777777777,-11.85986111111111],[-76.68374999999999,-11.85986111111111],[-76.68374999999999,-11.859305555555556],[-76.68347222222222,-11.859305555555556],[-76.68347222222222,-11.858472222222222],[-76.68319444444444,-11.858472222222222],[-76.68319444444444,-11.857916666666666]]]}}
