{
  "type": "FeatureCollection",
  "properties": {
    "version": "0.8-experimental",
    "production_use": false,
    "warning": "Ningún polígono de este archivo es una microcuenca validada. Solo sirve para comparar candidatos y localizar la necesidad de un control oficial de outlet/área."
  },
  "features": [
    {
      "type": "Feature",
      "properties": {
        "id": "quirio_0.5_3",
        "hazard_subsystem": "chosica_local_debris_flows",
        "quebrada_search_name": "quirio",
        "candidate_status": "REVIEW_ONLY",
        "production_ready": false,
        "production_use": false,
        "seed_authority": "OSM_search_seed_only",
        "seed_lon": -76.7146871,
        "seed_lat": -11.938015,
        "snapped_lon": -76.7178815,
        "snapped_lat": -11.941765,
        "seed_to_snap_km": 0.543,
        "accumulation_area_approx_km2": 0.898,
        "delineated_area_km2": 0.003,
        "area_band_km2": [
          0.5,
          3
        ],
        "official_outlet_validated": false,
        "official_area_validated": false
      },
      "geometry": {
        "type": "Polygon",
        "coordinates": [
          [
            [
              -76.7185759888889,
              -11.94190388888889
            ],
            [
              -76.71774265555557,
              -11.94190388888889
            ],
            [
              -76.71774265555557,
              -11.942181666666666
            ],
            [
              -76.7185759888889,
              -11.942181666666666
            ],
            [
              -76.7185759888889,
              -11.94190388888889
            ]
          ]
        ]
      }
    },
    {
      "type": "Feature",
      "properties": {
        "id": "quirio_3_8",
        "hazard_subsystem": "chosica_local_debris_flows",
        "quebrada_search_name": "quirio",
        "candidate_status": "REVIEW_ONLY",
        "production_ready": false,
        "production_use": false,
        "seed_authority": "OSM_search_seed_only",
        "seed_lon": -76.7146871,
        "seed_lat": -11.938015,
        "snapped_lon": -76.7181593,
        "snapped_lat": -11.9306539,
        "seed_to_snap_km": 0.901,
        "accumulation_area_approx_km2": 7.844,
        "delineated_area_km2": 0.001,
        "area_band_km2": [
          3,
          8
        ],
        "official_outlet_validated": false,
        "official_area_validated": false
      },
      "geometry": {
        "type": "Polygon",
        "coordinates": [
          [
            [
              -76.71802043333335,
              -11.930792777777778
            ],
            [
              -76.71774265555557,
              -11.930792777777778
            ],
            [
              -76.71774265555557,
              -11.931070555555555
            ],
            [
              -76.71802043333335,
              -11.931070555555555
            ],
            [
              -76.71802043333335,
              -11.930792777777778
            ]
          ]
        ]
      }
    },
    {
      "type": "Feature",
      "properties": {
        "id": "quirio_8_20",
        "hazard_subsystem": "chosica_local_debris_flows",
        "quebrada_search_name": "quirio",
        "candidate_status": "REVIEW_ONLY",
        "production_ready": false,
        "production_use": false,
        "seed_authority": "OSM_search_seed_only",
        "seed_lon": -76.7146871,
        "seed_lat": -11.938015,
        "snapped_lon": -76.714826,
        "snapped_lat": -11.9381539,
        "seed_to_snap_km": 0.022,
        "accumulation_area_approx_km2": 9.127,
        "delineated_area_km2": 0.075,
        "area_band_km2": [
          8,
          20
        ],
        "official_outlet_validated": false,
        "official_area_validated": false
      },
      "geometry": {
        "type": "MultiPolygon",
        "coordinates": [
          [
            [
              [
                -76.71440932222224,
                -11.937181666666667
              ],
              [
                -76.71440932222224,
                -11.938292777777779
              ],
              [
                -76.7146871,
                -11.938292777777779
              ],
              [
                -76.7146871,
                -11.936626111111112
              ],
              [
                -76.71440932222224,
                -11.936626111111112
              ],
              [
                -76.71440932222224,
                -11.936348333333333
              ],
              [
                -76.71413154444446,
                -11.936348333333333
              ],
              [
                -76.71413154444446,
                -11.937181666666667
              ],
              [
                -76.71440932222224,
                -11.937181666666667
              ]
            ]
          ],
          [
            [
              [
                -76.71413154444446,
                -11.936348333333333
              ],
              [
                -76.71413154444446,
                -11.936070555555556
              ],
              [
                -76.71385376666667,
                -11.936070555555556
              ],
              [
                -76.71385376666667,
                -11.936348333333333
              ],
              [
                -76.71413154444446,
                -11.936348333333333
              ]
            ]
          ],
          [
            [
              [
                -76.71385376666667,
                -11.936070555555556
              ],
              [
                -76.71385376666667,
                -11.935515
              ],
              [
                -76.7135759888889,
                -11.935515
              ],
              [
                -76.7135759888889,
                -11.936070555555556
              ],
              [
                -76.71385376666667,
                -11.936070555555556
              ]
            ]
          ],
          [
            [
              [
                -76.7135759888889,
                -11.935515
              ],
              [
                -76.7135759888889,
                -11.935237222222222
              ],
              [
                -76.71329821111112,
                -11.935237222222222
              ],
              [
                -76.71329821111112,
                -11.935515
              ],
              [
                -76.7135759888889,
                -11.935515
              ]
            ]
          ],
          [
            [
              [
                -76.71329821111112,
                -11.935237222222222
              ],
              [
                -76.71329821111112,
                -11.933848333333334
              ],
              [
                -76.71302043333334,
                -11.933848333333334
              ],
              [
                -76.71302043333334,
                -11.933570555555557
              ],
              [
                -76.71274265555557,
                -11.933570555555557
              ],
              [
                -76.71274265555557,
                -11.933292777777778
              ],
              [
                -76.71246487777779,
                -11.933292777777778
              ],
              [
                -76.71246487777779,
                -11.932737222222222
              ],
              [
                -76.71218710000001,
                -11.932737222222222
              ],
              [
                -76.71218710000001,
                -11.932181666666667
              ],
              [
                -76.71190932222224,
                -11.932181666666667
              ],
              [
                -76.71190932222224,
                -11.93190388888889
              ],
              [
                -76.71163154444446,
                -11.93190388888889
              ],
              [
                -76.71163154444446,
                -11.931626111111111
              ],
              [
                -76.71135376666668,
                -11.931626111111111
              ],
              [
                -76.71135376666668,
                -11.931348333333334
              ],
              [
                -76.71107598888891,
                -11.931348333333334
              ],
              [
                -76.71107598888891,
                -11.931070555555555
              ],
              [
                -76.71079821111113,
                -11.931070555555555
              ],
              [
                -76.71079821111113,
                -11.930792777777778
              ],
              [
                -76.71052043333334,
                -11.930792777777778
              ],
              [
                -76.71052043333334,
                -11.930515
              ],
              [
                -76.71024265555558,
                -11.930515
              ],
              [
                -76.71024265555558,
                -11.931348333333334
              ],
              [
                -76.7099648777778,
                -11.931348333333334
              ],
              [
                -76.7099648777778,
                -11.931626111111111
              ],
              [
                -76.71024265555558,
                -11.931626111111111
              ],
              [
                -76.71024265555558,
                -11.93190388888889
              ],
              [
                -76.71052043333334,
                -11.93190388888889
              ],
              [
                -76.71052043333334,
                -11.932459444444445
              ],
              [
                -76.71079821111113,
                -11.932459444444445
              ],
              [
                -76.71079821111113,
                -11.933015000000001
              ],
              [
                -76.71107598888891,
                -11.933015000000001
              ],
              [
                -76.71107598888891,
                -11.933292777777778
              ],
              [
                -76.71135376666668,
                -11.933292777777778
              ],
              [
                -76.71135376666668,
                -11.933570555555557
              ],
              [
                -76.71163154444446,
                -11.933570555555557
              ],
              [
                -76.71163154444446,
                -11.933848333333334
              ],
              [
                -76.71190932222224,
                -11.933848333333334
              ],
              [
                -76.71190932222224,
                -11.934126111111112
              ],
              [
                -76.71218710000001,
                -11.934126111111112
              ],
              [
                -76.71218710000001,
                -11.93440388888889
              ],
              [
                -76.71246487777779,
                -11.93440388888889
              ],
              [
                -76.71246487777779,
                -11.934681666666666
              ],
              [
                -76.71274265555557,
                -11.934681666666666
              ],
              [
                -76.71274265555557,
                -11.934959444444445
              ],
              [
                -76.71302043333334,
                -11.934959444444445
              ],
              [
                -76.71302043333334,
                -11.935237222222222
              ],
              [
                -76.71329821111112,
                -11.935237222222222
              ]
            ]
          ]
        ]
      }
    },
    {
      "type": "Feature",
      "properties": {
        "id": "pedregal_0.5_3",
        "hazard_subsystem": "chosica_local_debris_flows",
        "quebrada_search_name": "pedregal",
        "candidate_status": "REVIEW_ONLY",
        "production_ready": false,
        "production_use": false,
        "seed_authority": "OSM_search_seed_only",
        "seed_lon": -76.702304,
        "seed_lat": -11.9420622,
        "snapped_lon": -76.7034371,
        "snapped_lat": -11.9450983,
        "seed_to_snap_km": 0.359,
        "accumulation_area_approx_km2": 0.891,
        "delineated_area_km2": 0.006,
        "area_band_km2": [
          0.5,
          3
        ],
        "official_outlet_validated": false,
        "official_area_validated": false
      },
      "geometry": {
        "type": "MultiPolygon",
        "coordinates": [
          [
            [
              [
                -76.7035759888889,
                -11.945515
              ],
              [
                -76.7035759888889,
                -11.945237222222223
              ],
              [
                -76.70329821111112,
                -11.945237222222223
              ],
              [
                -76.70329821111112,
                -11.945515
              ],
              [
                -76.7035759888889,
                -11.945515
              ]
            ]
          ],
          [
            [
              [
                -76.70329821111112,
                -11.945515
              ],
              [
                -76.70302043333335,
                -11.945515
              ],
              [
                -76.70302043333335,
                -11.945792777777777
              ],
              [
                -76.70274265555557,
                -11.945792777777777
              ],
              [
                -76.70274265555557,
                -11.946348333333333
              ],
              [
                -76.70329821111112,
                -11.946348333333333
              ],
              [
                -76.70329821111112,
                -11.945515
              ]
            ]
          ]
        ]
      }
    },
    {
      "type": "Feature",
      "properties": {
        "id": "pedregal_3_8",
        "hazard_subsystem": "chosica_local_debris_flows",
        "quebrada_search_name": "pedregal",
        "candidate_status": "REVIEW_ONLY",
        "production_ready": false,
        "production_use": false,
        "seed_authority": "OSM_search_seed_only",
        "seed_lon": -76.702304,
        "seed_lat": -11.9420622,
        "snapped_lon": -76.7017704,
        "snapped_lat": -11.944265,
        "seed_to_snap_km": 0.252,
        "accumulation_area_approx_km2": 3.704,
        "delineated_area_km2": 3.827,
        "area_band_km2": [
          3,
          8
        ],
        "official_outlet_validated": false,
        "official_area_validated": false
      },
      "geometry": {
        "type": "Polygon",
        "coordinates": [
          [
            [
              -76.69885376666667,
              -11.942737222222222
            ],
            [
              -76.69774265555557,
              -11.942737222222222
            ],
            [
              -76.69774265555557,
              -11.943015
            ],
            [
              -76.69746487777779,
              -11.943015
            ],
            [
              -76.69746487777779,
              -11.943292777777778
            ],
            [
              -76.69718710000001,
              -11.943292777777778
            ],
            [
              -76.69718710000001,
              -11.943570555555556
            ],
            [
              -76.69690932222224,
              -11.943570555555556
            ],
            [
              -76.69690932222224,
              -11.944403888888889
            ],
            [
              -76.69663154444446,
              -11.944403888888889
            ],
            [
              -76.69663154444446,
              -11.944681666666668
            ],
            [
              -76.69635376666668,
              -11.944681666666668
            ],
            [
              -76.69635376666668,
              -11.944959444444445
            ],
            [
              -76.69607598888891,
              -11.944959444444445
            ],
            [
              -76.69607598888891,
              -11.945237222222223
            ],
            [
              -76.69579821111112,
              -11.945237222222223
            ],
            [
              -76.69579821111112,
              -11.945515
            ],
            [
              -76.69496487777779,
              -11.945515
            ],
            [
              -76.69496487777779,
              -11.945792777777777
            ],
            [
              -76.69413154444446,
              -11.945792777777777
            ],
            [
              -76.69413154444446,
              -11.945515
            ],
            [
              -76.69079821111113,
              -11.945515
            ],
            [
              -76.69079821111113,
              -11.945792777777777
            ],
            [
              -76.68968710000001,
              -11.945792777777777
            ],
            [
              -76.68968710000001,
              -11.945515
            ],
            [
              -76.68885376666668,
              -11.945515
            ],
            [
              -76.68885376666668,
              -11.945237222222223
            ],
            [
              -76.68774265555557,
              -11.945237222222223
            ],
            [
              -76.68774265555557,
              -11.945515
            ],
            [
              -76.68496487777779,
              -11.945515
            ],
            [
              -76.68496487777779,
              -11.945792777777777
            ],
            [
              -76.68468710000002,
              -11.945792777777777
            ],
            [
              -76.68468710000002,
              -11.946070555555556
            ],
            [
              -76.68413154444445,
              -11.946070555555556
            ],
            [
              -76.68413154444445,
              -11.946348333333333
            ],
            [
              -76.68218710000001,
              -11.946348333333333
            ],
            [
              -76.68218710000001,
              -11.946070555555556
            ],
            [
              -76.68163154444446,
              -11.946070555555556
            ],
            [
              -76.68163154444446,
              -11.946348333333333
            ],
            [
              -76.68024265555557,
              -11.946348333333333
            ],
            [
              -76.68024265555557,
              -11.946626111111112
            ],
            [
              -76.67968710000001,
              -11.946626111111112
            ],
            [
              -76.67968710000001,
              -11.946348333333333
            ],
            [
              -76.67940932222224,
              -11.946348333333333
            ],
            [
              -76.67940932222224,
              -11.946070555555556
            ],
            [
              -76.67885376666668,
              -11.946070555555556
            ],
            [
              -76.67885376666668,
              -11.945792777777777
            ],
            [
              -76.67802043333334,
              -11.945792777777777
            ],
            [
              -76.67802043333334,
              -11.946070555555556
            ],
            [
              -76.67774265555556,
              -11.946070555555556
            ],
            [
              -76.67774265555556,
              -11.946626111111112
            ],
            [
              -76.6774648777778,
              -11.946626111111112
            ],
            [
              -76.6774648777778,
              -11.946903888888889
            ],
            [
              -76.67552043333335,
              -11.946903888888889
            ],
            [
              -76.67552043333335,
              -11.947181666666667
            ],
            [
              -76.67385376666668,
              -11.947181666666667
            ],
            [
              -76.67385376666668,
              -11.947459444444444
            ],
            [
              -76.67302043333335,
              -11.947459444444444
            ],
            [
              -76.67302043333335,
              -11.947737222222223
            ],
            [
              -76.67274265555557,
              -11.947737222222223
            ],
            [
              -76.67274265555557,
              -11.948292777777779
            ],
            [
              -76.67246487777778,
              -11.948292777777779
            ],
            [
              -76.67246487777778,
              -11.94940388888889
            ],
            [
              -76.67218710000002,
              -11.94940388888889
            ],
            [
              -76.67218710000002,
              -11.949681666666667
            ],
            [
              -76.67190932222223,
              -11.949681666666667
            ],
            [
              -76.67190932222223,
              -11.950515000000001
            ],
            [
              -76.67163154444445,
              -11.950515000000001
            ],
            [
              -76.67163154444445,
              -11.951070555555557
            ],
            [
              -76.67190932222223,
              -11.951070555555557
            ],
            [
              -76.67190932222223,
              -11.95162611111111
            ],
            [
              -76.67163154444445,
              -11.95162611111111
            ],
            [
              -76.67163154444445,
              -11.953015
            ],
            [
              -76.67135376666668,
              -11.953015
            ],
            [
              -76.67135376666668,
              -11.954126111111112
            ],
            [
              -76.67079821111112,
              -11.954126111111112
            ],
            [
              -76.67079821111112,
              -11.954403888888889
            ],
            [
              -76.67024265555557,
              -11.954403888888889
            ],
            [
              -76.67024265555557,
              -11.954681666666668
            ],
            [
              -76.66996487777779,
              -11.954681666666668
            ],
            [
              -76.66996487777779,
              -11.954959444444444
            ],
            [
              -76.66940932222224,
              -11.954959444444444
            ],
            [
              -76.66940932222224,
              -11.955237222222223
            ],
            [
              -76.6685759888889,
              -11.955237222222223
            ],
            [
              -76.6685759888889,
              -11.956070555555556
            ],
            [
              -76.66802043333334,
              -11.956070555555556
            ],
            [
              -76.66802043333334,
              -11.956348333333334
            ],
            [
              -76.66774265555557,
              -11.956348333333334
            ],
            [
              -76.66774265555557,
              -11.956626111111111
            ],
            [
              -76.6671871,
              -11.956626111111111
            ],
            [
              -76.6671871,
              -11.957181666666667
            ],
            [
              -76.66690932222224,
              -11.957181666666667
            ],
            [
              -76.66690932222224,
              -11.958292777777778
            ],
            [
              -76.66663154444446,
              -11.958292777777778
            ],
            [
              -76.66663154444446,
              -11.958848333333334
            ],
            [
              -76.66690932222224,
              -11.958848333333334
            ],
            [
              -76.66690932222224,
              -11.959126111111111
            ],
            [
              -76.66774265555557,
              -11.959126111111111
            ],
            [
              -76.66774265555557,
              -11.95940388888889
            ],
            [
              -76.66885376666669,
              -11.95940388888889
            ],
            [
              -76.66885376666669,
              -11.959681666666667
            ],
            [
              -76.66996487777779,
              -11.959681666666667
            ],
            [
              -76.66996487777779,
              -11.959959444444445
            ],
            [
              -76.67274265555557,
              -11.959959444444445
            ],
            [
              -76.67274265555557,
              -11.959681666666667
            ],
            [
              -76.67385376666668,
              -11.959681666666667
            ],
            [
              -76.67385376666668,
              -11.95940388888889
            ],
            [
              -76.67413154444446,
              -11.95940388888889
            ],
            [
              -76.67413154444446,
              -11.959126111111111
            ],
            [
              -76.6749648777778,
              -11.959126111111111
            ],
            [
              -76.6749648777778,
              -11.958848333333334
            ],
            [
              -76.67552043333335,
              -11.958848333333334
            ],
            [
              -76.67552043333335,
              -11.958570555555555
            ],
            [
              -76.67579821111113,
              -11.958570555555555
            ],
            [
              -76.67579821111113,
              -11.958848333333334
            ],
            [
              -76.67663154444446,
              -11.958848333333334
            ],
            [
              -76.67663154444446,
              -11.959126111111111
            ],
            [
              -76.68079821111112,
              -11.959126111111111
            ],
            [
              -76.68079821111112,
              -11.958848333333334
            ],
            [
              -76.68163154444446,
              -11.958848333333334
            ],
            [
              -76.68163154444446,
              -11.959126111111111
            ],
            [
              -76.68218710000001,
              -11.959126111111111
            ],
            [
              -76.68218710000001,
              -11.95940388888889
            ],
            [
              -76.68246487777779,
              -11.95940388888889
            ],
            [
              -76.68246487777779,
              -11.959681666666667
            ],
            [
              -76.68329821111112,
              -11.959681666666667
            ],
            [
              -76.68329821111112,
              -11.959959444444445
            ],
            [
              -76.68496487777779,
              -11.959959444444445
            ],
            [
              -76.68496487777779,
              -11.959681666666667
            ],
            [
              -76.68635376666668,
              -11.959681666666667
            ],
            [
              -76.68635376666668,
              -11.95940388888889
            ],
            [
              -76.68663154444445,
              -11.95940388888889
            ],
            [
              -76.68663154444445,
              -11.959126111111111
            ],
            [
              -76.68690932222223,
              -11.959126111111111
            ],
            [
              -76.68690932222223,
              -11.958848333333334
            ],
            [
              -76.68718710000002,
              -11.958848333333334
            ],
            [
              -76.68718710000002,
              -11.958570555555555
            ],
            [
              -76.68746487777778,
              -11.958570555555555
            ],
            [
              -76.68746487777778,
              -11.958292777777778
            ],
            [
              -76.68774265555557,
              -11.958292777777778
            ],
            [
              -76.68774265555557,
              -11.958015
            ],
            [
              -76.68829821111112,
              -11.958015
            ],
            [
              -76.68829821111112,
              -11.957737222222223
            ],
            [
              -76.68940932222223,
              -11.957737222222223
            ],
            [
              -76.68940932222223,
              -11.957459444444444
            ],
            [
              -76.69163154444446,
              -11.957459444444444
            ],
            [
              -76.69163154444446,
              -11.957181666666667
            ],
            [
              -76.69218710000001,
              -11.957181666666667
            ],
            [
              -76.69218710000001,
              -11.956903888888888
            ],
            [
              -76.6924648777778,
              -11.956903888888888
            ],
            [
              -76.6924648777778,
              -11.956626111111111
            ],
            [
              -76.69274265555556,
              -11.956626111111111
            ],
            [
              -76.69274265555556,
              -11.956348333333334
            ],
            [
              -76.69329821111113,
              -11.956348333333334
            ],
            [
              -76.69329821111113,
              -11.952737222222222
            ],
            [
              -76.6935759888889,
              -11.952737222222222
            ],
            [
              -76.6935759888889,
              -11.952459444444445
            ],
            [
              -76.69329821111113,
              -11.952459444444445
            ],
            [
              -76.69329821111113,
              -11.951348333333334
            ],
            [
              -76.69385376666668,
              -11.951348333333334
            ],
            [
              -76.69385376666668,
              -11.951070555555557
            ],
            [
              -76.69413154444446,
              -11.951070555555557
            ],
            [
              -76.69413154444446,
              -11.950792777777778
            ],
            [
              -76.69468710000001,
              -11.950792777777778
            ],
            [
              -76.69468710000001,
              -11.950515000000001
            ],
            [
              -76.69496487777779,
              -11.950515000000001
            ],
            [
              -76.69496487777779,
              -11.949959444444445
            ],
            [
              -76.69524265555557,
              -11.949959444444445
            ],
            [
              -76.69524265555557,
              -11.949681666666667
            ],
            [
              -76.69552043333334,
              -11.949681666666667
            ],
            [
              -76.69552043333334,
              -11.948015
            ],
            [
              -76.69579821111112,
              -11.948015
            ],
            [
              -76.69579821111112,
              -11.947181666666667
            ],
            [
              -76.69607598888891,
              -11.947181666666667
            ],
            [
              -76.69607598888891,
              -11.946903888888889
            ],
            [
              -76.69635376666668,
              -11.946903888888889
            ],
            [
              -76.69635376666668,
              -11.946626111111112
            ],
            [
              -76.69663154444446,
              -11.946626111111112
            ],
            [
              -76.69663154444446,
              -11.946348333333333
            ],
            [
              -76.69690932222224,
              -11.946348333333333
            ],
            [
              -76.69690932222224,
              -11.946070555555556
            ],
            [
              -76.69885376666667,
              -11.946070555555556
            ],
            [
              -76.69885376666667,
              -11.945792777777777
            ],
            [
              -76.69968710000002,
              -11.945792777777777
            ],
            [
              -76.69968710000002,
              -11.946070555555556
            ],
            [
              -76.69996487777779,
              -11.946070555555556
            ],
            [
              -76.69996487777779,
              -11.946348333333333
            ],
            [
              -76.70052043333335,
              -11.946348333333333
            ],
            [
              -76.70052043333335,
              -11.945792777777777
            ],
            [
              -76.70079821111112,
              -11.945792777777777
            ],
            [
              -76.70079821111112,
              -11.945515
            ],
            [
              -76.7010759888889,
              -11.945515
            ],
            [
              -76.7010759888889,
              -11.945237222222223
            ],
            [
              -76.70163154444445,
              -11.945237222222223
            ],
            [
              -76.70163154444445,
              -11.944959444444445
            ],
            [
              -76.70135376666668,
              -11.944959444444445
            ],
            [
              -76.70135376666668,
              -11.944681666666668
            ],
            [
              -76.70163154444445,
              -11.944681666666668
            ],
            [
              -76.70163154444445,
              -11.944403888888889
            ],
            [
              -76.70190932222224,
              -11.944403888888889
            ],
            [
              -76.70190932222224,
              -11.944126111111112
            ],
            [
              -76.70135376666668,
              -11.944126111111112
            ],
            [
              -76.70135376666668,
              -11.944403888888889
            ],
            [
              -76.7010759888889,
              -11.944403888888889
            ],
            [
              -76.7010759888889,
              -11.944126111111112
            ],
            [
              -76.70079821111112,
              -11.944126111111112
            ],
            [
              -76.70079821111112,
              -11.943848333333333
            ],
            [
              -76.70052043333335,
              -11.943848333333333
            ],
            [
              -76.70052043333335,
              -11.943570555555556
            ],
            [
              -76.70024265555557,
              -11.943570555555556
            ],
            [
              -76.70024265555557,
              -11.943292777777778
            ],
            [
              -76.69885376666667,
              -11.943292777777778
            ],
            [
              -76.69885376666667,
              -11.942737222222222
            ]
          ]
        ]
      }
    },
    {
      "type": "Feature",
      "properties": {
        "id": "pedregal_8_20",
        "hazard_subsystem": "chosica_local_debris_flows",
        "quebrada_search_name": "pedregal",
        "candidate_status": "REVIEW_ONLY",
        "production_ready": false,
        "production_use": false,
        "seed_authority": "OSM_search_seed_only",
        "seed_lon": -76.702304,
        "seed_lat": -11.9420622,
        "snapped_lon": -76.702326,
        "snapped_lat": -11.9423206,
        "seed_to_snap_km": 0.029,
        "accumulation_area_approx_km2": 9.904,
        "delineated_area_km2": 0.002,
        "area_band_km2": [
          8,
          20
        ],
        "official_outlet_validated": false,
        "official_area_validated": false
      },
      "geometry": {
        "type": "MultiPolygon",
        "coordinates": [
          [
            [
              [
                -76.70274265555557,
                -11.942459444444445
              ],
              [
                -76.70274265555557,
                -11.942181666666666
              ],
              [
                -76.70246487777779,
                -11.942181666666666
              ],
              [
                -76.70246487777779,
                -11.942459444444445
              ],
              [
                -76.70274265555557,
                -11.942459444444445
              ]
            ]
          ],
          [
            [
              [
                -76.70246487777779,
                -11.942459444444445
              ],
              [
                -76.70218710000002,
                -11.942459444444445
              ],
              [
                -76.70218710000002,
                -11.942737222222222
              ],
              [
                -76.70246487777779,
                -11.942737222222222
              ],
              [
                -76.70246487777779,
                -11.942459444444445
              ]
            ]
          ]
        ]
      }
    }
  ]
}