{
  "type": "FeatureCollection",
  "properties": {
    "deployment_status": "RESEARCH_ONLY",
    "test_only": true,
    "production_use": false,
    "warning": "Research candidate only; no territorial outcome used."
  },
  "features": [
    {
      "type": "Feature",
      "properties": {
        "unit_id": "pedregal",
        "candidate_id": "pedregal_static_test_v01",
        "candidate_status": "REVIEW_ONLY",
        "geometry_semantics": "UNKNOWN_GEOMETRY_UNRESOLVED",
        "production_use": false,
        "production_ready": false,
        "operational_alerting_enabled": false,
        "fixed_preexisting_outlet_candidate": "pedregal_8_20",
        "reconstructed_area_km2": 0.0018595009966865183,
        "static_reference_area_km2": 10.0,
        "static_area_support_pass": false,
        "internal_accumulation_consistency_pass": true,
        "territorial_activation_evidence_blinded": true
      },
      "geometry": {
        "type": "MultiPolygon",
        "coordinates": [
          [
            [
              [
                -76.70260377777778,
                -11.9423206
              ],
              [
                -76.70260377777778,
                -11.942042822222223
              ],
              [
                -76.702326,
                -11.942042822222223
              ],
              [
                -76.702326,
                -11.9423206
              ],
              [
                -76.70260377777778,
                -11.9423206
              ]
            ]
          ],
          [
            [
              [
                -76.702326,
                -11.9423206
              ],
              [
                -76.70204822222223,
                -11.9423206
              ],
              [
                -76.70204822222223,
                -11.942598377777779
              ],
              [
                -76.702326,
                -11.942598377777779
              ],
              [
                -76.702326,
                -11.9423206
              ]
            ]
          ]
        ]
      }
    }
  ]
}
