{"features":[{"geometry":{"coordinates":[[-76.80424004099996,-11.748390017999952],[-76.80502004099998,-11.747230017999982],[-76.80739004099996,-11.745390017999966],[-76.80757004099996,-11.745200017999935],[-76.80781004099998,-11.744840017999934],[-76.80787004099994,-11.744570017999933],[-76.80775004099996,-11.743670017999932],[-76.80778004099994,-11.743380017999982],[-76.80831004099997,-11.742160017999936],[-76.80846003999994,-11.74196001799993],[-76.80888004099995,-11.741620017999935],[-76.80910003999998,-11.741060017999928],[-76.80913004099995,-11.740500017999977],[-76.80894004099997,-11.739370017999931],[-76.80896004099998,-11.738790017999975],[-76.80914003999999,-11.738350017999949],[-76.80919900799995,-11.738257721999958]],"type":"LineString"},"properties":{"activation_evidence":false,"activation_gate":"BLOCKED","alerting_enabled":false,"catchment_polygon":false,"component_id":"rio_seco_channel","decision_thresholds":null,"deployment_status":"RESEARCH_ONLY","event_footprint":false,"geometry_role":"OFFICIAL_NAMED_CHANNEL_LINE_CONTEXT_ONLY","hydraulic_factors":null,"hydrologic_child_id":"rio_seco","missing_data_rule":"UNKNOWN_NOT_LOW_RISK","operational_alerting_enabled":false,"outlet_or_confluence":false,"production_ready":false,"production_use":false,"risk_or_alert_layer":false,"routing_parameter":false,"source_department":"LIMA","source_district":"SAN ANTONIO","source_institution":"Instituto Geofisico del Peru","source_layer":"Quebrada_Lima","source_name":"Qda Rio Seco","source_objectid":3338,"source_province":"HUAROCHIRI","source_type":"Quebrada","test_mode":"TEST_ONLY","unit_id":"jicamarca__rio_seco_channel__igp_3338"},"type":"Feature"}],"properties":{"activation_gate":"BLOCKED","catchment_polygon":false,"component_id":"rio_seco_channel","decision_thresholds":null,"deployment_status":"RESEARCH_ONLY","event_footprint":false,"geometry_role":"OFFICIAL_NAMED_CHANNEL_LINE_CONTEXT_ONLY","hydraulic_factors":null,"hydrologic_child_id":"rio_seco","missing_data_rule":"UNKNOWN_NOT_LOW_RISK","operational_alerting_enabled":false,"outlet_or_confluence":false,"production_ready":false,"production_use":false,"routing_enabled":false,"source_segments_union_performed":false,"test_mode":"TEST_ONLY"},"type":"FeatureCollection"}
