{"features":[{"geometry":{"coordinates":[[-76.94579003999996,-11.86363001799998],[-76.94658004099995,-11.864240017999975],[-76.94691004099997,-11.864510018999965],[-76.94716004099996,-11.864720017999957],[-76.94752004099996,-11.864900018999947],[-76.94781004099997,-11.865160017999926],[-76.94802004099995,-11.865410017999977],[-76.94823004099999,-11.865730017999965],[-76.94848004099998,-11.866080017999934],[-76.94871004099997,-11.866420017999928],[-76.94915004099994,-11.866990017999967],[-76.94963004099998,-11.867870017999962],[-76.95055004099999,-11.868920017999926],[-76.95166003999998,-11.869910017999928],[-76.95212004099994,-11.870760017999942],[-76.95229004099997,-11.871590018999939],[-76.95242003999994,-11.872290017999944],[-76.95242003999994,-11.872840017999977],[-76.95251004099998,-11.873180017999971],[-76.95272004099996,-11.873810017999972],[-76.95289004099999,-11.874240017999966],[-76.95331004099995,-11.874960017999967],[-76.95348004099998,-11.875240017999943],[-76.95337004099997,-11.876520017999951],[-76.95359030599997,-11.877382909999938]],"type":"LineString"},"properties":{"activation_evidence":false,"activation_gate":"BLOCKED","alerting_enabled":false,"catchment_polygon":false,"component_id":"canto_grande_channel","decision_thresholds":null,"deployment_status":"RESEARCH_ONLY","event_footprint":false,"geometry_role":"OFFICIAL_NAMED_CHANNEL_LINE_CONTEXT_ONLY","hydraulic_factors":null,"hydrologic_child_id":"canto_grande_upper_branch","missing_data_rule":"UNKNOWN_NOT_LOW_RISK","operational_alerting_enabled":false,"outlet_or_confluence":false,"production_ready":false,"production_use":false,"risk_or_alert_layer":false,"routing_parameter":false,"source_department":"LIMA","source_district":"SAN ANTONIO","source_institution":"Instituto Geofisico del Peru","source_layer":"Quebrada_Lima","source_name":"Qda Canto Grande","source_objectid":15404,"source_province":"HUAROCHIRI","source_type":"Quebrada","test_mode":"TEST_ONLY","unit_id":"jicamarca__canto_grande_channel__igp_15404"},"type":"Feature"},{"geometry":{"coordinates":[[-76.94579003999996,-11.86363001799998],[-76.94658004099995,-11.864240017999975],[-76.94691004099997,-11.864510018999965],[-76.94716004099996,-11.864720017999957],[-76.94752004099996,-11.864900018999947],[-76.94781004099997,-11.865160017999926],[-76.94802004099995,-11.865410017999977],[-76.94823004099999,-11.865730017999965],[-76.94848004099998,-11.866080017999934],[-76.94871004099997,-11.866420017999928],[-76.94915004099994,-11.866990017999967],[-76.94963004099998,-11.867870017999962],[-76.95055004099999,-11.868920017999926],[-76.95166003999998,-11.869910017999928],[-76.95212004099994,-11.870760017999942],[-76.95229004099997,-11.871590018999939],[-76.95242003999994,-11.872290017999944],[-76.95242003999994,-11.872840017999977],[-76.95251004099998,-11.873180017999971],[-76.95272004099996,-11.873810017999972],[-76.95289004099999,-11.874240017999966],[-76.95331004099995,-11.874960017999967],[-76.95348004099998,-11.875240017999943],[-76.95337004099997,-11.876520017999951],[-76.95434004099997,-11.880320017999964],[-76.95524004099997,-11.88314001799995],[-76.95524004099997,-11.885460017999947],[-76.95665004099999,-11.889090017999933],[-76.95837004099997,-11.892510017999939],[-76.96008004099997,-11.895630017999963],[-76.96018004099994,-11.89795001799996],[-76.96038004099995,-11.900170017999926],[-76.96068004099999,-11.901280017999966],[-76.96099004099995,-11.902590017999955],[-76.96139004099996,-11.903590017999932],[-76.96240004099997,-11.906110017999936],[-76.96320004099994,-11.907420017999982]],"type":"LineString"},"properties":{"activation_evidence":false,"activation_gate":"BLOCKED","alerting_enabled":false,"catchment_polygon":false,"component_id":"canto_grande_channel","decision_thresholds":null,"deployment_status":"RESEARCH_ONLY","event_footprint":false,"geometry_role":"OFFICIAL_NAMED_CHANNEL_LINE_CONTEXT_ONLY","hydraulic_factors":null,"hydrologic_child_id":"canto_grande_upper_branch","missing_data_rule":"UNKNOWN_NOT_LOW_RISK","operational_alerting_enabled":false,"outlet_or_confluence":false,"production_ready":false,"production_use":false,"risk_or_alert_layer":false,"routing_parameter":false,"source_department":"LIMA","source_district":"SAN JUAN DE LURIGANCHO","source_institution":"Instituto Geofisico del Peru","source_layer":"Quebrada_Lima","source_name":"Qda Canto Grande","source_objectid":18807,"source_province":"LIMA","source_type":"Quebrada","test_mode":"TEST_ONLY","unit_id":"jicamarca__canto_grande_channel__igp_18807"},"type":"Feature"}],"properties":{"activation_gate":"BLOCKED","catchment_polygon":false,"component_id":"canto_grande_channel","decision_thresholds":null,"deployment_status":"RESEARCH_ONLY","event_footprint":false,"geometry_role":"OFFICIAL_NAMED_CHANNEL_LINE_CONTEXT_ONLY","hydraulic_factors":null,"hydrologic_child_id":"canto_grande_upper_branch","missing_data_rule":"UNKNOWN_NOT_LOW_RISK","operational_alerting_enabled":false,"outlet_or_confluence":false,"production_ready":false,"production_use":false,"routing_enabled":false,"source_segments_union_performed":false,"test_mode":"TEST_ONLY"},"type":"FeatureCollection"}
