{"features":[{"geometry":{"coordinates":[[-76.89797004099995,-11.867290017999949],[-76.89830004099997,-11.86757001799998],[-76.89895004099998,-11.867930017999981],[-76.89962004099993,-11.868170017999944],[-76.90147004099998,-11.868560017999926],[-76.90246004099998,-11.868860017999964],[-76.90325004099998,-11.869100017999926],[-76.90398004099995,-11.868910017999951],[-76.90449004099997,-11.868540017999976],[-76.90493004099994,-11.868170017999944],[-76.90534004099999,-11.86786001799993],[-76.90599004099994,-11.867370017999974],[-76.90655004099995,-11.867070017999936],[-76.90724004099997,-11.867020017999948],[-76.90811004099999,-11.866890018999982],[-76.90894004099994,-11.86703001799998],[-76.90979003999996,-11.867000017999942],[-76.91091004099997,-11.866910017999942],[-76.91186004099995,-11.866810017999967],[-76.91279004099994,-11.866950017999955],[-76.91342004099994,-11.867440017999968],[-76.91372004099998,-11.867900017999943],[-76.91387004099994,-11.868290017999982],[-76.91412004099999,-11.868740017999926],[-76.91460004099997,-11.86921001899998],[-76.91510004099996,-11.86959001799994],[-76.91549004099994,-11.869870017999972],[-76.91599003999994,-11.870090017999928],[-76.91655004099994,-11.870300017999966],[-76.91711004099994,-11.870320017999973],[-76.91773004099997,-11.870250017999979],[-76.91829004099998,-11.870050017999972],[-76.91885004099998,-11.869820017999928],[-76.91924004099997,-11.869760017999965],[-76.91953004099997,-11.869880017999947],[-76.91972004099995,-11.87004001799994],[-76.92014004099997,-11.870430017999979],[-76.92052004099997,-11.870800017999954],[-76.92097004099998,-11.871070017999955],[-76.92150004099994,-11.871410017999949],[-76.92160004099998,-11.871930017999944],[-76.92154004099996,-11.872290017999944],[-76.92138004099996,-11.872810017999939],[-76.92137004099999,-11.873050017999958],[-76.92136004099996,-11.873360017999971],[-76.92170004099995,-11.87431001799996],[-76.92216004099998,-11.87500001799998],[-76.92287004099995,-11.875460017999956],[-76.92322004099998,-11.875580017999937],[-76.92360004099999,-11.875470018999977],[-76.92386004099995,-11.875430017999975],[-76.92420004099995,-11.875550017999956],[-76.92469004099996,-11.87589001799995],[-76.92509004099998,-11.87616001799995],[-76.92553004099994,-11.87658001799997],[-76.92607004099995,-11.877070018999973],[-76.92633004099997,-11.877680017999978],[-76.92658003999998,-11.878370017999941],[-76.92677004099994,-11.878840017999948],[-76.92679004099995,-11.87912001799998],[-76.92692004099996,-11.879330017999962],[-76.92719004099996,-11.879510017999962],[-76.92766004099997,-11.879630017999943],[-76.92846004099994,-11.879770017999931],[-76.92968004099998,-11.879950017999931],[-76.92977004099998,-11.879950017999931],[-76.93010004099995,-11.879990017999944],[-76.93068004099996,-11.880230017999963],[-76.93157004099999,-11.880840017999958],[-76.93197004099994,-11.881090017999952],[-76.93235004099995,-11.881390017999934],[-76.93270004099998,-11.881600017999972],[-76.93321004099994,-11.881790017999947],[-76.93362003999994,-11.881980017999979],[-76.93405003999999,-11.882260017999954],[-76.93443004099998,-11.882500017999973],[-76.93466004099997,-11.88270001799998],[-76.93503004099995,-11.88299001799993],[-76.93574004099997,-11.883550017999937],[-76.93700004099998,-11.884660017999977],[-76.93756003999994,-11.885630018999962],[-76.93792004099998,-11.886260017999973],[-76.93832003999995,-11.886810017999949],[-76.93871003999999,-11.887520017999975],[-76.93874713099996,-11.887550240999929]],"type":"LineString"},"properties":{"activation_evidence":false,"activation_gate":"BLOCKED","alerting_enabled":false,"catchment_polygon":false,"component_id":"media_luna_channel","decision_thresholds":null,"deployment_status":"RESEARCH_ONLY","event_footprint":false,"geometry_role":"OFFICIAL_NAMED_CHANNEL_LINE_CONTEXT_ONLY","hydraulic_factors":null,"hydrologic_child_id":"canto_grande_media_luna","missing_data_rule":"UNKNOWN_NOT_LOW_RISK","operational_alerting_enabled":false,"outlet_or_confluence":false,"production_ready":false,"production_use":false,"risk_or_alert_layer":false,"routing_parameter":false,"source_department":"LIMA","source_district":"SAN ANTONIO","source_institution":"Instituto Geofisico del Peru","source_layer":"Quebrada_Lima","source_name":"Qda Media Luna","source_objectid":3351,"source_province":"HUAROCHIRI","source_type":"Quebrada","test_mode":"TEST_ONLY","unit_id":"jicamarca__media_luna_channel__igp_3351"},"type":"Feature"},{"geometry":{"coordinates":[[-76.89797004099995,-11.867290017999949],[-76.89830004099997,-11.86757001799998],[-76.89895004099998,-11.867930017999981],[-76.89962004099993,-11.868170017999944],[-76.90147004099998,-11.868560017999926],[-76.90246004099998,-11.868860017999964],[-76.90325004099998,-11.869100017999926],[-76.90398004099995,-11.868910017999951],[-76.90449004099997,-11.868540017999976],[-76.90493004099994,-11.868170017999944],[-76.90534004099999,-11.86786001799993],[-76.90599004099994,-11.867370017999974],[-76.90655004099995,-11.867070017999936],[-76.90724004099997,-11.867020017999948],[-76.90811004099999,-11.866890018999982],[-76.90894004099994,-11.86703001799998],[-76.90979003999996,-11.867000017999942],[-76.91091004099997,-11.866910017999942],[-76.91186004099995,-11.866810017999967],[-76.91279004099994,-11.866950017999955],[-76.91342004099994,-11.867440017999968],[-76.91372004099998,-11.867900017999943],[-76.91387004099994,-11.868290017999982],[-76.91412004099999,-11.868740017999926],[-76.91460004099997,-11.86921001899998],[-76.91510004099996,-11.86959001799994],[-76.91549004099994,-11.869870017999972],[-76.91599003999994,-11.870090017999928],[-76.91655004099994,-11.870300017999966],[-76.91711004099994,-11.870320017999973],[-76.91773004099997,-11.870250017999979],[-76.91829004099998,-11.870050017999972],[-76.91885004099998,-11.869820017999928],[-76.91924004099997,-11.869760017999965],[-76.91953004099997,-11.869880017999947],[-76.91972004099995,-11.87004001799994],[-76.92014004099997,-11.870430017999979],[-76.92052004099997,-11.870800017999954],[-76.92097004099998,-11.871070017999955],[-76.92150004099994,-11.871410017999949],[-76.92160004099998,-11.871930017999944],[-76.92154004099996,-11.872290017999944],[-76.92138004099996,-11.872810017999939],[-76.92137004099999,-11.873050017999958],[-76.92136004099996,-11.873360017999971],[-76.92170004099995,-11.87431001799996],[-76.92216004099998,-11.87500001799998],[-76.92287004099995,-11.875460017999956],[-76.92322004099998,-11.875580017999937],[-76.92360004099999,-11.875470018999977],[-76.92386004099995,-11.875430017999975],[-76.92420004099995,-11.875550017999956],[-76.92469004099996,-11.87589001799995],[-76.92509004099998,-11.87616001799995],[-76.92553004099994,-11.87658001799997],[-76.92607004099995,-11.877070018999973],[-76.92633004099997,-11.877680017999978],[-76.92658003999998,-11.878370017999941],[-76.92677004099994,-11.878840017999948],[-76.92679004099995,-11.87912001799998],[-76.92692004099996,-11.879330017999962],[-76.92719004099996,-11.879510017999962],[-76.92766004099997,-11.879630017999943],[-76.92846004099994,-11.879770017999931],[-76.92968004099998,-11.879950017999931],[-76.92977004099998,-11.879950017999931],[-76.93010004099995,-11.879990017999944],[-76.93068004099996,-11.880230017999963],[-76.93157004099999,-11.880840017999958],[-76.93197004099994,-11.881090017999952],[-76.93235004099995,-11.881390017999934],[-76.93270004099998,-11.881600017999972],[-76.93321004099994,-11.881790017999947],[-76.93362003999994,-11.881980017999979],[-76.93405003999999,-11.882260017999954],[-76.93443004099998,-11.882500017999973],[-76.93466004099997,-11.88270001799998],[-76.93503004099995,-11.88299001799993],[-76.93574004099997,-11.883550017999937],[-76.93700004099998,-11.884660017999977],[-76.93756003999994,-11.885630018999962],[-76.93792004099998,-11.886260017999973],[-76.93832003999995,-11.886810017999949],[-76.93871003999999,-11.887520017999975],[-76.93979004099998,-11.88840001899996],[-76.94095004099995,-11.889160018999974],[-76.94166004099998,-11.889680017999979],[-76.94195004099998,-11.890080017999935],[-76.94213004099998,-11.89049001799998],[-76.94208004099994,-11.890890017999936],[-76.94204004099998,-11.89123001799993],[-76.94202004099998,-11.891510017999963],[-76.94211004099998,-11.892030017999957],[-76.94249004099999,-11.892450017999977],[-76.94319004099998,-11.893040017999965],[-76.94350004099994,-11.893480017999934],[-76.94363004099995,-11.893910017999929],[-76.94374004099996,-11.895030018999933],[-76.94357004099999,-11.896270017999939],[-76.94351004099997,-11.896800017999965],[-76.94372004099995,-11.897550017999947],[-76.94404004099994,-11.898250017999942],[-76.94431004099994,-11.898880017999943],[-76.94463004099998,-11.899430017999975],[-76.94528004099999,-11.900420017999977],[-76.94612004099997,-11.90269001799993],[-76.94642004099995,-11.903330017999963]],"type":"LineString"},"properties":{"activation_evidence":false,"activation_gate":"BLOCKED","alerting_enabled":false,"catchment_polygon":false,"component_id":"media_luna_channel","decision_thresholds":null,"deployment_status":"RESEARCH_ONLY","event_footprint":false,"geometry_role":"OFFICIAL_NAMED_CHANNEL_LINE_CONTEXT_ONLY","hydraulic_factors":null,"hydrologic_child_id":"canto_grande_media_luna","missing_data_rule":"UNKNOWN_NOT_LOW_RISK","operational_alerting_enabled":false,"outlet_or_confluence":false,"production_ready":false,"production_use":false,"risk_or_alert_layer":false,"routing_parameter":false,"source_department":"LIMA","source_district":"SAN JUAN DE LURIGANCHO","source_institution":"Instituto Geofisico del Peru","source_layer":"Quebrada_Lima","source_name":"Qda Media Luna","source_objectid":11823,"source_province":"LIMA","source_type":"Quebrada","test_mode":"TEST_ONLY","unit_id":"jicamarca__media_luna_channel__igp_11823"},"type":"Feature"}],"properties":{"activation_gate":"BLOCKED","catchment_polygon":false,"component_id":"media_luna_channel","decision_thresholds":null,"deployment_status":"RESEARCH_ONLY","event_footprint":false,"geometry_role":"OFFICIAL_NAMED_CHANNEL_LINE_CONTEXT_ONLY","hydraulic_factors":null,"hydrologic_child_id":"canto_grande_media_luna","missing_data_rule":"UNKNOWN_NOT_LOW_RISK","operational_alerting_enabled":false,"outlet_or_confluence":false,"production_ready":false,"production_use":false,"routing_enabled":false,"source_segments_union_performed":false,"test_mode":"TEST_ONLY"},"type":"FeatureCollection"}
