{"features":[{"geometry":{"coordinates":[[-79.41045646001402,-6.662260245682351],[-79.41591855638,-6.66523476198367]],"type":"LineString"},"id":"chongoyape_vega_tabacal","properties":{"activation_gate":"BLOCKED","candidate_id":"lambayeque_chancay_lambayeque_chongoyape","default_visibility":false,"deployment_status":"RESEARCH_ONLY","feature_id":"chongoyape_vega_tabacal","geometry_method":"STRAIGHT_REFERENCE_CHORD_BETWEEN_OFFICIAL_FICHA_ENDPOINTS","geometry_role":"OFFICIAL_CRITICAL_REACH_REFERENCE_ONLY","is_basin_boundary":false,"is_channel_centerline":false,"is_inundation_extent":false,"production_use":false,"review_status":"REVIEW_ONLY","sector":"Vega Tabacal","source_coordinates":{"end":[675107,9262977],"start":[675712,9263304]},"source_crs":"EPSG:32717 WGS84 / UTM zone 17S","source_id":"ANA-SIGRID-CHONGOYAPE-10741","source_page":7,"watercourse":"Río Chancay-Lambayeque"},"type":"Feature"},{"geometry":{"coordinates":[[-79.4451720564409,-6.698117050051994],[-79.45396654433132,-6.700070935913749]],"type":"LineString"},"id":"chongoyape_monteria","properties":{"activation_gate":"BLOCKED","candidate_id":"lambayeque_chancay_lambayeque_chongoyape","default_visibility":false,"deployment_status":"RESEARCH_ONLY","feature_id":"chongoyape_monteria","geometry_method":"STRAIGHT_REFERENCE_CHORD_BETWEEN_OFFICIAL_FICHA_ENDPOINTS","geometry_role":"OFFICIAL_CRITICAL_REACH_REFERENCE_ONLY","is_basin_boundary":false,"is_channel_centerline":false,"is_inundation_extent":false,"production_use":false,"review_status":"REVIEW_ONLY","sector":"Montería","source_coordinates":{"end":[670888,9259138],"start":[671861,9259351]},"source_crs":"EPSG:32717 WGS84 / UTM zone 17S","source_id":"ANA-SIGRID-CHONGOYAPE-10741","source_page":20,"watercourse":"Quebrada Montería"},"type":"Feature"},{"geometry":{"coordinates":[[-79.34782931541004,-6.645488985051388],[-79.37551521553742,-6.65261570694085]],"type":"LineString"},"id":"chongoyape_santa_rosa_huaca_blanca","properties":{"activation_gate":"BLOCKED","candidate_id":"lambayeque_chancay_lambayeque_chongoyape","default_visibility":false,"deployment_status":"RESEARCH_ONLY","feature_id":"chongoyape_santa_rosa_huaca_blanca","geometry_method":"STRAIGHT_REFERENCE_CHORD_BETWEEN_OFFICIAL_FICHA_ENDPOINTS","geometry_role":"OFFICIAL_CRITICAL_REACH_REFERENCE_ONLY","is_basin_boundary":false,"is_channel_centerline":false,"is_inundation_extent":false,"production_use":false,"review_status":"REVIEW_ONLY","sector":"Santa Rosa-Huaca Blanca","source_coordinates":{"end":[679579,9264358],"start":[682643,9265136]},"source_crs":"EPSG:32717 WGS84 / UTM zone 17S","source_id":"ANA-SIGRID-CHONGOYAPE-10741","source_page":46,"watercourse":"Río Chancay-Lambayeque"},"type":"Feature"},{"geometry":{"coordinates":[[-79.28282996552984,-6.7938836018543975],[-79.28450189765866,-6.794323545563621]],"type":"LineString"},"id":"oyotun_bebedero_potrero_i","properties":{"activation_gate":"BLOCKED","candidate_id":"lambayeque_zana_oyotun","default_visibility":false,"deployment_status":"RESEARCH_ONLY","feature_id":"oyotun_bebedero_potrero_i","geometry_method":"STRAIGHT_REFERENCE_CHORD_BETWEEN_OFFICIAL_FICHA_ENDPOINTS","geometry_role":"OFFICIAL_CRITICAL_REACH_REFERENCE_ONLY","is_basin_boundary":false,"is_channel_centerline":false,"is_inundation_extent":false,"production_use":false,"review_status":"REVIEW_ONLY","sector":"Bebedero-Potrero I","source_coordinates":{"end":[689588,9248652],"start":[689773,9248700]},"source_crs":"EPSG:32717 WGS84 / UTM zone 17S","source_id":"ANA-SIGRID-OYOTUN-7971","source_page":7,"watercourse":"Río Zaña"},"type":"Feature"},{"geometry":{"coordinates":[[-79.28997902816111,-6.808439543492569],[-79.29119599504101,-6.8096464465483475]],"type":"LineString"},"id":"oyotun_bebedero_potrero_ii","properties":{"activation_gate":"BLOCKED","candidate_id":"lambayeque_zana_oyotun","default_visibility":false,"deployment_status":"RESEARCH_ONLY","feature_id":"oyotun_bebedero_potrero_ii","geometry_method":"STRAIGHT_REFERENCE_CHORD_BETWEEN_OFFICIAL_FICHA_ENDPOINTS","geometry_role":"OFFICIAL_CRITICAL_REACH_REFERENCE_ONLY","is_basin_boundary":false,"is_channel_centerline":false,"is_inundation_extent":false,"production_use":false,"review_status":"REVIEW_ONLY","sector":"Bebedero-Potrero II","source_coordinates":{"end":[688842,9246960],"start":[688977,9247093]},"source_crs":"EPSG:32717 WGS84 / UTM zone 17S","source_id":"ANA-SIGRID-OYOTUN-7971","source_page":7,"watercourse":"Río Zaña"},"type":"Feature"},{"geometry":{"coordinates":[[-79.2949305842673,-6.812634493211208],[-79.29721733864461,-6.810626164575813]],"type":"LineString"},"id":"oyotun_bebedero_potrero_iii","properties":{"activation_gate":"BLOCKED","candidate_id":"lambayeque_zana_oyotun","default_visibility":false,"deployment_status":"RESEARCH_ONLY","feature_id":"oyotun_bebedero_potrero_iii","geometry_method":"STRAIGHT_REFERENCE_CHORD_BETWEEN_OFFICIAL_FICHA_ENDPOINTS","geometry_role":"OFFICIAL_CRITICAL_REACH_REFERENCE_ONLY","is_basin_boundary":false,"is_channel_centerline":false,"is_inundation_extent":false,"production_use":false,"review_status":"REVIEW_ONLY","sector":"Bebedero-Potrero III","source_coordinates":{"end":[688176,9246854],"start":[688428,9246631]},"source_crs":"EPSG:32717 WGS84 / UTM zone 17S","source_id":"ANA-SIGRID-OYOTUN-7971","source_page":7,"watercourse":"Río Zaña"},"type":"Feature"},{"geometry":{"coordinates":[[-79.29851380844593,-6.809816939269199],[-79.30074410478541,-6.810991222872452]],"type":"LineString"},"id":"oyotun_bebedero_potrero_iv","properties":{"activation_gate":"BLOCKED","candidate_id":"lambayeque_zana_oyotun","default_visibility":false,"deployment_status":"RESEARCH_ONLY","feature_id":"oyotun_bebedero_potrero_iv","geometry_method":"STRAIGHT_REFERENCE_CHORD_BETWEEN_OFFICIAL_FICHA_ENDPOINTS","geometry_role":"OFFICIAL_CRITICAL_REACH_REFERENCE_ONLY","is_basin_boundary":false,"is_channel_centerline":false,"is_inundation_extent":false,"production_use":false,"review_status":"REVIEW_ONLY","sector":"Bebedero-Potrero IV","source_coordinates":{"end":[687786,9246815],"start":[688033,9246944]},"source_crs":"EPSG:32717 WGS84 / UTM zone 17S","source_id":"ANA-SIGRID-OYOTUN-7971","source_page":7,"watercourse":"Río Zaña"},"type":"Feature"},{"geometry":{"coordinates":[[-79.30125133626464,-6.8133801328340455],[-79.30387948756565,-6.81718707423028]],"type":"LineString"},"id":"oyotun_sorronto_campana_gramadal_i","properties":{"activation_gate":"BLOCKED","candidate_id":"lambayeque_zana_oyotun","default_visibility":false,"deployment_status":"RESEARCH_ONLY","feature_id":"oyotun_sorronto_campana_gramadal_i","geometry_method":"STRAIGHT_REFERENCE_CHORD_BETWEEN_OFFICIAL_FICHA_ENDPOINTS","geometry_role":"OFFICIAL_CRITICAL_REACH_REFERENCE_ONLY","is_basin_boundary":false,"is_channel_centerline":false,"is_inundation_extent":false,"production_use":false,"review_status":"REVIEW_ONLY","sector":"Sorronto-Campana-Gramadal I","source_coordinates":{"end":[687437,9246131],"start":[687729,9246551]},"source_crs":"EPSG:32717 WGS84 / UTM zone 17S","source_id":"ANA-SIGRID-OYOTUN-7971","source_page":21,"watercourse":"Río Zaña"},"type":"Feature"},{"geometry":{"coordinates":[[-79.30737035509424,-6.830364725197904],[-79.30821218418461,-6.832800025539068]],"type":"LineString"},"id":"oyotun_sorronto_campana_gramadal_ii","properties":{"activation_gate":"BLOCKED","candidate_id":"lambayeque_zana_oyotun","default_visibility":false,"deployment_status":"RESEARCH_ONLY","feature_id":"oyotun_sorronto_campana_gramadal_ii","geometry_method":"STRAIGHT_REFERENCE_CHORD_BETWEEN_OFFICIAL_FICHA_ENDPOINTS","geometry_role":"OFFICIAL_CRITICAL_REACH_REFERENCE_ONLY","is_basin_boundary":false,"is_channel_centerline":false,"is_inundation_extent":false,"production_use":false,"review_status":"REVIEW_ONLY","sector":"Sorronto-Campana-Gramadal II","source_coordinates":{"end":[686952,9244406],"start":[687046,9244675]},"source_crs":"EPSG:32717 WGS84 / UTM zone 17S","source_id":"ANA-SIGRID-OYOTUN-7971","source_page":21,"watercourse":"Río Zaña"},"type":"Feature"},{"geometry":{"coordinates":[[-79.31577946324789,-6.839355015000874],[-79.31793275565491,-6.841903407772969]],"type":"LineString"},"id":"oyotun_sorronto_campana_gramadal_iii","properties":{"activation_gate":"BLOCKED","candidate_id":"lambayeque_zana_oyotun","default_visibility":false,"deployment_status":"RESEARCH_ONLY","feature_id":"oyotun_sorronto_campana_gramadal_iii","geometry_method":"STRAIGHT_REFERENCE_CHORD_BETWEEN_OFFICIAL_FICHA_ENDPOINTS","geometry_role":"OFFICIAL_CRITICAL_REACH_REFERENCE_ONLY","is_basin_boundary":false,"is_channel_centerline":false,"is_inundation_extent":false,"production_use":false,"review_status":"REVIEW_ONLY","sector":"Sorronto-Campana-Gramadal III","source_coordinates":{"end":[685874,9243403],"start":[686113,9243684]},"source_crs":"EPSG:32717 WGS84 / UTM zone 17S","source_id":"ANA-SIGRID-OYOTUN-7971","source_page":21,"watercourse":"Río Zaña"},"type":"Feature"},{"geometry":{"coordinates":[[-79.3171562783055,-6.841457623944979],[-79.31865090347182,-6.843506390261236]],"type":"LineString"},"id":"oyotun_sorronto_campana_gramadal_iv","properties":{"activation_gate":"BLOCKED","candidate_id":"lambayeque_zana_oyotun","default_visibility":false,"deployment_status":"RESEARCH_ONLY","feature_id":"oyotun_sorronto_campana_gramadal_iv","geometry_method":"STRAIGHT_REFERENCE_CHORD_BETWEEN_OFFICIAL_FICHA_ENDPOINTS","geometry_role":"OFFICIAL_CRITICAL_REACH_REFERENCE_ONLY","is_basin_boundary":false,"is_channel_centerline":false,"is_inundation_extent":false,"production_use":false,"review_status":"REVIEW_ONLY","sector":"Sorronto-Campana-Gramadal IV","source_coordinates":{"end":[685794,9243226],"start":[685960,9243452]},"source_crs":"EPSG:32717 WGS84 / UTM zone 17S","source_id":"ANA-SIGRID-OYOTUN-7971","source_page":21,"watercourse":"Río Zaña"},"type":"Feature"},{"geometry":{"coordinates":[[-79.20854733186265,-6.820486541612556],[-79.20953860916102,-6.819070672113603]],"type":"LineString"},"id":"oyotun_santa_rosa_viru_espinal_cleaning","properties":{"activation_gate":"BLOCKED","candidate_id":"lambayeque_zana_oyotun","default_visibility":false,"deployment_status":"RESEARCH_ONLY","feature_id":"oyotun_santa_rosa_viru_espinal_cleaning","geometry_method":"STRAIGHT_REFERENCE_CHORD_BETWEEN_OFFICIAL_FICHA_ENDPOINTS","geometry_role":"OFFICIAL_CRITICAL_REACH_REFERENCE_ONLY","is_basin_boundary":false,"is_channel_centerline":false,"is_inundation_extent":false,"production_use":false,"review_status":"REVIEW_ONLY","sector":"Santa Rosa / Virú-Espinal — descolmatación","source_coordinates":{"end":[697865,9245885],"start":[697974,9245728]},"source_crs":"EPSG:32717 WGS84 / UTM zone 17S","source_id":"ANA-SIGRID-OYOTUN-7971","source_page":35,"watercourse":"Río Zaña"},"type":"Feature"},{"geometry":{"coordinates":[[-79.20975681853152,-6.818773105053521],[-79.21011168920239,-6.818213834891153]],"type":"LineString"},"id":"oyotun_santa_rosa_viru_espinal_dike","properties":{"activation_gate":"BLOCKED","candidate_id":"lambayeque_zana_oyotun","default_visibility":false,"deployment_status":"RESEARCH_ONLY","feature_id":"oyotun_santa_rosa_viru_espinal_dike","geometry_method":"STRAIGHT_REFERENCE_CHORD_BETWEEN_OFFICIAL_FICHA_ENDPOINTS","geometry_role":"OFFICIAL_CRITICAL_REACH_REFERENCE_ONLY","is_basin_boundary":false,"is_channel_centerline":false,"is_inundation_extent":false,"production_use":false,"review_status":"REVIEW_ONLY","sector":"Santa Rosa / Virú-Espinal — dique","source_coordinates":{"end":[697802,9245980],"start":[697841,9245918]},"source_crs":"EPSG:32717 WGS84 / UTM zone 17S","source_id":"ANA-SIGRID-OYOTUN-7971","source_page":35,"watercourse":"Río Zaña"},"type":"Feature"},{"geometry":{"coordinates":[[-79.21064681599026,-6.815394802881268],[-79.23891716030415,-6.807541901309957]],"type":"LineString"},"id":"oyotun_espinal_polvareda","properties":{"activation_gate":"BLOCKED","candidate_id":"lambayeque_zana_oyotun","default_visibility":false,"deployment_status":"RESEARCH_ONLY","feature_id":"oyotun_espinal_polvareda","geometry_method":"STRAIGHT_REFERENCE_CHORD_BETWEEN_OFFICIAL_FICHA_ENDPOINTS","geometry_role":"OFFICIAL_CRITICAL_REACH_REFERENCE_ONLY","is_basin_boundary":false,"is_channel_centerline":false,"is_inundation_extent":false,"production_use":false,"review_status":"REVIEW_ONLY","sector":"Espinal-Polvareda","source_coordinates":{"end":[694622,9247172],"start":[697744,9246292]},"source_crs":"EPSG:32717 WGS84 / UTM zone 17S","source_id":"ANA-SIGRID-OYOTUN-7971","source_page":47,"watercourse":"Río Zaña"},"type":"Feature"}],"name":"ANA official critical-reach endpoint chords — Chongoyape and Oyotún","properties":{"activation_gate":"BLOCKED","crs":"EPSG:4326","default_visibility":false,"production_use":false,"version":"phase2-critical-reaches-review-only-v1","warning":"Rectas entre extremos oficiales de ficha; no son límites de cuenca, ejes completos de cauce ni áreas de inundación."},"type":"FeatureCollection"}
