{"features":[{"geometry":{"coordinates":[[-76.8294375,-11.6940134],[-76.829103,-11.6947658],[-76.8289164,-11.6956799],[-76.8288359,-11.6959787],[-76.8288938,-11.6964213],[-76.8289325,-11.6967284],[-76.8293993,-11.6979819],[-76.8296599,-11.6985497],[-76.8300034,-11.6991802],[-76.8299897,-11.6998944],[-76.8298838,-11.7005188],[-76.8296674,-11.7010987],[-76.8296989,-11.7017042],[-76.829952,-11.7025342],[-76.830446,-11.7037332],[-76.8308304,-11.7049963],[-76.8312129,-11.7059701],[-76.8316782,-11.7069976]],"type":"LineString"},"properties":{"activation_gate":"BLOCKED","alerting_enabled":false,"candidate_id":"lima_norte_huerta_vieja","candidate_wide_sampling_ready":false,"counts_as_complete_candidate_geometry":false,"decision_thresholds":null,"deployment_status":"RESEARCH_ONLY","hito_count":18,"hydraulic_factors":null,"map_role":"RESEARCH_CONTEXT_ONLY","margin":"LEFT","missing_data_rule":"UNKNOWN_NOT_LOW_RISK","not_catchment":true,"not_event_footprint":true,"not_historical_hydraulic_capacity":true,"production_ready":false,"production_use":false,"representation":"OFFICIAL_FAJA_MARGINAL_HITO_ALIGNMENT","source_ids":["ANA-RD-0690-2025-AAACF","ANA-IT-0112-2024-AAA-CF-MCFS"],"test_mode":"TEST_ONLY","unit_id":"huerta_vieja_faja_left_margin"},"type":"Feature"},{"geometry":{"coordinates":[[-76.8292627,-11.6939331],[-76.829019,-11.6945403],[-76.8288554,-11.6947583],[-76.8287483,-11.69522],[-76.8286228,-11.6956637],[-76.8284963,-11.6959538],[-76.8285262,-11.6963061],[-76.8285369,-11.6965501],[-76.8286597,-11.6970917],[-76.8287743,-11.697778],[-76.8290548,-11.6985897],[-76.8292237,-11.6991671],[-76.8293107,-11.6998536],[-76.8291777,-11.7005414],[-76.8289147,-11.7009951],[-76.8288545,-11.7016101],[-76.8290819,-11.7027115],[-76.8296042,-11.7040279],[-76.8298401,-11.7050388],[-76.8302948,-11.7058404],[-76.8309086,-11.70712]],"type":"LineString"},"properties":{"activation_gate":"BLOCKED","alerting_enabled":false,"candidate_id":"lima_norte_huerta_vieja","candidate_wide_sampling_ready":false,"counts_as_complete_candidate_geometry":false,"decision_thresholds":null,"deployment_status":"RESEARCH_ONLY","hito_count":21,"hydraulic_factors":null,"map_role":"RESEARCH_CONTEXT_ONLY","margin":"RIGHT","missing_data_rule":"UNKNOWN_NOT_LOW_RISK","not_catchment":true,"not_event_footprint":true,"not_historical_hydraulic_capacity":true,"production_ready":false,"production_use":false,"representation":"OFFICIAL_FAJA_MARGINAL_HITO_ALIGNMENT","source_ids":["ANA-RD-0690-2025-AAACF","ANA-IT-0112-2024-AAA-CF-MCFS"],"test_mode":"TEST_ONLY","unit_id":"huerta_vieja_faja_right_margin"},"type":"Feature"}],"properties":{"activation_gate":"BLOCKED","candidate_id":"lima_norte_huerta_vieja","candidate_wide_sampling_ready":false,"counts_as_complete_candidate_geometry":false,"decision_thresholds":null,"default_visibility":false,"deployment_status":"RESEARCH_ONLY","geometry_status":"PARTIAL_NON_CATCHMENT_CONTEXT","hydraulic_factors":null,"missing_data_rule":"UNKNOWN_NOT_LOW_RISK","not_catchment":true,"not_event_footprint":true,"not_historical_hydraulic_capacity":true,"operational_alerting_enabled":false,"production_ready":false,"production_use":false,"representation":"TWO_SEPARATE_OFFICIAL_FAJA_MARGIN_ALIGNMENTS","source_ids":["ANA-RD-0690-2025-AAACF","ANA-IT-0112-2024-AAA-CF-MCFS"],"test_mode":"TEST_ONLY","title":"Quebrada Huerta Vieja · alineamientos oficiales de faja marginal"},"type":"FeatureCollection"}
