{"features":[{"geometry":{"coordinates":[[-76.7920911,-11.6627556],[-76.7910234,-11.6635848],[-76.7898324,-11.6652013],[-76.7893488,-11.665584],[-76.788515,-11.6657067],[-76.7876866,-11.6652327],[-76.7853707,-11.6644788],[-76.7816154,-11.6637789],[-76.778471,-11.6625328],[-76.7766803,-11.6607179],[-76.7749773,-11.659707],[-76.7720492,-11.6592911],[-76.7711784,-11.6593598],[-76.7701155,-11.6595019],[-76.7679045,-11.6593799],[-76.7672612,-11.6591669],[-76.7664045,-11.6585665],[-76.7659728,-11.6584607],[-76.7636466,-11.6589631],[-76.7627061,-11.6596017],[-76.7610683,-11.6601993],[-76.7597089,-11.6613285],[-76.7588814,-11.6624455],[-76.757371,-11.6628886],[-76.7560504,-11.6628876],[-76.7554134,-11.6622226],[-76.7556285,-11.6614348],[-76.7554493,-11.6606404],[-76.7547121,-11.6600845],[-76.7537932,-11.6597918],[-76.7528764,-11.6598335],[-76.7523348,-11.6597464],[-76.7520765,-11.659513],[-76.7518647,-11.6593696],[-76.750616,-11.6591331],[-76.7498072,-11.6588578],[-76.749294,-11.6589242],[-76.7483517,-11.6592916],[-76.7477232,-11.6599643],[-76.746695,-11.6598078],[-76.7456446,-11.6590187],[-76.7446529,-11.6588168],[-76.7443941,-11.658493],[-76.7434571,-11.6582455],[-76.742745,-11.6587561]],"type":"LineString"},"properties":{"activation_gate":"BLOCKED","alerting_enabled":false,"candidate_id":"lima_norte_arahuay_chillon","candidate_wide_sampling_ready":false,"counts_as_complete_candidate_geometry":false,"decision_thresholds":null,"deployment_status":"RESEARCH_ONLY","hito_count":45,"hydraulic_factors":null,"hydrologic_unit":"Rio Quisquichaca","map_role":"RESEARCH_CONTEXT_ONLY","margin":"RIGHT","missing_data_rule":"UNKNOWN_NOT_LOW_RISK","not_catchment":true,"not_event_footprint":true,"not_historical_hydraulic_capacity":true,"parent_system":"Chillon","production_ready":false,"production_use":false,"representation":"OFFICIAL_FAJA_MARGINAL_HITO_ALIGNMENT","source_ids":["ANA-RD-0709-2025-AAACF","ANA-IT-024-2024-P_ALACHRL_39-JEAC"],"test_mode":"TEST_ONLY","unit_id":"quisquichaca_faja_right_margin"},"type":"Feature"},{"geometry":{"coordinates":[[-76.7926346,-11.6631409],[-76.7918041,-11.6637698],[-76.7899915,-11.6657065],[-76.7893881,-11.6659905],[-76.7883983,-11.6661051],[-76.7874696,-11.6657222],[-76.7852451,-11.6663507],[-76.7819867,-11.665919],[-76.7805704,-11.665295],[-76.7772853,-11.6635616],[-76.7757344,-11.6619531],[-76.7733867,-11.6605123],[-76.7714065,-11.6606239],[-76.7698081,-11.6602089],[-76.7689287,-11.6603589],[-76.7679927,-11.6602653],[-76.7670266,-11.659765],[-76.7655216,-11.6596205],[-76.7643585,-11.6598627],[-76.7628866,-11.660604],[-76.7617315,-11.6606653],[-76.7608927,-11.6614478],[-76.7604402,-11.6623998],[-76.759756,-11.6629825],[-76.7588682,-11.6632681],[-76.7575585,-11.6635383],[-76.7571119,-11.6639749],[-76.7556709,-11.6637939],[-76.754739,-11.6629047],[-76.7540312,-11.6611824],[-76.7514208,-11.6602401],[-76.7504451,-11.6596766],[-76.7498485,-11.6595898],[-76.7486856,-11.6598771],[-76.7480002,-11.66027],[-76.7477915,-11.6606238],[-76.7473429,-11.6607531],[-76.7466269,-11.660649],[-76.7461378,-11.6601638],[-76.7442338,-11.6592533],[-76.744094,-11.6589016],[-76.7435247,-11.6587785],[-76.7429218,-11.6591618]],"type":"LineString"},"properties":{"activation_gate":"BLOCKED","alerting_enabled":false,"candidate_id":"lima_norte_arahuay_chillon","candidate_wide_sampling_ready":false,"counts_as_complete_candidate_geometry":false,"decision_thresholds":null,"deployment_status":"RESEARCH_ONLY","hito_count":43,"hydraulic_factors":null,"hydrologic_unit":"Rio Quisquichaca","map_role":"RESEARCH_CONTEXT_ONLY","margin":"LEFT","missing_data_rule":"UNKNOWN_NOT_LOW_RISK","not_catchment":true,"not_event_footprint":true,"not_historical_hydraulic_capacity":true,"parent_system":"Chillon","production_ready":false,"production_use":false,"representation":"OFFICIAL_FAJA_MARGINAL_HITO_ALIGNMENT","source_ids":["ANA-RD-0709-2025-AAACF","ANA-IT-024-2024-P_ALACHRL_39-JEAC"],"test_mode":"TEST_ONLY","unit_id":"quisquichaca_faja_left_margin"},"type":"Feature"}],"properties":{"activation_gate":"BLOCKED","candidate_id":"lima_norte_arahuay_chillon","candidate_wide_sampling_ready":false,"counts_as_complete_candidate_geometry":false,"decision_thresholds":null,"default_visibility":false,"deployment_status":"RESEARCH_ONLY","geometry_status":"PARTIAL_NON_CATCHMENT_CONTEXT","hydraulic_factors":null,"hydrologic_identity":"QUISQUICHACA_TRIBUTARY_OF_CHILLON_ONLY","missing_data_rule":"UNKNOWN_NOT_LOW_RISK","not_catchment":true,"not_event_footprint":true,"not_historical_hydraulic_capacity":true,"operational_alerting_enabled":false,"production_ready":false,"production_use":false,"representation":"TWO_SEPARATE_OFFICIAL_FAJA_MARGIN_ALIGNMENTS","source_ids":["ANA-RD-0709-2025-AAACF","ANA-IT-024-2024-P_ALACHRL_39-JEAC"],"test_mode":"TEST_ONLY","title":"Río Quisquichaca · alineamientos oficiales de faja marginal"},"type":"FeatureCollection"}
