{"features":[{"geometry":{"coordinates":[[-76.1052919,-12.9207914],[-76.1051274,-12.9210905],[-76.1048555,-12.9221495],[-76.1048677,-12.9228365],[-76.1050645,-12.923559],[-76.1049917,-12.9237763],[-76.104404,-12.9242761],[-76.1037802,-12.9249658],[-76.1018482,-12.9257877],[-76.1015184,-12.9262412],[-76.1015706,-12.9276423],[-76.102033,-12.927984],[-76.1021172,-12.9282729],[-76.1015704,-12.9296857],[-76.1015891,-12.9318464],[-76.1011489,-12.9323727],[-76.0998536,-12.9333546],[-76.0991849,-12.9343158],[-76.098891,-12.9345612],[-76.0985037,-12.9345357],[-76.0969699,-12.9357988]],"type":"LineString"},"properties":{"activation_gate":"BLOCKED","alerting_enabled":false,"artificial_connector_used":false,"branch":"MAIN_CHANNEL","candidate_id":"lima_sur_canete","candidate_wide_sampling_ready":false,"counts_as_complete_candidate_geometry":false,"decision_thresholds":null,"deployment_status":"RESEARCH_ONLY","hito_count":21,"hydraulic_factors":null,"hydrologic_unit":"Quebrada Jacayita","map_role":"RESEARCH_CONTEXT_ONLY","margin":"RIGHT","missing_data_rule":"UNKNOWN_NOT_LOW_RISK","not_catchment":true,"not_event_footprint":true,"not_historical_hydraulic_capacity":true,"not_observed_event":true,"parent_system":"Rio Canete y quebradas tributarias","production_ready":false,"production_use":false,"representation":"OFFICIAL_FAJA_MARGINAL_HITO_ALIGNMENT","source_ids":["ANA-JACAYITA-FAJA-RD0396-2025"],"test_mode":"TEST_ONLY","unit_id":"jacayita_main_faja_right_margin"},"type":"Feature"},{"geometry":{"coordinates":[[-76.1054581,-12.920845],[-76.105275,-12.921126],[-76.1050122,-12.9221578],[-76.1050334,-12.9227726],[-76.1052304,-12.9235674],[-76.1051303,-12.9238661],[-76.1047174,-12.9242928],[-76.1043787,-12.9248186],[-76.1041035,-12.9251182],[-76.1020611,-12.9259857],[-76.1018044,-12.9263123],[-76.1018461,-12.9274061],[-76.1024381,-12.9278918],[-76.1024854,-12.9281629],[-76.1020862,-12.9296112],[-76.1023922,-12.9321143],[-76.1017962,-12.9328401],[-76.0998744,-12.933897],[-76.0994449,-12.9347487],[-76.0992059,-12.9349124],[-76.0987264,-12.9348602],[-76.0971276,-12.9360242]],"type":"LineString"},"properties":{"activation_gate":"BLOCKED","alerting_enabled":false,"artificial_connector_used":false,"branch":"MAIN_CHANNEL","candidate_id":"lima_sur_canete","candidate_wide_sampling_ready":false,"counts_as_complete_candidate_geometry":false,"decision_thresholds":null,"deployment_status":"RESEARCH_ONLY","hito_count":22,"hydraulic_factors":null,"hydrologic_unit":"Quebrada Jacayita","map_role":"RESEARCH_CONTEXT_ONLY","margin":"LEFT","missing_data_rule":"UNKNOWN_NOT_LOW_RISK","not_catchment":true,"not_event_footprint":true,"not_historical_hydraulic_capacity":true,"not_observed_event":true,"parent_system":"Rio Canete y quebradas tributarias","production_ready":false,"production_use":false,"representation":"OFFICIAL_FAJA_MARGINAL_HITO_ALIGNMENT","source_ids":["ANA-JACAYITA-FAJA-RD0396-2025"],"test_mode":"TEST_ONLY","unit_id":"jacayita_main_faja_left_margin"},"type":"Feature"},{"geometry":{"coordinates":[[-76.101931,-12.9257512],[-76.1005847,-12.9256213],[-76.0994251,-12.9260149],[-76.0973228,-12.925852],[-76.0952221,-12.9260416],[-76.0938706,-12.9268429],[-76.0923427,-12.9273285],[-76.0917822,-12.9277377],[-76.0913704,-12.9284266],[-76.0902843,-12.9287928]],"type":"LineString"},"properties":{"activation_gate":"BLOCKED","alerting_enabled":false,"artificial_connector_used":false,"branch":"APORTANTE_1","candidate_id":"lima_sur_canete","candidate_wide_sampling_ready":false,"counts_as_complete_candidate_geometry":false,"decision_thresholds":null,"deployment_status":"RESEARCH_ONLY","hito_count":10,"hydraulic_factors":null,"hydrologic_unit":"Quebrada Jacayita","map_role":"RESEARCH_CONTEXT_ONLY","margin":"RIGHT","missing_data_rule":"UNKNOWN_NOT_LOW_RISK","not_catchment":true,"not_event_footprint":true,"not_historical_hydraulic_capacity":true,"not_observed_event":true,"parent_system":"Rio Canete y quebradas tributarias","production_ready":false,"production_use":false,"representation":"OFFICIAL_FAJA_MARGINAL_HITO_ALIGNMENT","source_ids":["ANA-JACAYITA-FAJA-RD0396-2025"],"test_mode":"TEST_ONLY","unit_id":"jacayita_aportante_1_faja_right_margin"},"type":"Feature"},{"geometry":{"coordinates":[[-76.1015184,-12.9262412],[-76.0997784,-12.9267186],[-76.0976937,-12.9263567],[-76.0958056,-12.9266811],[-76.0940387,-12.9273485],[-76.0925565,-12.9277435],[-76.0919955,-12.9280533],[-76.0916753,-12.9285971],[-76.0903959,-12.9290093]],"type":"LineString"},"properties":{"activation_gate":"BLOCKED","alerting_enabled":false,"artificial_connector_used":false,"branch":"APORTANTE_1","candidate_id":"lima_sur_canete","candidate_wide_sampling_ready":false,"counts_as_complete_candidate_geometry":false,"decision_thresholds":null,"deployment_status":"RESEARCH_ONLY","hito_count":9,"hydraulic_factors":null,"hydrologic_unit":"Quebrada Jacayita","map_role":"RESEARCH_CONTEXT_ONLY","margin":"LEFT","missing_data_rule":"UNKNOWN_NOT_LOW_RISK","not_catchment":true,"not_event_footprint":true,"not_historical_hydraulic_capacity":true,"not_observed_event":true,"parent_system":"Rio Canete y quebradas tributarias","production_ready":false,"production_use":false,"representation":"OFFICIAL_FAJA_MARGINAL_HITO_ALIGNMENT","source_ids":["ANA-JACAYITA-FAJA-RD0396-2025"],"test_mode":"TEST_ONLY","unit_id":"jacayita_aportante_1_faja_left_margin"},"type":"Feature"}],"properties":{"activation_gate":"BLOCKED","artificial_connector_used":false,"candidate_id":"lima_sur_canete","candidate_wide_sampling_ready":false,"component_id":"jacayita","counts_as_complete_candidate_geometry":false,"decision_thresholds":null,"default_visibility":false,"deployment_status":"RESEARCH_ONLY","geometry_status":"PARTIAL_NON_CATCHMENT_CONTEXT","hydraulic_factors":null,"hydrologic_identity":"JACAYITA_MAIN_AND_APORTANTE_1_ONLY","missing_data_rule":"UNKNOWN_NOT_LOW_RISK","not_catchment":true,"not_event_footprint":true,"not_historical_hydraulic_capacity":true,"not_observed_event":true,"operational_alerting_enabled":false,"production_ready":false,"production_use":false,"representation":"FOUR_SEPARATE_OFFICIAL_FAJA_MARGIN_ALIGNMENTS","source_ids":["ANA-JACAYITA-FAJA-RD0396-2025"],"test_mode":"TEST_ONLY","title":"Quebrada Jacayita · alineamientos oficiales de faja marginal"},"type":"FeatureCollection"}
