{
  "type": "FeatureCollection",
  "properties": {
    "collection_id": "phase2-rimac-jicamarca-qhuay1-monitoring-anchor-candidate:v0.1",
    "deployment_status": "RESEARCH_ONLY",
    "test_mode": "TEST_ONLY",
    "production_use": false,
    "production_ready": false,
    "operational_alerting_enabled": false,
    "activation_gate": "BLOCKED",
    "decision_thresholds": null,
    "hydraulic_factors": null,
    "map_eligible": false,
    "withheld_reason": "CANDIDATE_PENDING_SOURCE_PDF_VERIFICATION_AND_INDEPENDENT_QA",
    "package_contract": "config/phase2_rimac_jicamarca_qhuay1_candidate_package_v0_1.json"
  },
  "features": [
    {
      "type": "Feature",
      "properties": {
        "unit_id": "qhuay1_near_confluence_anchor",
        "name": "QHuay1 · Quebrada Huaycoloro, 40 m antes de la confluencia con el río Rímac (punto de monitoreo ANA)",
        "deployment_status": "RESEARCH_ONLY",
        "production_use": false,
        "production_ready": false,
        "alerting_enabled": false,
        "loaded_into_operational_calculation": false,
        "carries_alert_values": false,
        "carries_risk_classification": false,
        "node_semantics_candidate": "NEAR_CONFLUENCE",
        "may_be_labeled_exact_confluence": false,
        "station_role": "WATER_QUALITY_MONITORING_POINT",
        "is_flow_gauge": false,
        "is_stage_gauge": false,
        "is_outlet": false,
        "is_exact_confluence": false,
        "source_id": "ANA-ANA0000959-QHUAY1",
        "source_crs": "WGS84 / UTM zone 18S (EPSG:32718)",
        "source_easting_m": 287433,
        "source_northing_m": 8670443,
        "source_location_description": "Quebrada Huaycoloro, 40 m antes de la confluencia con el rio Rimac",
        "coordinate_transform": "EPSG:32718 -> EPSG:4326, Krueger 4th-order inverse series (verified against pyproj in CI); no shift, snap or 40 m offset applied",
        "confidence": "OFFICIAL_MONITORING_COORDINATE_PENDING_FROZEN_PDF_CHECK"
      },
      "geometry": {
        "type": "Point",
        "coordinates": [
          -76.95247928,
          -12.02033736
        ]
      }
    }
  ]
}
