{
  "type": "FeatureCollection",
  "properties": {
    "version": "phase2-rimac-static-coupling-nodes-v0.1",
    "deployment_status": "RESEARCH_ONLY",
    "test_mode": "TEST_ONLY",
    "production_use": false,
    "production_ready": false,
    "operational_alerting_enabled": false,
    "activation_gate": "BLOCKED",
    "missing_data_rule": "UNKNOWN_NOT_LOW_RISK",
    "decision_thresholds": null,
    "hydraulic_factors": null,
    "parent_id": "lima_este_santa_eulalia_rimac",
    "parent_role": "CONTEXT_CONTAINER_NON_ACTIVATABLE",
    "source_package": "site/data/phase2/sources/rimac_mml_2013_static_coupling_v0_1.json",
    "warning": "Static channel anchors, collector controls and terrain-D8 hydrologic intersection nodes only. No risk, alert, discharge, travel time, capacity or event footprint is encoded."
  },
  "features": [
    {
      "type": "Feature",
      "properties": {
        "unit_id": "rimac_r4_puente_colgante",
        "name": "Rímac · R4 Puente Colgante",
        "node_role": "COLLECTOR_CONTROL_POINT_STATIC_CONTEXT",
        "deployment_status": "RESEARCH_ONLY",
        "production_use": false,
        "production_ready": false,
        "alerting_enabled": false,
        "activation_gate": "BLOCKED",
        "capacity_status": "UNKNOWN",
        "carries_risk_classification": false,
        "carries_alert_values": false,
        "counts_as_event_footprint": false,
        "source_id": "MML-SGDC-RIMAC-MONITORING-2013",
        "confidence": "OFFICIAL_STATIC_COORDINATE_CONTEXT"
      },
      "geometry": {"type": "Point", "coordinates": [-76.69255813902859, -11.93507041701107]}
    },
    {
      "type": "Feature",
      "properties": {
        "unit_id": "rimac_r9_puente_california",
        "name": "Rímac · R9 Puente California",
        "node_role": "COLLECTOR_CONTROL_POINT_STATIC_CONTEXT",
        "deployment_status": "RESEARCH_ONLY",
        "production_use": false,
        "production_ready": false,
        "alerting_enabled": false,
        "activation_gate": "BLOCKED",
        "capacity_status": "UNKNOWN",
        "carries_risk_classification": false,
        "carries_alert_values": false,
        "counts_as_event_footprint": false,
        "source_id": "MML-SGDC-RIMAC-MONITORING-2013",
        "confidence": "OFFICIAL_STATIC_COORDINATE_CONTEXT"
      },
      "geometry": {"type": "Point", "coordinates": [-76.7261751272084, -11.953749940597932]}
    },
    {
      "type": "Feature",
      "properties": {
        "unit_id": "quirio_r8_channel_anchor",
        "name": "Quirio · R8 ancla de cauce",
        "node_role": "TRIBUTARY_CHANNEL_ANCHOR_STATIC_CONTEXT",
        "deployment_status": "RESEARCH_ONLY",
        "production_use": false,
        "production_ready": false,
        "alerting_enabled": false,
        "activation_gate": "BLOCKED",
        "carries_risk_classification": false,
        "carries_alert_values": false,
        "counts_as_event_footprint": false,
        "source_id": "MML-SGDC-RIMAC-MONITORING-2013",
        "confidence": "OFFICIAL_STATIC_COORDINATE_CONTEXT"
      },
      "geometry": {"type": "Point", "coordinates": [-76.7167453631911, -11.934634563201794]}
    },
    {
      "type": "Feature",
      "properties": {
        "unit_id": "quirio_rimac_d8_intersection",
        "name": "Quirio → Rímac · intersección D8 reproducible",
        "node_role": "RECEIVER_HYDROLOGIC_INTERSECTION_NODE",
        "deployment_status": "RESEARCH_ONLY",
        "production_use": false,
        "production_ready": false,
        "alerting_enabled": false,
        "activation_gate": "BLOCKED",
        "collector_effect_state": "HYDROLOGICALLY_CONNECTED",
        "official_surface_confluence_confirmed": false,
        "carries_risk_classification": false,
        "carries_alert_values": false,
        "counts_as_event_footprint": false,
        "source_id": "MML-SGDC-RIMAC-MONITORING-2013",
        "method": "MML_R4_R9_RIMAC_D8_FIRST_INTERSECTION_WITH_QUIRIO_R8",
        "confidence": "REPRODUCIBLE_TERRAIN_D8_HYDROLOGIC_INTERSECTION"
      },
      "geometry": {"type": "Point", "coordinates": [-76.7084038, -11.94512659]}
    },
    {
      "type": "Feature",
      "properties": {
        "unit_id": "pedregal_r7_channel_anchor",
        "name": "Pedregal / San Antonio · R7 ancla de cauce",
        "node_role": "TRIBUTARY_CHANNEL_ANCHOR_STATIC_CONTEXT",
        "deployment_status": "RESEARCH_ONLY",
        "production_use": false,
        "production_ready": false,
        "alerting_enabled": false,
        "activation_gate": "BLOCKED",
        "carries_risk_classification": false,
        "carries_alert_values": false,
        "counts_as_event_footprint": false,
        "source_id": "MML-SGDC-RIMAC-MONITORING-2013",
        "confidence": "OFFICIAL_STATIC_COORDINATE_CONTEXT"
      },
      "geometry": {"type": "Point", "coordinates": [-76.70284849291879, -11.921710826978806]}
    },
    {
      "type": "Feature",
      "properties": {
        "unit_id": "pedregal_rimac_d8_intersection",
        "name": "Pedregal / San Antonio → Rímac · intersección D8 reproducible",
        "node_role": "RECEIVER_HYDROLOGIC_INTERSECTION_NODE",
        "deployment_status": "RESEARCH_ONLY",
        "production_use": false,
        "production_ready": false,
        "alerting_enabled": false,
        "activation_gate": "BLOCKED",
        "collector_effect_state": "HYDROLOGICALLY_CONNECTED",
        "official_surface_confluence_confirmed": false,
        "carries_risk_classification": false,
        "carries_alert_values": false,
        "counts_as_event_footprint": false,
        "source_id": "MML-SGDC-RIMAC-MONITORING-2013",
        "method": "MML_R4_R9_RIMAC_D8_FIRST_INTERSECTION_WITH_PEDREGAL_R7",
        "confidence": "REPRODUCIBLE_TERRAIN_D8_HYDROLOGIC_INTERSECTION"
      },
      "geometry": {"type": "Point", "coordinates": [-76.70048443, -11.94255661]}
    }
  ]
}
