{
  "type": "FeatureCollection",
  "properties": {
    "layer_id": "rimac_corrales_coupling_nodes_v0_1",
    "title": "Rímac · Corrales/Rayos de Sol · nodos estáticos de acoplamiento",
    "deployment_status": "RESEARCH_ONLY",
    "test_mode": "TEST_ONLY",
    "production_use": false,
    "production_ready": false,
    "operational_alerting_enabled": false,
    "activation_gate": "BLOCKED",
    "missing_data_rule": "UNKNOWN_NOT_LOW_RISK",
    "decision_thresholds": null,
    "hydraulic_factors": null,
    "default_visibility": false,
    "carries_risk_classification": false,
    "carries_alert_values": false,
    "counts_as_event_footprint": false,
    "counts_as_complete_candidate_geometry": false
  },
  "features": [
    {
      "type": "Feature",
      "properties": {
        "unit_id": "corrales_r5_channel_anchor",
        "role": "STATIC_OFFICIAL_CHANNEL_ANCHOR",
        "source_id": "MML-SGDC-RIMAC-MONITORING-2013",
        "source_date": "2013-06-20",
        "hydrologic_unit_id": "corrales",
        "territorial_target_label": "rayos_de_sol",
        "collector_effect_state": null,
        "official_surface_confluence_confirmed": false,
        "deployment_status": "RESEARCH_ONLY",
        "production_use": false,
        "production_ready": false,
        "alerting_enabled": false,
        "carries_risk_classification": false,
        "carries_alert_values": false,
        "counts_as_event_footprint": false
      },
      "geometry": {
        "type": "Point",
        "coordinates": [
          -76.68075049654043,
          -11.922865103815958
        ]
      }
    },
    {
      "type": "Feature",
      "properties": {
        "unit_id": "corrales_rimac_d8_intersection",
        "role": "REPRODUCIBLE_TERRAIN_D8_HYDROLOGIC_INTERSECTION",
        "source_ref": "agent/chosica-2015-multibasin-v0.1",
        "source_blob_sha": "b80f6f314e3f7759dbd41b5dc1250f2b473c2414",
        "hydrologic_unit_id": "corrales",
        "territorial_target_label": "rayos_de_sol",
        "collector_id": "rimac_mainstem_receiver",
        "collector_effect_state": "HYDROLOGICALLY_CONNECTED",
        "official_surface_confluence_confirmed": false,
        "deployment_status": "RESEARCH_ONLY",
        "production_use": false,
        "production_ready": false,
        "alerting_enabled": false,
        "carries_risk_classification": false,
        "carries_alert_values": false,
        "counts_as_event_footprint": false
      },
      "geometry": {
        "type": "Point",
        "coordinates": [
          -76.68083293,
          -11.92442315
        ]
      }
    }
  ]
}
