{
  "type": "FeatureCollection",
  "name": "w1_huerta_vieja_faja_margin_review_only",
  "properties": {
    "candidate_id": "lima_norte_huerta_vieja",
    "deployment_status": "RESEARCH_ONLY",
    "review_status": "REVIEW_ONLY",
    "production_use": false,
    "production_ready": false,
    "operational_alerting_enabled": false,
    "source_snapshot": "site/data/phase2/sources/w1_remaining_geometry_source_snapshot.json",
    "source_snapshot_sha256": "726679762c294603ae3bc8caae708d5b4eb8ef4483a676a6ec9c825b3dd670b1",
    "coordinate_payload_sha256": "49efe126934941613edf5e68a66e6772295bf4cb79bc64189677b13e628deb1b",
    "source_crs": "EPSG:32718",
    "output_crs": "EPSG:4326",
    "entity_type": "FAJA_MARGINAL_HITO_SEQUENCE",
    "bank_assignment": "UNRESOLVED_OFFICIAL_SOURCE_CONFLICT",
    "map_eligible_research_only": false,
    "not_a_watershed": true,
    "not_a_faja_polygon": true,
    "not_a_hazard_extent": true,
    "not_an_inundation_polygon": true
  },
  "features": [
    {
      "type": "Feature",
      "properties": {
        "unit_id": "huerta_vieja_faja_hitos_18_review_only",
        "candidate_id": "lima_norte_huerta_vieja",
        "entity_type": "FAJA_MARGINAL_HITO_SEQUENCE",
        "bank_assignment": "UNRESOLVED_OFFICIAL_SOURCE_CONFLICT",
        "source_hito_count": 18,
        "source_id": "ANA-IT-016-2024-ALACHRL",
        "source_act": "ANA-RD-0690-2025-AAACF",
        "source_snapshot_id": "SIGRID-19291-HUERTA-VIEJA",
        "source_pdf_sha256": "ded278b730c4daa0eb28086582a5fe3d7af817b9c5964890f700a48503cc5ec0",
        "source_crs": "EPSG:32718",
        "output_crs": "EPSG:4326",
        "confidence": "HIGH_COORDINATE_PROVENANCE_UNRESOLVED_BANK_ASSIGNMENT_PARTIAL_ENTITY_COVERAGE",
        "deployment_status": "RESEARCH_ONLY",
        "review_status": "REVIEW_ONLY",
        "production_use": false,
        "production_ready": false,
        "alerting_enabled": false,
        "map_eligible_research_only": false,
        "artificial_links": false,
        "closed_ring": false,
        "not_a_watershed": true,
        "not_a_faja_polygon": true,
        "not_a_hazard_extent": true,
        "not_an_inundation_polygon": true,
        "source_hitos": [
          "P5 MI",
          "P4 MI",
          "P3 MI",
          "P2 MI",
          "P1 MI",
          "HI-8",
          "HI-9",
          "HI-10",
          "HI-11",
          "HI-12",
          "HI-13",
          "HI-14",
          "HI-15",
          "HI-16",
          "HI-17",
          "HI-18",
          "HI-19",
          "HI-20"
        ],
        "source_utm": [
          [
            300596.0,
            8706636.0
          ],
          [
            300633.0,
            8706553.0
          ],
          [
            300654.0,
            8706452.0
          ],
          [
            300663.0,
            8706419.0
          ],
          [
            300657.0,
            8706370.0
          ],
          [
            300653.0,
            8706336.0
          ],
          [
            300603.0,
            8706197.0
          ],
          [
            300575.0,
            8706134.0
          ],
          [
            300538.0,
            8706064.0
          ],
          [
            300540.0,
            8705985.0
          ],
          [
            300552.0,
            8705916.0
          ],
          [
            300576.0,
            8705852.0
          ],
          [
            300573.0,
            8705785.0
          ],
          [
            300546.0,
            8705693.0
          ],
          [
            300493.0,
            8705560.0
          ],
          [
            300452.0,
            8705420.0
          ],
          [
            300411.0,
            8705312.0
          ],
          [
            300361.0,
            8705198.0
          ]
        ]
      },
      "geometry": {
        "type": "LineString",
        "coordinates": [
          [
            -76.82943745,
            -11.69401336
          ],
          [
            -76.82910305,
            -11.69476576
          ],
          [
            -76.82891644,
            -11.69567992
          ],
          [
            -76.82883586,
            -11.69597873
          ],
          [
            -76.8288938,
            -11.69642129
          ],
          [
            -76.8289325,
            -11.69672838
          ],
          [
            -76.82939932,
            -11.69798187
          ],
          [
            -76.82965987,
            -11.69854968
          ],
          [
            -76.83000337,
            -11.69918024
          ],
          [
            -76.82998972,
            -11.69989443
          ],
          [
            -76.82988376,
            -11.70051882
          ],
          [
            -76.82966745,
            -11.70109872
          ],
          [
            -76.82969894,
            -11.70170415
          ],
          [
            -76.82995204,
            -11.70253416
          ],
          [
            -76.83044604,
            -11.70373323
          ],
          [
            -76.8308304,
            -11.70499628
          ],
          [
            -76.83121286,
            -11.70597008
          ],
          [
            -76.83167823,
            -11.70699758
          ]
        ]
      }
    }
  ]
}
